
G1 X0 Y0 ; Move to starting position

; Define a smooth transition function using small movements
; Moving right (X0 → X100)
;M150 P0 R255 G0 B0 I100
G1 X5 Y0 F250
;M150 P0 R255 G85 B0 I100
G1 X10 Y0 F250
;M150 P0 R255 G165 B0 I100
G1 X15 Y0 F250
;M150 P0 R255 G255 B0 I100
G1 X20 Y0 F250
;M150 P0 R200 G255 B0 I100
G1 X25 Y0 F250
;M150 P0 R128 G255 B0 I100
G1 X30 Y0 F250
;M150 P0 R0 G255 B0 I100
G1 X35 Y0 F250
;M150 P0 R0 G255 B128 I100
G1 X40 Y0 F250
;M150 P0 R0 G255 B255 I100
G1 X45 Y0 F250
;M150 P0 R0 G128 B255 I100
G1 X50 Y0 F250
;M150 P0 R0 G0 B255 I100
G1 X55 Y0 F250
;M150 P0 R85 G0 B255 I100
G1 X60 Y0 F250
;M150 P0 R165 G0 B255 I100
G1 X65 Y0 F250
;M150 P0 R255 G0 B255 I100
G1 X70 Y0 F250
;M150 P0 R255 G0 B128 I100
G1 X75 Y0 F250
;M150 P0 R255 G0 B0 I100
G1 X100 Y0 F250

; Moving up (Y0 → Y100)
;M150 P0 R255 G85 B0 I100
G1 X100 Y5 F250
;M150 P0 R255 G165 B0 I100
G1 X100 Y10 F250
;M150 P0 R255 G255 B0 I100
G1 X100 Y15 F250
;M150 P0 R200 G255 B0 I100
G1 X100 Y20 F250
;M150 P0 R128 G255 B0 I100
G1 X100 Y25 F250
;M150 P0 R0 G255 B0 I100
G1 X100 Y30 F250
;M150 P0 R0 G255 B128 I100
G1 X100 Y35 F250
;M150 P0 R0 G255 B255 I100
G1 X100 Y40 F250
;M150 P0 R0 G128 B255 I100
G1 X100 Y45 F250
;M150 P0 R0 G0 B255 I100
G1 X100 Y50 F250
;M150 P0 R85 G0 B255 I100
G1 X100 Y55 F250
;M150 P0 R165 G0 B255 I100
G1 X100 Y60 F250
;M150 P0 R255 G0 B255 I100
G1 X100 Y65 F250
;M150 P0 R255 G0 B128 I100
G1 X100 Y75 F250
;M150 P0 R255 G0 B0 I100
G1 X100 Y100 F250



;M150 P0 R0 G0 B0 I0 ; Turn LEDs off at end
G1 X0 Y0 ; Program End
