G21
G90;svg#Layer_2 > g#Layer_1-2 > path
M150 R0 U0 B0 P0
G1 X23.171333333333333 Y19.192
M150 R255 G0 B0 I30 P56

M150 R255 G4 B0 I30 P56

M150 P0 R251 G133 B0 I3 

G1 X23.497082535592792 Y19.185763568443367 F300
G1 X23.821042307147938 Y19.167190564461105 F300
G1 X24.14307603267738 Y19.136459149112586 F300
M150 R255 G8 B0 I30 P56

G1 X24.463047321762257 Y19.09371305833628 F300
G1 X24.78081688374598 Y19.039062437581592 F300
M150 R255 G12 B0 I30 P56

G1 X25.09623940740741 Y18.972584765432103 F300
G1 X25.409307436111323 Y18.894286176096994 F300
G1 X25.718648656870496 Y18.804538431939626 F300
M150 R255 G16 B0 I30 P56

G1 X26.02411770295162 Y18.70344568233508 F300
G1 X26.32556168189954 Y18.591080891542614 F300
M150 R255 G21 B0 I30 P56

G1 X26.622817174218802 Y18.467486845054903 F300
G1 X26.91570725925926 Y18.332677234567903 F300
G1 X27.203122908436562 Y18.18712335566807 F300
M150 R255 G25 B0 I30 P56

G1 X27.484858604119275 Y18.030915382983636 F300
G1 X27.760755007631246 Y17.864087137931058 F300
M150 R255 G29 B0 I30 P56

G1 X28.030637073925075 Y17.686642989597207 F300
G1 X28.29431101801808 Y17.498559087264013 F300
G1 X28.551561333333336 Y17.299784666666667 F300
M150 R255 G33 B0 I30 P56

G1 X28.79740665716658 Y17.094439806882917 F300
G1 X29.03451928391456 Y16.88085284469222 F300
G1 X29.26289266486982 Y16.659245923590017 F300
M150 R255 G38 B0 I30 P56

G1 X29.48250055448228 Y16.429816151077173 F300
G1 X29.69329521172143 Y16.19273803853091 F300
M150 R255 G42 B0 I30 P56

G1 X29.89520565432099 Y15.948166000000006 F300
G1 X30.08826368734345 Y15.696063653907052 F300
G1 X30.271593875752945 Y15.437614782460106 F300
M150 R255 G46 B0 I30 P56

G1 X30.445144474189686 Y15.172995798528484 F300
G1 X30.608840411123648 Y14.902364616346258 F300
M150 R255 G50 B0 I30 P56

G1 X30.76258166107307 Y14.625863137553905 F300
G1 X30.906241679012346 Y14.343619777777782 F300
G1 X31.03939715553993 Y14.0563610120449 F300
M150 R255 G55 B0 I30 P56

G1 X31.16178181618796 Y13.76460289338207 F300
G1 X31.273298124429914 Y13.468478649437216 F300
M150 R255 G59 B0 I30 P56

G1 X31.373820121923348 Y13.168108644733842 F300
G1 X31.46319187512212 Y12.863603071659073 F300
G1 X31.541225999999998 Y12.55506466666667 F300
M150 R255 G63 B0 I30 P56

G1 X31.587230660389615 Y12.34598800180403 F300
G1 X31.63004133333333 Y12.122587333333335 F300
G1 X31.6783937659474 Y11.822481685887054 F300
M150 R255 G67 B0 I30 P56

G1 X31.716133149744017 Y11.519512414420388 F300
G1 X31.743205431467413 Y11.214170349267672 F300
M150 R255 G72 B0 I30 P56

G1 X31.759530121857452 Y10.906945828395447 F300
G1 X31.764999999999993 Y10.598333333333336 F300
G1 X31.760408116161084 Y10.317056762162931 F300
M150 R255 G76 B0 I30 P56

G1 X31.746700564356352 Y10.036428867975243 F300
G1 X31.723965253733407 Y9.75716342677222 F300
M150 R255 G80 B0 I30 P56

G1 X31.692271333333327 Y9.479971333333335 F300
G1 X31.14187763996812 Y9.411748002490679 F300
G1 X30.556932025700146 Y9.347640488168476 F300
M150 R255 G84 B0 I30 P56

G1 X29.93780734374999 Y9.288067718750003 F300
G1 X29.31864383308307 Y9.236086580469328 F300
M150 R255 G89 B0 I30 P56

G1 X28.67233904437163 Y9.189158090671864 F300
G1 X27.99988391666666 Y9.147622916666668 F300
G1 X27.327709832039503 Y9.113009063056937 F300
M150 R255 G93 B0 I30 P56

G1 X26.635983289613208 Y9.084164276344833 F300
G1 X25.92608636458333 Y9.061359489583335 F300
G1 X25.216553563405384 Y9.045183306269058 F300
M150 R255 G97 B0 I30 P56

G1 X24.495318925687346 Y9.035329894824486 F300
G1 X23.763999999999996 Y9.032000000000002 F300
M150 R255 G102 B0 I30 P56

G1 X22.883255648628623 Y9.036819165808227 F300
G1 X22.019969567035144 Y9.050997975416 F300
G1 X21.176712343749998 Y9.074128281250001 F300
M150 R255 G106 B0 I30 P56

G1 X20.33287408456022 Y9.106840312335255 F300
G1 X19.51976654313769 Y9.147937211423475 F300
M150 R255 G110 B0 I30 P56

G1 X18.739403749999994 Y9.196877750000002 F300
G1 X17.95878007475292 Y9.256012214885859 F300
G1 X17.222126813287616 Y9.322211158030168 F300
M150 R255 G114 B0 I30 P56

G1 X16.530488781249996 Y9.394795343750001 F300
G1 X16.006612566804186 Y9.457468714710988 F300
M150 R255 G119 B0 I30 P56

G1 X15.515121007985131 Y9.52320617125803 F300
G1 X15.055818644362535 Y9.59164138725416 F300
G1 X14.628381999999995 Y9.662428000000002 F300
M150 R255 G123 B0 I30 P56

G1 X14.600348798221457 Y9.969544669565442 F300
G1 X14.583375367543107 Y10.282002010575766 F300
G1 X14.577666666666662 Y10.598333333333336 F300
M150 R255 G127 B0 I30 P56

G1 X14.58193568798927 Y10.87132320651675 F300
G1 X14.594657926226438 Y11.142508899235063 F300
M150 R255 G131 B0 I30 P56

G1 X14.615718936295016 Y11.411444051264208 F300
G1 X14.645021210011365 Y11.677689062310439 F300
G1 X14.682483999999997 Y11.940808 F300
M150 R255 G136 B0 I30 P56

G1 X14.723727250420229 Y12.182509427213244 F300
G1 X14.770550764711688 Y12.415921581403612 F300
M150 R255 G140 B0 I30 P56

G1 X14.822522666666663 Y12.639985333333332 F300
G1 X14.902918763688952 Y12.945116954725941 F300
G1 X14.994456989905062 Y13.246239611227208 F300
M150 R255 G144 B0 I30 P56

G1 X15.096952924190871 Y13.54324846616704 F300
G1 X15.210252526197124 Y13.836031135020521 F300
M150 R255 G148 B0 I30 P56

G1 X15.334230670230484 Y14.124465052403474 F300
G1 X15.468789604938268 Y14.408414864197534 F300
G1 X15.613634877436226 Y14.687319923573801 F300
M150 R255 G153 B0 I30 P56

G1 X15.768361558136196 Y14.960507224938295 F300
G1 X15.932841925869816 Y15.227846889677974 F300
G1 X16.10697382918198 Y15.489195813165548 F300
M150 R255 G157 B0 I30 P56

G1 X16.29067914407067 Y15.74439521811317 F300
G1 X16.4839021728395 Y15.99326824691358 F300
M150 R255 G161 B0 I30 P56

G1 X16.685809343948748 Y16.234697257060947 F300
G1 X16.896386421911465 Y16.468659541855367 F300
G1 X17.115557891223137 Y16.695001136346793 F300
M150 R255 G165 B0 I30 P56

G1 X17.343270692554505 Y16.91354854556702 F300
G1 X17.579492508695214 Y17.124106316558425 F300
M150 R255 G170 B0 I30 P56

G1 X17.824209999999994 Y17.326454666666663 F300
G1 X18.084296889196494 Y17.525707667849485 F300
G1 X18.34919220344589 Y17.713490789575598 F300
M150 R255 G174 B0 I30 P56

G1 X18.618812129693207 Y17.889953300954367 F300
G1 X18.89309281959282 Y18.05521808164758 F300
M150 R255 G178 B0 I30 P56

G1 X19.17198859936692 Y18.20938061593492 F300
G1 X19.455470123456784 Y18.35250804938272 F300
G1 X19.744959535517957 Y18.485264961951458 F300
M150 R255 G182 B0 I30 P56

G1 X20.038477325586157 Y18.606694191827238 F300
G1 X20.33600581689594 Y18.716838740067015 F300
G1 X20.637540088943336 Y18.81571139858641 F300
M150 R255 G187 B0 I30 P56

G1 X20.94308598624585 Y18.903294014883706 F300
G1 X21.25265809876543 Y18.979536839506174 F300
M150 R255 G191 B0 I30 P56

G1 X21.56385475435672 Y19.043904133156605 F300
G1 X21.878454182647893 Y19.096821952954095 F300
G1 X22.196476097677227 Y19.13821463087342 F300
M150 R255 G195 B0 I30 P56

G1 X22.517944983764476 Y19.1679743106151 F300
G1 X22.84288807377775 Y19.185960548968552 F300
M150 R255 G199 B0 I30 P56

G1 X23.171333333333333 Y19.192 F300
; M150 R0 U0 B0 P0
G1 X23.171333333333333 Y19.276666666666667
M150 R255 G199 B0 I30 P56

G1 X22.829433570558486 Y19.270056557976012 F300
M150 R255 G204 B0 I30 P56

G1 X22.49248281325009 Y19.250512166850907 F300
G1 X22.160443422280153 Y19.218430062627817 F300
M150 R255 G208 B0 I30 P56

G1 X21.83327788091848 Y19.17416476339121 F300
G1 X21.51095127090111 Y19.118030140974753 F300
G1 X21.193433765432097 Y19.050300925925928 F300
M150 R255 G212 B0 I30 P56

G1 X20.87626479124621 Y18.97000177737935 F300
G1 X20.564834377360697 Y18.878487702807355 F300
G1 X20.259133664102663 Y18.776032763788596 F300
M150 R255 G216 B0 I30 P56

G1 X19.959161339956562 Y18.662876714056804 F300
G1 X19.664925902107147 Y18.539226612166736 F300
M150 R255 G220 B0 I30 P56

G1 X19.37644790123457 Y18.405258518518522 F300
G1 X19.0920096617587 Y18.26018453777846 F300
G1 X18.814298298138596 Y18.10540409822232 F300
M150 R255 G225 B0 I30 P56

G1 X18.543342463293843 Y17.94110752159373 F300
G1 X18.27918401989088 Y17.767457601115954 F300
M150 R255 G229 B0 I30 P56

G1 X18.021880078402855 Y17.584591325239938 F300
G1 X17.771504999999998 Y17.392621666666667 F300
G1 X17.52796068916722 Y17.191475207472806 F300
M150 R255 G233 B0 I30 P56

G1 X17.292274042741184 Y16.982025926423983 F300
G1 X17.064512360623503 Y16.76440346780772 F300
M150 R255 G238 B0 I30 P56

G1 X16.844761140467302 Y16.53871534958327 F300
G1 X16.633125961796896 Y16.305048791439226 F300
G1 X16.429734320987656 Y16.063472592592596 F300
M150 R255 G242 B0 I30 P56

G1 X16.235430108509835 Y15.814958980545867 F300
G1 X16.050177180305987 Y15.559460358457674 F300
G1 X15.874086524189034 Y15.297053109732538 F300
M150 R255 G246 B0 I30 P56

G1 X15.70729288506369 Y15.0277961568052 F300
G1 X15.549956559118915 Y14.751732954380136 F300
M150 R255 G250 B0 I30 P56

G1 X15.402265123456791 Y14.46889351851852 F300
G1 X15.265605958222135 Y14.181878028872005 F300
G1 X15.13921257009143 Y13.889055015510316 F300
M150 R255 G255 B0 I30 P56

G1 X15.023257927965618 Y13.590446991932167 F300
G1 X14.917945691213491 Y13.286064155304594 F300
M150 R250 G255 B0 I30 P56

G1 X14.823511914110428 Y12.975906619785986 F300
G1 X14.74022666666667 Y12.65996666666667 F300
G1 X14.686345446790543 Y12.427250299934366 F300
M150 R246 G255 B0 I30 P56

G1 X14.639334355279772 Y12.191914022916048 F300
G1 X14.598833333333335 Y11.953846666666667 F300
M150 R242 G255 B0 I30 P56

G1 X14.5610263223378 Y11.688918278025453 F300
G1 X14.531442722381042 Y11.421013592359985 F300
G1 X14.51017057027073 Y11.150022939876095 F300
M150 R238 G255 B0 I30 P56

G1 X14.497315334922252 Y10.875834207526156 F300
G1 X14.493000000000002 Y10.598333333333333 F300
G1 X14.496687308494295 Y10.342009688381916 F300
M150 R233 G255 B0 I30 P56

G1 X14.507696972765002 Y10.088429837568539 F300
G1 X14.5259599970261 Y9.837707331711341 F300
M150 R229 G255 B0 I30 P56

G1 X14.55142 Y9.589953333333334 F300
G1 X14.96329040099144 Y9.520580270022267 F300
G1 X15.409252713345829 Y9.452824106963762 F300
M150 R225 G255 B0 I30 P56

G1 X15.890103463749815 Y9.387088489716486 F300
G1 X16.4065328125 Y9.323808958333332 F300
M150 R221 G255 B0 I30 P56

G1 X17.087762091430477 Y9.250399646451722 F300
G1 X17.8203484320767 Y9.18260665417842 F300
G1 X18.6043075 Y9.121323333333333 F300
M150 R216 G255 B0 I30 P56

G1 X19.38823368602345 Y9.070487602131122 F300
G1 X20.21340591251332 Y9.027278792761027 F300
M150 R212 G255 B0 I30 P56

G1 X21.0787834375 Y8.992497708333332 F300
G1 X21.943543573466897 Y8.967884091042567 F300
G1 X22.83918323791204 Y8.952593144781947 F300
M150 R208 G255 B0 I30 P56

G1 X23.764 Y8.947333333333333 F300
G1 X24.53656369205135 Y8.951000818664028 F300
M150 R203 G255 B0 I30 P56

G1 X25.28899440402311 Y8.961717662328054 F300
G1 X26.020282763462784 Y8.97906733647486 F300
G1 X26.729497037037042 Y9.00264888888889 F300
M150 R199 G255 B0 I30 P56

G1 X27.447744026985422 Y9.033611048598688 F300
G1 X28.13718597512043 Y9.070400295457294 F300
G1 X28.79724368728144 Y9.112536838424013 F300
M150 R195 G255 B0 I30 P56

G1 X29.427447407407406 Y9.159564444444445 F300
G1 X30.068894941015586 Y9.21486571313031 F300
M150 R191 G255 B0 I30 P56

G1 X30.672597184413945 Y9.274486059297537 F300
G1 X31.238712015792487 Y9.337878909472606 F300
G1 X31.767539999999997 Y9.404533333333333 F300
M150 R187 G255 B0 I30 P56

G1 X31.803092611385413 Y9.697472161063407 F300
G1 X31.828790082722463 Y9.994110910092243 F300
M150 R182 G255 B0 I30 P56

G1 X31.844400960294124 Y10.294411035039214 F300
G1 X31.849666666666664 Y10.598333333333333 F300
G1 X31.844026416603807 Y10.914259663638889 F300
M150 R178 G255 B0 I30 P56

G1 X31.8273088821106 Y11.226171274833888 F300
G1 X31.79979540498579 Y11.53404350517591 F300
M150 R174 G255 B0 I30 P56

G1 X31.761736631657037 Y11.83785253909781 F300
G1 X31.713353333333334 Y12.137573333333332 F300
G1 X31.671272329321123 Y12.357601297034478 F300
M150 R170 G255 B0 I30 P56

G1 X31.623606666666664 Y12.574453333333333 F300
G1 X31.542742146567218 Y12.893990839980704 F300
G1 X31.450490408646427 Y13.207707566720694 F300
M150 R165 G255 B0 I30 P56

G1 X31.347131908329903 Y13.51561240048319 F300
G1 X31.23291175237034 Y13.817706443663472 F300
M150 R161 G255 B0 I30 P56

G1 X31.10804137605743 Y14.113980667197527 F300
G1 X30.972700308641976 Y14.404413580246915 F300
G1 X30.826100017962954 Y14.690720284766467 F300
M150 R157 G255 B0 I30 P56

G1 X30.66965699690174 Y14.970193904976071 F300
G1 X30.50356561762223 Y15.242804640861303 F300
M150 R153 G255 B0 I30 P56

G1 X30.327991951388054 Y15.508509045578638 F300
G1 X30.143075560462346 Y15.767247912219732 F300
G1 X29.948931358024694 Y16.018944197530864 F300
M150 R148 G255 B0 I30 P56

G1 X29.745505065247883 Y16.26367079868996 F300
G1 X29.533673263755034 Y16.50040548603319 F300
M150 R144 G255 B0 I30 P56

G1 X29.313568110241565 Y16.729078696543812 F300
G1 X29.085299057511072 Y16.949602055750145 F300
G1 X28.84895475483676 Y17.161866424948116 F300
M150 R140 G255 B0 I30 P56

G1 X28.604605 Y17.36574 F300
G1 X28.353267898815545 Y17.56034702730673 F300
G1 X28.0948741964371 Y17.74573978196763 F300
M150 R136 G255 B0 I30 P56

G1 X27.829501323225344 Y17.9218036496667 F300
G1 X27.557208839908448 Y18.088399423145038 F300
M150 R131 G255 B0 I30 P56

G1 X27.278040511748337 Y18.245361442356888 F300
G1 X26.99202641975309 Y18.392495802469135 F300
G1 X26.701862157809977 Y18.52838550778004 F300
M150 R127 G255 B0 I30 P56

G1 X26.405844197373682 Y18.653817866071122 F300
G1 X26.103994490521508 Y18.7686139027656 F300
M150 R123 G255 B0 I30 P56

G1 X25.79632248340574 Y18.872562815795643 F300
G1 X25.482827443305126 Y18.96542021004403 F300
G1 X25.163500802469137 Y19.046906419753086 F300
M150 R119 G255 B0 I30 P56

G1 X24.88975665863588 Y19.106536255545517 F300
G1 X24.612429902229604 Y19.157552158472495 F300
M150 R114 G255 B0 I30 P56

G1 X24.331502402469035 Y19.199783038827547 F300
G1 X24.046952766547825 Y19.2330363047423 F300
G1 X23.758757539072313 Y19.257097119752828 F300
M150 R110 G255 B0 I30 P56

G1 X23.46689239662549 Y19.271727702388805 F300
G1 X23.171333333333337 Y19.276666666666667 F300
G1 X23.171333333333333 Y19.276666666666667 F300;svg#Layer_2 > g#Layer_1-2 > path
; M150 R0 U0 B0 P0
G1 X14.64921 Y9.486914
M150 R110 G255 B0 I30 P56

M150 R106 G255 B0 I30 P56

G1 X15.07805109332433 Y9.416756534707732 F300
M150 R101 G255 B0 I30 P56

G1 X15.538189366201836 Y9.348965646634394 F300
G1 X16.02991254393215 Y9.283879252035815 F300
G1 X16.553384499999996 Y9.221854416666668 F300
M150 R97 G255 B0 I30 P56

G1 X17.244610108405656 Y9.14995563499008 F300
G1 X17.980017060216458 Y9.08441056195609 F300
M150 R93 G255 B0 I30 P56

G1 X18.758549 Y9.025882833333334 F300
G1 X19.536816023366846 Y8.977421378329645 F300
G1 X20.34721014754754 Y8.936738938209638 F300
M150 R89 G255 B0 I30 P56

G1 X21.187741499999998 Y8.904365 F300
G1 X22.027700846047143 Y8.881467793256093 F300
M150 R84 G255 B0 I30 P56

G1 X22.88729615022542 Y8.867435146192463 F300
G1 X23.764 Y8.862666666666668 F300
G1 X24.491950960550795 Y8.865960624772093 F300
M150 R80 G255 B0 I30 P56

G1 X25.21002235163653 Y8.87570903820827 F300
G1 X25.916623541666663 Y8.891715270833334 F300
G1 X26.623581651318545 Y8.914276122199126 F300
M150 R76 G255 B0 I30 P56

G1 X27.312716379364474 Y8.942816923133147 F300
G1 X27.982664833333335 Y8.977072500000002 F300
M150 R72 G255 B0 I30 P56

G1 X28.652894187844815 Y9.01816451882499 F300
G1 X29.2974635969992 Y9.064603205440534 F300
G1 X29.915387875 Y9.116055479166668 F300
M150 R68 G255 B0 I30 P56

G1 X30.533281281960214 Y9.174992042579214 F300
G1 X31.1176342014494 Y9.238436995021186 F300
M150 R63 G255 B0 I30 P56

G1 X31.668056666666665 Y9.305981333333335 F300
G1 X31.618020481899453 Y9.00750051140126 F300
G1 X31.557302087388152 Y8.711578172071398 F300
M150 R59 G255 B0 I30 P56

G1 X31.486076145538284 Y8.41885182278469 F300
G1 X31.404489333333334 Y8.129961333333334 F300
M150 R55 G255 B0 I30 P56

G1 X31.312746406868254 Y7.842348665949738 F300
G1 X31.210823055451172 Y7.558599140301479 F300
G1 X31.09888960521579 Y7.278827362654131 F300
M150 R51 G255 B0 I30 P56

G1 X30.97709114650674 Y7.003155795710194 F300
G1 X30.845548935448633 Y6.731716991861962 F300
G1 X30.704361851851857 Y6.464655802469139 F300
M150 R46 G255 B0 I30 P56

G1 X30.553981233777417 Y6.2027562351318934 F300
G1 X30.3947009205201 Y5.946418319893431 F300
M150 R42 G255 B0 I30 P56

G1 X30.226653662708138 Y5.695778164447462 F300
G1 X30.049951121189714 Y5.450983776713601 F300
G1 X29.864685283744805 Y5.2121971301789145 F300
M150 R38 G255 B0 I30 P56

G1 X29.67092992592593 Y4.979596197530867 F300
G1 X29.469327137852762 Y4.754009003412539 F300
M150 R33 G255 B0 I30 P56

G1 X29.260101684346587 Y4.535707251293819 F300
G1 X29.043349288087125 Y4.3248420127967355 F300
G1 X28.819146892328554 Y4.121581122062973 F300
M150 R29 G255 B0 I30 P56

G1 X28.587554213498834 Y3.9261112609324487 F300
G1 X28.34861533333333 Y3.738640000000003 F300
M150 R25 G255 B0 I30 P56

G1 X28.094528126108436 Y3.5535881631113346 F300
G1 X27.83598870732527 Y3.379112248717125 F300
G1 X27.57307956140602 Y3.215092838206308 F300
M150 R21 G255 B0 I30 P56

G1 X27.30586638620812 Y3.061433528783239 F300
G1 X27.034399692184053 Y2.9180617586621986 F300
G1 X26.758716444444453 Y2.784929580246917 F300
M150 R16 G255 B0 I30 P56

G1 X26.477731799827122 Y2.661550723556678 F300
G1 X26.19310462838792 Y2.5486858833668484 F300
M150 R12 G255 B0 I30 P56

G1 X25.90486475795582 Y2.4463038177197864 F300
G1 X25.61303143000336 Y2.354399215733789 F300
G1 X25.317615038285957 Y2.272993309376848 F300
M150 R8 G255 B0 I30 P56

G1 X25.018618888888895 Y2.20213441975309 F300
G1 X24.718123042812106 Y2.142274196723793 F300
M150 R4 G255 B0 I30 P56

G1 X24.414676550789036 Y2.0930781464092227 F300
G1 X24.108279281651107 Y2.0546119907738767 F300
G1 X23.79892718743885 Y2.0269690833410237 F300
M150 R0 G255 B0 I30 P56

G1 X23.486614068257595 Y2.0102707671759386 F300
G1 X23.171333333333333 Y2.00466666666667 F300
M150 R0 G255 B4 I30 P56

G1 X22.85866549954771 Y2.010186663121411 F300
G1 X22.548861876700816 Y2.026636059743015 F300
G1 X22.241919713469276 Y2.053869681250671 F300
M150 R0 G255 B8 I30 P56

G1 X21.9378365968132 Y2.0917697822227734 F300
G1 X21.636612165517068 Y2.1402457596933173 F300
G1 X21.338249827160496 Y2.19923380246914 F300
M150 R0 G255 B12 I30 P56

G1 X21.0413668063908 Y2.2690501085360966 F300
G1 X20.74797538501725 Y2.349259840753457 F300
M150 R0 G255 B16 I30 P56

G1 X20.458082158323997 Y2.4398150735948576 F300
G1 X20.171700513760594 Y2.540694134469087 F300
G1 X19.888852342106766 Y2.651901076090922 F300
M150 R0 G255 B21 I30 P56

G1 X19.609569728395062 Y2.7734650864197574 F300
G1 X19.33545744440206 Y2.904658035731213 F300
M150 R0 G255 B25 I30 P56

G1 X19.06548731947291 Y3.045936854119578 F300
G1 X18.799697812815673 Y3.197346061811303 F300
G1 X18.538140417005955 Y3.3589540868881245 F300
M150 R0 G255 B29 I30 P56

G1 X18.28088126001659 Y3.530852522377597 F300
G1 X18.02800266666667 Y3.713155333333338 F300
M150 R0 G255 B33 I30 P56

G1 X17.790221075016827 Y3.8977899598978576 F300
G1 X17.559571537938357 Y4.090371986121198 F300
G1 X17.336103616192812 Y4.290696579820778 F300
M150 R0 G255 B38 I30 P56

G1 X17.11988190752249 Y4.498579150370738 F300
G1 X16.91098760615275 Y4.713853371233158 F300
G1 X16.709520024691365 Y4.936369160493832 F300
M150 R0 G255 B42 I30 P56

G1 X16.515740852557197 Y5.165815534244402 F300
G1 X16.3302584638663 Y5.401413568173726 F300
M150 R0 G255 B46 I30 P56

G1 X16.153149948454953 Y5.642985687215402 F300
G1 X15.984509861731388 Y5.8903699211550045 F300
G1 X15.824451658714432 Y6.143417940465895 F300
M150 R0 G255 B50 I30 P56

G1 X15.673109086419755 Y6.401993061728398 F300
G1 X15.530753519655935 Y6.665744095416128 F300
M150 R0 G255 B55 I30 P56

G1 X15.397866599181153 Y6.933849968865212 F300
G1 X15.27454767871375 Y7.206164726834945 F300
G1 X15.160917597896107 Y7.482554597325505 F300
M150 R0 G255 B59 I30 P56

G1 X15.057120122836373 Y7.762895855948653 F300
G1 X14.963323333333333 Y8.047072666666669 F300
M150 R0 G255 B63 I30 P56

G1 X14.88069718089938 Y8.329315637314924 F300
G1 X14.807896259317499 Y8.614799180875407 F300
G1 X14.744993742011316 Y8.903134482398537 F300
M150 R0 G255 B67 I30 P56

G1 X14.692086263570268 Y9.193938311581636 F300
G1 X14.649294666666668 Y9.486829333333336 F300
; M150 R0 U0 B0 P0
G1 X14.55142 Y9.589953333333336
M150 R0 G255 B67 I30 P56

M150 R0 G255 B72 I30 P56

G1 X14.594748641702795 Y9.266365812468711 F300
G1 X14.649781005831601 Y8.947816821981991 F300
M150 R0 G255 B76 I30 P56

G1 X14.71623580235735 Y8.634256208589075 F300
G1 X14.793867831301922 Y8.325638830118285 F300
G1 X14.882466666666666 Y8.021926666666667 F300
M150 R0 G255 B80 I30 P56

G1 X14.97935264805561 Y7.728325297301163 F300
G1 X15.08601926968739 Y7.440195400687296 F300
M150 R0 G255 B85 I30 P56

G1 X15.202254383293 Y7.15753900130678 F300
G1 X15.327872493639248 Y6.880365989497214 F300
G1 X15.462713445204981 Y6.608695856697755 F300
M150 R0 G255 B89 I30 P56

G1 X15.606641049382718 Y6.342559413580248 F300
G1 X15.760231347149121 Y6.0808709389858695 F300
M150 R0 G255 B93 I30 P56

G1 X15.922325853448095 Y5.825556300573182 F300
G1 X16.09277482831727 Y5.576649591181592 F300
G1 X16.271450090385084 Y5.334196986851005 F300
M150 R0 G255 B97 I30 P56

G1 X16.458243629432797 Y5.09825832312579 F300
G1 X16.653066172839505 Y4.8689086419753105 F300
M150 R0 G255 B102 I30 P56

G1 X16.85580772784428 Y4.646279993034612 F300
G1 X17.065850725136084 Y4.4310299471211625 F300
G1 X17.283092903011635 Y4.223225294831898 F300
M150 R0 G255 B106 I30 P56

G1 X17.507449463925514 Y4.0229488558058595 F300
G1 X17.73885160281459 Y3.8303009506045465 F300
G1 X17.977244999999996 Y3.6454008333333343 F300
M150 R0 G255 B110 I30 P56

G1 X18.22154683039699 Y3.469112405829883 F300
G1 X18.472022092346226 Y3.3012490377219743 F300
M150 R0 G255 B114 I30 P56

G1 X18.728612089164717 Y3.141915695204047 F300
G1 X18.991271899761806 Y2.9912379169173278 F300
G1 X19.259968772495608 Y2.8493632222990333 F300
M150 R0 G255 B119 I30 P56

G1 X19.53468049382716 Y2.716462469135804 F300
G1 X19.812810293176845 Y2.5938159349822287 F300
M150 R0 G255 B123 I30 P56

G1 X20.096111484167366 Y2.480658945629183 F300
G1 X20.38456969954079 Y2.3771511311630715 F300
G1 X20.678180142991494 Y2.283478324564341 F300
M150 R0 G255 B127 I30 P56

G1 X20.976945796536633 Y2.19985389740755 F300
G1 X21.280875617283947 Y2.1265200308641985 F300
M150 R0 G255 B131 I30 P56

G1 X21.58495916148609 Y2.064675410912227 F300
G1 X21.893400996908284 Y2.01344296104556 F300
G1 X22.206227839065647 Y1.9730660775702433 F300
M150 R0 G255 B135 I30 P56

G1 X22.523470378945266 Y1.9438208347365904 F300
G1 X22.84516130412519 Y1.9260171710712106 F300
G1 X23.17133333333333 Y1.9200000000000013 F300
M150 R0 G255 B140 I30 P56

G1 X23.500141490842857 Y1.9261131999601162 F300
G1 X23.82438460528438 Y1.9441987200523483 F300
M150 R0 G255 B144 I30 P56

G1 X24.144096621383216 Y1.973903160624966 F300
G1 X24.459311435028415 Y2.0149092092923007 F300
G1 X24.77006085170005 Y2.066934485979554 F300
M150 R0 G255 B148 I30 P56

G1 X25.076372530864194 Y2.1297303086419768 F300
G1 X25.38250626224926 Y2.204192589382959 F300
M150 R0 G255 B153 I30 P56

G1 X25.683377912774915 Y2.2890952667575304 F300
G1 X25.978996868616395 Y2.384190883240537 F300
G1 X26.269366296214816 Y2.489261663841737 F300
M150 R0 G255 B157 I30 P56

G1 X26.55448127035804 Y2.6041181931510096 F300
G1 X26.834326913580245 Y2.7285980246913595 F300
M150 R0 G255 B161 I30 P56

G1 X27.11065862529333 Y2.8634733807822284 F300
G1 X27.380858706556502 Y3.0074419338427236 F300
G1 X27.644904324630332 Y3.1603296179982516 F300
M150 R0 G255 B165 I30 P56

G1 X27.902761694884333 Y3.321986371962175 F300
G1 X28.154384388471467 Y3.49228472557649 F300
G1 X28.399711666666665 Y3.671118333333335 F300
M150 R0 G255 B169 I30 P56

G1 X28.63898423940781 Y3.8586582759503543 F300
G1 X28.871126859343235 Y4.054037257837457 F300
M150 R0 G255 B174 I30 P56

G1 X29.09608349197841 Y4.257134292709706 F300
G1 X29.31378304914801 Y4.467847831871786 F300
G1 X29.52413782598323 Y4.686094271614887 F300
M150 R0 G255 B178 I30 P56

G1 X29.727041975308637 Y4.911806419753088 F300
G1 X29.921841302928158 Y5.144278124566883 F300
M150 R0 G255 B182 I30 P56

G1 X30.10845021107663 Y5.383404831138831 F300
G1 X30.286776330744445 Y5.629111143677871 F300
G1 X30.456707801294257 Y5.881337227884844 F300
M150 R0 G255 B187 I30 P56

G1 X30.618111784056627 Y6.140037197278282 F300
G1 X30.77083302469135 Y6.405177469135802 F300
M150 R0 G255 B191 I30 P56

G1 X30.91367452302059 Y6.674728810351503 F300
G1 X31.047244757077415 Y6.949859788545789 F300
G1 X31.171402217049366 Y7.230540657426394 F300
M150 R0 G255 B195 I30 P56

G1 X31.285980433800837 Y7.516753157621561 F300
G1 X31.390786557643484 Y7.80848872247721 F300
G1 X31.485599999999994 Y8.105746666666665 F300
M150 R0 G255 B199 I30 P56

G1 X31.557661020883042 Y8.358445949974028 F300
G1 X31.622022221082698 Y8.614732220330426 F300
M150 R0 G255 B203 I30 P56

G1 X31.678555665101925 Y8.87454628771495 F300
G1 X31.72711602226475 Y9.13783167881309 F300
G1 X31.767539999999997 Y9.404533333333335 F300
M150 R0 G255 B208 I30 P56

G1 X31.23871201579249 Y9.33787890947261 F300
G1 X30.672597184413934 Y9.274486059297537 F300
M150 R0 G255 B212 I30 P56

G1 X30.068894941015575 Y9.214865713130308 F300
G1 X29.427447407407403 Y9.159564444444449 F300
G1 X28.79724368728143 Y9.112536838424015 F300
M150 R0 G255 B216 I30 P56

G1 X28.13718597512042 Y9.070400295457295 F300
G1 X27.447744026985404 Y9.03361104859869 F300
M150 R0 G255 B221 I30 P56

G1 X26.729497037037028 Y9.002648888888892 F300
G1 X26.020282763462774 Y8.979067336474861 F300
G1 X25.288994404023086 Y8.961717662328052 F300
M150 R0 G255 B225 I30 P56

G1 X24.53656369205133 Y8.951000818664028 F300
G1 X23.76399999999999 Y8.947333333333335 F300
G1 X22.839183237912028 Y8.952593144781948 F300
M150 R0 G255 B229 I30 P56

G1 X21.943543573466883 Y8.967884091042567 F300
G1 X21.078783437499986 Y8.992497708333335 F300
M150 R0 G255 B233 I30 P56

G1 X20.21340591251331 Y9.027278792761027 F300
G1 X19.388233686023433 Y9.070487602131124 F300
G1 X18.604307499999987 Y9.121323333333335 F300
M150 R0 G255 B237 I30 P56

G1 X17.820348432076685 Y9.182606654178421 F300
G1 X17.087762091430466 Y9.250399646451726 F300
M150 R0 G255 B242 I30 P56

G1 X16.40653281249999 Y9.323808958333334 F300
G1 X15.890103463749803 Y9.38708848971649 F300
G1 X15.409252713345822 Y9.452824106963767 F300
M150 R0 G255 B246 I30 P56

G1 X14.963290400991433 Y9.520580270022272 F300
G1 X14.55141999999999 Y9.589953333333336 F300
M150 R0 G255 B250 I30 P56

G1 X14.55141999999999 Y9.589953333333336 F300
G1 X14.55142 Y9.589953333333336 F300;svg#Layer_2 > g#Layer_1-2 > path
; M150 R0 U0 B0 P0
G1 X14.631514666666664 Y12.569796666666667
M150 R0 G255 B250 I30 P56

M150 R0 G255 B255 I30 P56

G1 X14.574576359926942 Y12.303916676855883 F300
G1 X14.524749999999996 Y12.026744666666666 F300
G1 X14.071067199045915 Y11.941025900015585 F300
M150 R0 G250 B255 I30 P56

G1 X13.671324354491729 Y11.855920334035847 F300
G1 X13.321100770495391 Y11.771788179467062 F300
M150 R0 G246 B255 I30 P56

G1 X13.016153800141668 Y11.688958122572544 F300
G1 X12.75242171606004 Y11.607725690309612 F300
G1 X12.526026998340724 Y11.528350721766062 F300
M150 R0 G242 B255 I30 P56

G1 X12.33328033333333 Y11.451053666666665 F300
G1 X12.162988994850917 Y11.372170327489384 F300
M150 R0 G238 B255 I30 P56

G1 X12.022301013649319 Y11.295959475822569 F300
G1 X11.907622032031522 Y11.222493537682517 F300
G1 X11.815634427412741 Y11.15175413246451 F300
M150 R0 G233 B255 I30 P56

G1 X11.743323531937374 Y11.083613429200502 F300
G1 X11.688014629191258 Y11.017814178145962 F300
M150 R0 G229 B255 I30 P56

G1 X11.647422471577533 Y10.953952184138204 F300
G1 X11.61971233335729 Y10.891467238707481 F300
G1 X11.60356677162417 Y10.829649561017046 F300
M150 R0 G225 B255 I30 P56

G1 X11.598246666666665 Y10.767666666666667 F300
G1 X11.603577851933773 Y10.705736288988247 F300
G1 X11.619760712441447 Y10.643940049765728 F300
M150 R0 G220 B255 I30 P56

G1 X11.64754362878531 Y10.581443269271013 F300
G1 X11.688256979872177 Y10.517534440027678 F300
M150 R0 G216 B255 I30 P56

G1 X11.743751357408673 Y10.45165242663218 F300
G1 X11.816330170595576 Y10.383393036352016 F300
G1 X11.908688162668 Y10.312499997105986 F300
M150 R0 G212 B255 I30 P56

G1 X12.023861656206163 Y10.238847491644313 F300
G1 X12.165191452919736 Y10.162420313223011 F300
M150 R0 G208 B255 I30 P56

G1 X12.336296583333331 Y10.083295416666667 F300
G1 X12.529827507622343 Y10.005815483848853 F300
G1 X12.757143352695822 Y9.926252820000546 F300
M150 R0 G203 B255 I30 P56

G1 X13.021948637305815 Y9.844835155564182 F300
G1 X13.328136831929198 Y9.761831701267706 F300
M150 R0 G199 B255 I30 P56

G1 X13.67978633213535 Y9.677549706951009 F300
G1 X14.081157145936757 Y9.59233220601946 F300
G1 X14.536687999999998 Y9.506556666666667 F300
M150 R0 G195 B255 I30 P56

G1 X14.966178093188052 Y9.434346611201567 F300
G1 X15.428356440001743 Y9.3644943158396 F300
G1 X15.923580606436179 Y9.29735878426465 F300
M150 R0 G191 B255 I30 P56

G1 X16.452074218749996 Y9.233320135416665 F300
G1 X17.1496888758904 Y9.159213940700655 F300
M150 R0 G187 B255 I30 P56

G1 X17.893455943997857 Y9.091594108176047 F300
G1 X18.682317249999997 Y9.031163916666666 F300
G1 X19.470916604285044 Y8.981167063866884 F300
M150 R0 G182 B255 I30 P56

G1 X20.293026254664284 Y8.939169770440367 F300
G1 X21.146573656249995 Y8.905731572916665 F300
M150 R0 G178 B255 I30 P56

G1 X21.999530698856923 Y8.882089563232132 F300
G1 X22.87289016305057 Y8.867594268444467 F300
G1 X23.763999999999996 Y8.862666666666666 F300
M150 R0 G174 B255 I30 P56

G1 X24.504266173026107 Y8.866072892661386 F300
G1 X25.234263673043834 Y8.876151063085507 F300
M150 R0 G169 B255 I30 P56

G1 X25.952321124999994 Y8.892694229166667 F300
G1 X26.67074885616788 Y8.916018590991095 F300
G1 X27.37055479750717 Y8.945515138376457 F300
M150 R0 G165 B255 I30 P56

G1 X28.050313499999998 Y8.980903666666666 F300
G1 X28.730356316146697 Y9.023380030854101 F300
G1 X29.383532862802046 Y9.07135819345412 F300
M150 R0 G161 B255 I30 P56

G1 X30.008828124999994 Y9.124485104166668 F300
G1 X30.634076275512832 Y9.185402600226823 F300
M150 R0 G157 B255 I30 P56

G1 X31.224160062354127 Y9.250928797075906 F300
G1 X31.778715999999992 Y9.320628666666668 F300
G1 X32.25630452274852 Y9.38777524735882 F300
M150 R0 G153 B255 I30 P56

G1 X32.74371922839506 Y9.464235092592595 F300
G1 X33.2288234032406 Y9.549935934704543 F300
M150 R0 G148 B255 I30 P56

G1 X33.69653516049383 Y9.643951851851854 F300
G1 X34.00517897670652 Y9.713765221205595 F300
G1 X34.29502980378828 Y9.786494421286426 F300
M150 R0 G144 B255 I30 P56

G1 X34.56435516666666 Y9.861966166666669 F300
G1 X34.767923045202735 Y9.925468944112263 F300
M150 R0 G140 B255 I30 P56

G1 X34.954104274231796 Y9.9898231361919 F300
G1 X35.122876227047136 Y10.05487004468407 F300
G1 X35.27437061728394 Y10.12046525925926 F300
M150 R0 G136 B255 I30 P56

G1 X35.42846401913883 Y10.19688923376828 F300
G1 X35.55864948655102 Y10.2726277230224 F300
G1 X35.66653009353058 Y10.347550278100805 F300
M150 R0 G131 B255 I30 P56

G1 X35.75377288271604 Y10.421636351851852 F300
G1 X35.8094717857853 Y10.479984149462602 F300
M150 R0 G127 B255 I30 P56

G1 X35.85361561133612 Y10.537544766431083 F300
G1 X35.887151263145036 Y10.594626595021275 F300
G1 X35.91079706086751 Y10.651647330063456 F300
M150 R0 G123 B255 I30 P56

G1 X35.924975665098806 Y10.709126239930683 F300
G1 X35.92975333333333 Y10.767666666666667 F300
M150 R0 G119 B255 I30 P56

G1 X35.92500628609833 Y10.826254977985869 F300
G1 X35.91092109506685 Y10.883756103050752 F300
G1 X35.88743871953837 Y10.940768356519278 F300
M150 R0 G114 B255 I30 P56

G1 X35.854148918912756 Y10.997807347522336 F300
G1 X35.81034917044696 Y11.055288755662424 F300
M150 R0 G110 B255 I30 P56

G1 X35.75510991049383 Y11.113520592592595 F300
G1 X35.66846284556509 Y11.18753919927322 F300
G1 X35.56130060688515 Y11.262366840076357 F300
M150 R0 G106 B255 I30 P56

G1 X35.43195173285871 Y11.337987567545591 F300
G1 X35.27880150617284 Y11.41427540740741 F300
M150 R0 G102 B255 I30 P56

G1 X35.12819536743878 Y11.479737695608014 F300
G1 X34.96031836948374 Y11.544657886888496 F300
G1 X34.77501004115399 Y11.608893422632992 F300
M150 R0 G97 B255 I30 P56

G1 X34.572260916666664 Y11.67228766666667 F300
G1 X34.304028184571735 Y11.747585254020183 F300
G1 X34.01503050144494 Y11.820184161519313 F300
M150 R0 G93 B255 I30 P56

G1 X33.7069209382716 Y11.889913925925926 F300
G1 X33.23985519852304 Y11.983786748691742 F300
M150 R0 G89 B255 I30 P56

G1 X32.75421436728395 Y12.069510740740741 F300
G1 X32.265843190036364 Y12.14601810035732 F300
G1 X31.785573999999997 Y12.213434666666666 F300
M150 R0 G84 B255 I30 P56

G1 X31.73113333333333 Y12.482928666666668 F300
G1 X32.82315601587696 Y12.409232838244687 F300
M150 R0 G80 B255 I30 P56

G1 X33.853425404486316 Y12.329439914024954 F300
G1 X34.82202170370371 Y12.244247061728396 F300
G1 X35.78972722959817 Y12.147932267533578 F300
M150 R0 G76 B255 I30 P56

G1 X36.68441272438793 Y12.047366410735012 F300
G1 X37.50758251851852 Y11.943326049382714 F300
M150 R0 G72 B255 I30 P56

G1 X38.1319916388605 Y11.855699330362075 F300
G1 X38.70826363408884 Y11.76692076960492 F300
G1 X39.237960108085495 Y11.677372675553274 F300
M150 R0 G67 B255 I30 P56

G1 X39.722735333333326 Y11.587409333333333 F300
G1 X40.179994515108234 Y11.493945506643165 F300
G1 X40.570867236048954 Y11.405763184381819 F300
M150 R0 G63 B255 I30 P56

G1 X40.904045040123464 Y11.323015324074074 F300
G1 X41.23479913579885 Y11.232064857783023 F300
M150 R0 G59 B255 I30 P56

G1 X41.50928999192373 Y11.1479506229053 F300
G1 X41.73617765432099 Y11.070622814814817 F300
G1 X41.960227607790124 Y10.984917119164423 F300
M150 R0 G55 B255 I30 P56

G1 X42.13833612682708 Y10.907625210754306 F300
G1 X42.27906541666667 Y10.838395083333335 F300
M150 R0 G51 B255 I30 P56

G1 X42.415993082154394 Y10.760838038386714 F300
G1 X42.517780351315714 Y10.69314662393029 F300
G1 X42.592640567901235 Y10.634495407407409 F300
M150 R0 G46 B255 I30 P56

G1 X42.6618966349885 Y10.56856420555509 F300
G1 X42.70760596882468 Y10.513255405869451 F300
M150 R0 G42 B255 I30 P56

G1 X42.73683534876543 Y10.467087064814814 F300
G1 X42.75903040088725 Y10.416709317318642 F300
G1 X42.769018264368526 Y10.376406812022742 F300
M150 R0 G38 B255 I30 P56

G1 X42.771582 Y10.344333333333331 F300
G1 X42.76693983613258 Y10.29786576814681 F300
G1 X42.75253112790326 Y10.24971875593784 F300
M150 R0 G33 B255 I30 P56

G1 X42.72707658646554 Y10.199001233743799 F300
G1 X42.688616032271135 Y10.14493758492219 F300
M150 R0 G29 B255 I30 P56

G1 X42.634592946335694 Y10.086894921728646 F300
G1 X42.56193019412086 Y10.024383156278168 F300
G1 X42.46708559872931 Y9.957041222676622 F300
M150 R0 G25 B255 I30 P56

G1 X42.34608661866667 Y9.884620426666668 F300
G1 X42.21257354557493 Y9.815633710095428 F300
M150 R0 G21 B255 I30 P56

G1 X42.05102793678172 Y9.74228343445699 F300
G1 X41.857613439982835 Y9.664558024199817 F300
G1 X41.628206480234496 Y9.582508837955293 F300
M150 R0 G16 B255 I30 P56

G1 X41.35839072673698 Y9.496251521806432 F300
G1 X41.04344998933333 Y9.40596928 F300
M150 R0 G12 B255 I30 P56

G1 X40.70531298797967 Y9.318532278626487 F300
G1 X40.31912565572634 Y9.22802889874852 F300
G1 X39.88023860894962 Y9.134787123910986 F300
M150 R0 G8 B255 I30 P56

G1 X39.383739759508885 Y9.039206819617002 F300
G1 X38.824446384 Y8.94176565333333 F300
G1 X38.16255860727358 Y8.837907049445207 F300
M150 R0 G4 B255 I30 P56

G1 X37.41773741827185 Y8.733274957581159 F300
G1 X36.582720222299145 Y8.628761669733432 F300
M150 R0 G0 B255 I30 P56

G1 X35.64985007466666 Y8.525395306666667 F300
G1 X34.74560045419368 Y8.43668186334667 F300
G1 X33.75341818469 Y8.350564016262442 F300
M150 R4 G0 B255 I30 P56

G1 X32.66716764848229 Y8.268046477478425 F300
G1 X31.48043533333333 Y8.190244000000002 F300
M150 R8 G0 B255 I30 P56

G1 X30.422521586921835 Y8.130507817949656 F300
G1 X29.335907484534456 Y8.078123363526602 F300
G1 X28.221040351922625 Y8.033321202373303 F300
M150 R12 G0 B255 I30 P56

G1 X27.078414249999994 Y7.996336166666668 F300
G1 X25.94505848804568 Y7.968176915624119 F300
M150 R16 G0 B255 I30 P56

G1 X24.788637831466424 Y7.94783346411819 F300
G1 X23.609804780361717 Y7.935489914427668 F300
G1 X22.409248666666667 Y7.931333333333336 F300
M150 R21 G0 B255 I30 P56

G1 X21.104858549253237 Y7.936298481127473 F300
G1 X19.823086187060433 Y7.9510395858034615 F300
G1 X18.56555133333333 Y7.975328250000002 F300
M150 R25 G0 B255 I30 P56

G1 X17.307279293432607 Y8.009774205595413 F300
G1 X16.080463879699764 Y8.05360093448456 F300
M150 R29 G0 B255 I30 P56

G1 X14.886445999999996 Y8.106508666666667 F300
G1 X13.629887875923481 Y8.173235365576152 F300
G1 X12.440718307852771 Y8.248154196088672 F300
M150 R33 G0 B255 I30 P56

G1 X11.319201012345678 Y8.330473950617286 F300
G1 X10.47100973103003 Y8.401126853957953 F300
M150 R38 G0 B255 I30 P56

G1 X9.668360270699461 Y8.475436106620842 F300
G1 X8.910762271725007 Y8.553011028525233 F300
G1 X8.19762254320987 Y8.63348027160494 F300
M150 R42 G0 B255 I30 P56

G1 X7.469094672986156 Y8.724210962473478 F300
G1 X6.794168034544108 Y8.817179919234555 F300
M150 R46 G0 B255 I30 P56

G1 X6.171304174332686 Y8.911931456340579 F300
G1 X5.598851333333328 Y9.008039333333334 F300
G1 X5.066056740985463 Y9.106972032031612 F300
M150 R50 G0 B255 I30 P56

G1 X4.610704776928954 Y9.200573662681034 F300
G1 X4.222649151234565 Y9.28861643518519 F300
G1 X3.8371963978558905 Y9.385685025334281 F300
M150 R55 G0 B255 I30 P56

G1 X3.5174312065463416 Y9.475640455967286 F300
G1 X3.2532303209876536 Y9.55847614814815 F300
M150 R59 G0 B255 I30 P56

G1 X2.9920234331847744 Y9.650585710765714 F300
G1 X2.7845527252223405 Y9.733751264679405 F300
G1 X2.620775416666666 Y9.808298083333334 F300
M150 R63 G0 B255 I30 P56

G1 X2.4609807818123324 Y9.892192224235904 F300
G1 X2.342448125840931 Y9.96539423141535 F300
M150 R67 G0 B255 I30 P56

G1 X2.255465012345679 Y10.028761851851852 F300
G1 X2.1745258804147665 Y10.100526799718955 F300
G1 X2.121352067863563 Y10.160573426356073 F300
M150 R72 G0 B255 I30 P56

G1 X2.0874796820987656 Y10.210547064814815 F300
G1 X2.0615824102497555 Y10.265509238584972 F300
M150 R76 G0 B255 I30 P56

G1 X2.04997489396663 Y10.30940259356628 F300
G1 X2.047 Y10.344333333333333 F300
G1 X2.04994006867506 Y10.37902169215214 F300
M150 R80 G0 B255 I30 P56

G1 X2.0614105327415366 Y10.422612632678952 F300
G1 X2.086994416666667 Y10.477191012345681 F300
G1 X2.120474383159445 Y10.526847052728733 F300
M150 R84 G0 B255 I30 P56

G1 X2.1730165534480257 Y10.586499830609911 F300
G1 X2.252965777777778 Y10.657781876543211 F300
M150 R89 G0 B255 I30 P56

G1 X2.3389229345949456 Y10.720760515131259 F300
G1 X2.4560379807662893 Y10.793510131296314 F300
G1 X2.61389625 Y10.876886666666667 F300
M150 R93 G0 B255 I30 P56

G1 X2.775722355217499 Y10.951001077363408 F300
G1 X2.980707149131584 Y11.03369145991004 F300
M150 R97 G0 B255 I30 P56

G1 X3.238768 Y11.12528612345679 F300
G1 X3.4998098528830495 Y11.20768173882966 F300
G1 X3.8157418194891175 Y11.297173729187598 F300
M150 R101 G0 B255 I30 P56

G1 X4.196563194444443 Y11.393760987654321 F300
G1 X4.579972615786438 Y11.48139123378338 F300
M150 R106 G0 B255 I30 P56

G1 X5.02986520931664 Y11.57457516967197 F300
G1 X5.556263999999998 Y11.673092 F300
G1 X6.11608809028305 Y11.767924612921506 F300
M150 R110 G0 B255 I30 P56

G1 X6.724997035254356 Y11.86150745988622 F300
G1 X7.384602476956985 Y11.953431111204972 F300
G1 X8.096408246913581 Y12.04325780246914 F300
M150 R114 G0 B255 I30 P56

G1 X8.793240321699923 Y12.123063866743875 F300
G1 X9.533438885062594 Y12.200127915007172 F300
M150 R119 G0 B255 I30 P56

G1 X10.317596678167899 Y12.274092173621021 F300
G1 X11.146208197530864 Y12.344580197530867 F300
G1 X12.241875242533629 Y12.42697369284991 F300
M150 R123 G0 B255 I30 P56

G1 X13.403712790429498 Y12.502300623787029 F300
G1 X14.631514666666664 Y12.569796666666669 F300
; M150 R0 U0 B0 P0
G1 X14.740226666666663 Y12.659966666666667
M150 R123 G0 B255 I30 P56

M150 R127 G0 B255 I30 P56

G1 X13.4894453355597 Y12.592125972704544 F300
G1 X12.30652558487616 Y12.51608719750541 F300
M150 R131 G0 B255 I30 P56

G1 X11.191979938271606 Y12.432758179012351 F300
G1 X10.348870983951546 Y12.361344598521546 F300
M150 R135 G0 B255 I30 P56

G1 X9.552361045239527 Y12.286476820956974 F300
G1 X8.801999755562713 Y12.208592300132706 F300
G1 X8.097217283950618 Y12.128103209876546 F300
M150 R140 G0 B255 I30 P56

G1 X7.376585550018619 Y12.03739001675166 F300
G1 X6.711524862919022 Y11.944890865066826 F300
G1 X6.100390805459536 Y11.851098461602554 F300
M150 R144 G0 B255 I30 P56

G1 X5.541404999999999 Y11.756467500000003 F300
G1 X4.9643493985582205 Y11.64789919530973 F300
M150 R148 G0 B255 I30 P56

G1 X4.452705846559979 Y11.539987438088751 F300
G1 X4.002588582788212 Y11.433294661147402 F300
G1 X3.6100093827160498 Y11.328316790123457 F300
M150 R153 G0 B255 I30 P56

G1 X3.326548073340469 Y11.243300242594811 F300
G1 X3.078622723519645 Y11.160456490335106 F300
M150 R157 G0 B255 I30 P56

G1 X2.863512471980445 Y11.079980426948195 F300
G1 X2.6785312648436284 Y11.00202865993365 F300
G1 X2.5210461759064904 Y10.926717032116851 F300
M150 R161 G0 B255 I30 P56

G1 X2.388496728395062 Y10.854116820987654 F300
G1 X2.273546248543703 Y10.780887827877093 F300
M150 R165 G0 B255 I30 P56

G1 X2.1810775461802163 Y10.711005004467472 F300
G1 X2.108268669599851 Y10.644312037972215 F300
G1 X2.0525559484461953 Y10.58053561309666 F300
M150 R170 G0 B255 I30 P56

G1 X2.011697760440653 Y10.519268512820657 F300
G1 X1.9838515277837239 Y10.459959413688747 F300
G1 X1.9676596314467352 Y10.40191680392307 F300
M150 R174 G0 B255 I30 P56

G1 X1.9623333333333333 Y10.344333333333333 F300
G1 X1.9677157800320255 Y10.286439193231985 F300
M150 R178 G0 B255 I30 P56

G1 X1.9840810281509331 Y10.228078250346885 F300
G1 X2.01223448809138 Y10.168431647141308 F300
G1 X2.0535612788247026 Y10.1067991018672 F300
M150 R182 G0 B255 I30 P56

G1 X2.109940076668703 Y10.0426235831997 F300
G1 X2.183655111345538 Y9.975495012667688 F300
M150 R187 G0 B255 I30 P56

G1 X2.277317485972021 Y9.905139572330894 F300
G1 X2.3938001543209877 Y9.83140228395062 F300
G1 X2.5279595745422 Y9.758393526315826 F300
M150 R191 G0 B255 I30 P56

G1 X2.687359854924157 Y9.682661458599847 F300
G1 X2.8745911709019776 Y9.604280614929573 F300
M150 R195 G0 B255 I30 P56

G1 X3.0923160111371626 Y9.523370417545554 F300
G1 X3.343249587616592 Y9.440091392307258 F300
G1 X3.630141234567901 Y9.354642716049385 F300
M150 R199 G0 B255 I30 P56

G1 X4.02742221872954 Y9.249162689851772 F300
G1 X4.482877229096415 Y9.141995558630546 F300
M150 R204 G0 B255 I30 P56

G1 X5.000522446461362 Y9.033645745342255 F300
G1 X5.5842675 Y8.924685 F300
G1 X6.149738115441814 Y8.829744285897423 F300
M150 R208 G0 B255 I30 P56

G1 X6.767869645464463 Y8.735695603419616 F300
G1 X7.440440013266333 Y8.643000620138148 F300
G1 X8.169089876543211 Y8.55215950617284 F300
M150 R212 G0 B255 I30 P56

G1 X8.881738593090828 Y8.471604667965687 F300
G1 X9.64034353029432 Y8.393726234317356 F300
M150 R216 G0 B255 I30 P56

G1 X10.445459470732164 Y8.318942315137399 F300
G1 X11.297519290123455 Y8.247696604938271 F300
G1 X12.42390981479629 Y8.164686082655276 F300
M150 R221 G0 B255 I30 P56

G1 X13.619082135266522 Y8.089122764931812 F300
G1 X14.882466666666662 Y8.021926666666667 F300
M150 R225 G0 B255 I30 P56

G1 X16.04871183668162 Y7.97017157891121 F300
G1 X17.262572038002446 Y7.926569570433124 F300
G1 X18.522709999999996 Y7.891751666666669 F300
M150 R229 G0 B255 I30 P56

G1 X19.78231442728604 Y7.867080403939804 F300
G1 X21.078484993232784 Y7.851865738085184 F300
M150 R233 G0 B255 I30 P56

G1 X22.40933333333333 Y7.8466666666666685 F300
G1 X23.49702966403916 Y7.850138924738066 F300
G1 X24.56208335437671 Y7.860341184347871 F300
M150 R238 G0 B255 I30 P56

G1 X25.603461728395065 Y7.876958518518522 F300
G1 X26.645241780904374 Y7.9003277425785825 F300
G1 X27.658166353315472 Y7.929731256775862 F300
M150 R242 G0 B255 I30 P56

G1 X28.641427160493826 Y7.964823703703705 F300
G1 X29.624749721353965 Y8.006672733260167 F300
M150 R246 G0 B255 I30 P56

G1 X30.57297292386243 Y8.053772242309888 F300
G1 X31.485599999999994 Y8.105746666666667 F300
G1 X32.6102322172836 Y8.179302952784026 F300
M150 R250 G0 B255 I30 P56

G1 X33.67092411351107 Y8.259352052311723 F300
G1 X34.66767515432099 Y8.345122067901238 F300
M150 R255 G0 B255 I30 P56

G1 X35.66352598723634 Y8.44239646475511 F300
G1 X36.583292227851615 Y8.544116894072504 F300
G1 X37.428510123456796 Y8.649432098765434 F300
M150 R255 G0 B250 I30 P56

G1 X38.06981017462359 Y8.738295270354616 F300
G1 X38.66069422454732 Y8.828297426546996 F300
M150 R255 G0 B246 I30 P56

G1 X39.20282026414097 Y8.919023917378553 F300
G1 X39.69794916666667 Y9.0100925 F300
G1 X40.2091074041363 Y9.114241451419819 F300
M150 R255 G0 B242 I30 P56

G1 X40.66171204285703 Y9.21733170292127 F300
G1 X41.059390862840715 Y9.31889460992429 F300
G1 X41.40583654320987 Y9.41851901234568 F300
M150 R255 G0 B238 I30 P56

G1 X41.7017360534376 Y9.514794821661152 F300
G1 X41.95317056645506 Y9.60790361755463 F300
M150 R255 G0 B233 I30 P56

G1 X42.16432576146494 Y9.697597674179256 F300
G1 X42.33929050515479 Y9.78370293041754 F300
G1 X42.482016512345666 Y9.86612737654321 F300
M150 R255 G0 B229 I30 P56

G1 X42.59470261587699 Y9.943681323608685 F300
G1 X42.682754719255094 Y10.017387748030625 F300
M150 R255 G0 B225 I30 P56

G1 X42.749583270548314 Y10.08752443705497 F300
G1 X42.79819378088102 Y10.154544383415592 F300
G1 X42.83107925799371 Y10.219095557751466 F300
M150 R255 G0 B221 I30 P56

G1 X42.85009526965419 Y10.282021868913603 F300
G1 X42.85633333333333 Y10.344333333333333 F300
M150 R255 G0 B216 I30 P56

G1 X42.8501670811187 Y10.406283742550292 F300
G1 X42.83137426278579 Y10.46883528616918 F300
G1 X42.79888878797798 Y10.53298235343115 F300
M150 R255 G0 B212 I30 P56

G1 X42.75089622847225 Y10.599557400640041 F300
G1 X42.68495680787888 Y10.669201471130076 F300
G1 X42.59812710733426 Y10.742364665649593 F300
M150 R255 G0 B208 I30 P56

G1 X42.48706515432099 Y10.819325092592594 F300
G1 X42.34621420603466 Y10.90123508708979 F300
M150 R255 G0 B203 I30 P56

G1 X42.17355399798294 Y10.986803131116487 F300
G1 X41.9651833374241 Y11.075942455772985 F300
G1 X41.717063712096696 Y11.168484956423514 F300
M150 R255 G0 B199 I30 P56

G1 X41.425059012345685 Y11.264189629629632 F300
G1 X41.08311547081238 Y11.363255054412365 F300
M150 R255 G0 B195 I30 P56

G1 X40.69055800349323 Y11.464278393250087 F300
G1 X40.24372406793568 Y11.566856796834383 F300
G1 X39.7390125 Y11.670530833333334 F300
M150 R255 G0 B191 I30 P56

G1 X39.25012893437238 Y11.761212000069921 F300
G1 X38.714758138361354 Y11.851598036544427 F300
M150 R255 G0 B187 I30 P56

G1 X38.13114222168151 Y11.941313870942656 F300
G1 X37.49762320987654 Y12.029952592592597 F300
G1 X36.6626626576997 Y12.135071301577842 F300
M150 R255 G0 B182 I30 P56

G1 X35.753839576313524 Y12.236718598451821 F300
G1 X34.76958873456789 Y12.334058796296297 F300
G1 X33.78442654734468 Y12.420010961983008 F300
M150 R255 G0 B178 I30 P56

G1 X32.73578148087772 Y12.500395188969096 F300
G1 X31.62360666666666 Y12.574453333333334 F300
M150 R255 G0 B174 I30 P56

G1 X31.671272329321127 Y12.357601297034483 F300
G1 X31.713353333333327 Y12.137573333333336 F300
G1 X32.195292351115725 Y12.070701010768019 F300
M150 R255 G0 B170 I30 P56

G1 X32.6409487391421 Y12.001878298576313 F300
G1 X33.05126474026683 Y11.931534526739034 F300
M150 R255 G0 B165 I30 P56

G1 X33.427284479166666 Y11.860065104166669 F300
G1 X33.815061272797834 Y11.777791920334504 F300
G1 X34.15960564445545 Y11.69553538419845 F300
M150 R255 G0 B161 I30 P56

G1 X34.46336247730936 Y11.613779344230823 F300
G1 X34.7288625 Y11.5329475 F300
M150 R255 G0 B157 I30 P56

G1 X34.95479262890465 Y11.454847087184117 F300
G1 X35.14747380754318 Y11.378851250665184 F300
G1 X35.309893991865145 Y11.305214481653836 F300
M150 R255 G0 B152 I30 P56

G1 X35.444991529737116 Y11.234118555709804 F300
G1 X35.55561927083333 Y11.165666145833335 F300
G1 X35.641483612704235 Y11.102331626318936 F300
M150 R255 G0 B148 I30 P56

G1 X35.70915208782005 Y11.041740245252127 F300
G1 X35.760976620070764 Y10.983679841174402 F300
M150 R255 G0 B144 I30 P56

G1 X35.79902097132136 Y10.927802592653595 F300
G1 X35.82498215736878 Y10.873615837987996 F300
G1 X35.84010300759299 Y10.82048668297546 F300
M150 R255 G0 B140 I30 P56

G1 X35.84508666666667 Y10.767666666666667 F300
G1 X35.840164858807015 Y10.715205022944895 F300
M150 R255 G0 B135 I30 P56

G1 X35.825234049653325 Y10.662441412092624 F300
G1 X35.79960781270338 Y10.608639283044619 F300
G1 X35.76207155227376 Y10.55317459180704 F300
M150 R255 G0 B131 I30 P56

G1 X35.71096547622676 Y10.49556001648128 F300
G1 X35.6442696497183 Y10.43544970258881 F300
M150 R255 G0 B127 I30 P56

G1 X35.559680625 Y10.372630520833336 F300
G1 X35.450562151083204 Y10.304638605093581 F300
G1 X35.31731050020387 Y10.234013074424208 F300
M150 R255 G0 B123 I30 P56

G1 X35.15711034900758 Y10.16084992374815 F300
G1 X34.96706033250364 Y10.085322990553175 F300
G1 X34.74420833333333 Y10.007677500000002 F300
M150 R255 G0 B119 I30 P56

G1 X34.482274241741116 Y9.92726975219529 F300
G1 X34.18255414029112 Y9.8458929062078 F300
M150 R255 G0 B114 I30 P56

G1 X33.842535597711965 Y9.763958261730899 F300
G1 X33.45978854166666 Y9.681935729166668 F300
G1 X33.08864149074489 Y9.61062523823864 F300
M150 R255 G0 B110 I30 P56

G1 X32.68356626592355 Y9.54035967284652 F300
G1 X32.24351525873954 Y9.471523294918342 F300
M150 R255 G0 B106 I30 P56

G1 X31.767539999999997 Y9.404533333333335 F300
G1 X31.238712015792494 Y9.33787890947261 F300
G1 X30.67259718441394 Y9.274486059297537 F300
M150 R255 G0 B102 I30 P56

G1 X30.068894941015575 Y9.21486571313031 F300
G1 X29.427447407407406 Y9.159564444444449 F300
M150 R255 G0 B97 I30 P56

G1 X28.79724368728144 Y9.112536838424015 F300
G1 X28.137185975120428 Y9.070400295457294 F300
G1 X27.44774402698542 Y9.033611048598688 F300
M150 R255 G0 B93 I30 P56

G1 X26.72949703703704 Y9.002648888888892 F300
G1 X26.02028276346278 Y8.979067336474861 F300
G1 X25.288994404023107 Y8.961717662328052 F300
M150 R255 G0 B89 I30 P56

G1 X24.536563692051352 Y8.951000818664026 F300
G1 X23.764 Y8.947333333333335 F300
M150 R255 G0 B85 I30 P56

G1 X22.839183237912025 Y8.952593144781947 F300
G1 X21.943543573466897 Y8.96788409104257 F300
G1 X21.0787834375 Y8.992497708333335 F300
M150 R255 G0 B80 I30 P56

G1 X20.21340591251332 Y9.027278792761027 F300
G1 X19.388233686023447 Y9.070487602131124 F300
M150 R255 G0 B76 I30 P56

G1 X18.6043075 Y9.121323333333335 F300
G1 X17.8203484320767 Y9.182606654178421 F300
G1 X17.087762091430477 Y9.250399646451726 F300
M150 R255 G0 B72 I30 P56

G1 X16.4065328125 Y9.323808958333334 F300
G1 X15.890103463749815 Y9.38708848971649 F300
M150 R255 G0 B67 I30 P56

G1 X15.409252713345833 Y9.452824106963767 F300
G1 X14.963290400991443 Y9.520580270022272 F300
G1 X14.55142 Y9.589953333333336 F300
M150 R255 G0 B63 I30 P56

G1 X14.09432429937497 Y9.676207939952926 F300
G1 X13.687249619799754 Y9.763111913924874 F300
G1 X13.327594665723575 Y9.850052944005911 F300
M150 R255 G0 B59 I30 P56

G1 X13.012619012345683 Y9.936490864197534 F300
G1 X12.743953680024617 Y10.020457496132032 F300
M150 R255 G0 B55 I30 P56

G1 X12.51470949770477 Y10.10240745507618 F300
G1 X12.321421595717052 Y10.181990130179205 F300
G1 X12.160653888550979 Y10.258938676114099 F300
M150 R255 G0 B51 I30 P56

G1 X12.029043209876546 Y10.333075802469137 F300
G1 X11.925142963531702 Y10.402989086797827 F300
M150 R255 G0 B46 I30 P56

G1 X11.84381833790642 Y10.46965858934001 F300
G1 X11.781994148706742 Y10.53328339840773 F300
G1 X11.736948003344315 Y10.594237406012807 F300
M150 R255 G0 B42 I30 P56

G1 X11.706418264066219 Y10.653086795011838 F300
G1 X11.688728494110531 Y10.710589702960817 F300
M150 R255 G0 B38 I30 P56

G1 X11.682913333333335 Y10.767666666666667 F300
G1 X11.688809140315364 Y10.825080174496561 F300
G1 X11.706751490760078 Y10.882944190273095 F300
M150 R255 G0 B34 I30 P56

G1 X11.737738617027844 Y10.94219738808863 F300
G1 X11.7834988174018 Y11.003610885777407 F300
G1 X11.846359842152244 Y11.067758277523362 F300
M150 R255 G0 B29 I30 P56

G1 X11.929120293352588 Y11.135015932099602 F300
G1 X12.034938518518523 Y11.205581481481484 F300
M150 R255 G0 B25 I30 P56

G1 X12.168731847141025 Y11.280264764262663 F300
G1 X12.332178469410756 Y11.357788546156069 F300
G1 X12.528697668958621 Y11.437968693453806 F300
M150 R255 G0 B21 I30 P56

G1 X12.761780705788118 Y11.520530449142793 F300
G1 X13.034945925925932 Y11.605114074074077 F300
M150 R255 G0 B16 I30 P56

G1 X13.355123648779152 Y11.692152713846568 F300
G1 X13.720675599076628 Y11.779668142147612 F300
G1 X14.134370535406934 Y11.867108115968556 F300
M150 R255 G0 B12 I30 P56

G1 X14.598833333333335 Y11.953846666666667 F300
G1 X14.639334355279768 Y12.191914022916047 F300
M150 R255 G0 B8 I30 P56

G1 X14.68634544679054 Y12.427250299934364 F300
G1 X14.740226666666663 Y12.659966666666667 F300
G1 X14.740226666666663 Y12.659966666666667 F300
M150 R255 G0 B4 I30 P56


M150 R0 U0 B0 P0
G1 X0 Y0 F300
