G21
G90;svg#Layer_2 > g#Layer_1-2 > path
G0 X26.279577282455527 Y45.1450076277784
G1 X26.102974389917264 Y45.09231717906028 F300
G1 X25.92989139648428 Y45.03148562065052 F300
G1 X25.760369175905346 Y44.96273874859548 F300
G1 X25.594460116595194 Y44.88626622938029 F300
G1 X25.43223151856664 Y44.802224485417284 F300
G1 X25.234991451092306 Y44.68686592091157 F300
G1 X25.044876926097114 Y44.560823310461615 F300
G1 X24.862058551371053 Y44.42441497308582 F300
G1 X24.686750338011084 Y44.27789748888951 F300
G1 X24.519741580519863 Y44.12199035217165 F300
G1 X24.361651632875493 Y43.957354887493764 F300
G1 X24.212707728007413 Y43.784250888367964 F300
G1 X24.073190407455527 Y43.60289028402839 F300
G1 X23.968926323341307 Y43.452481408707555 F300
G1 X23.871489519318686 Y43.29769797115502 F300
G1 X23.7810129413377 Y43.13864475837393 F300
G1 X23.697656232355236 Y42.975409621397006 F300
G1 X23.621608393566635 Y42.80806651666729 F300
G1 X23.55585550139725 Y42.643265970603274 F300
G1 X23.497990803678498 Y42.475542885110954 F300
G1 X23.448077804842033 Y42.30518578267535 F300
G1 X23.406213840026222 Y42.132470705851404 F300
G1 X23.372531848427748 Y41.95766702013951 F300
G1 X23.347244640874912 Y41.78140191647717 F300
G1 X23.33056226756139 Y41.604726855950766 F300
G1 X23.322562822173133 Y41.42790180722736 F300
G1 X23.32336388905657 Y41.25118039997482 F300
G1 X23.333124365788862 Y41.0748163777784 F300
G1 X23.35204212372347 Y40.899099594023106 F300
G1 X23.380172303730877 Y40.72528395700395 F300
G1 X23.41765346540006 Y40.55356906215391 F300
G1 X23.464678546691623 Y40.38416213241576 F300
G1 X23.521496674816635 Y40.21728636041729 F300
G1 X23.587817692653267 Y40.05453678573761 F300
G1 X23.66404737875745 Y39.89552829080317 F300
G1 X23.75050453798239 Y39.74042985171204 F300
G1 X23.84758441219446 Y39.58945024874697 F300
G1 X23.955759504677747 Y39.442848738889516 F300
G1 X24.052114866969173 Y39.328490043039515 F300
G1 X24.154097831853083 Y39.22214138138493 F300
G1 X24.261499550289212 Y39.12369569185524 F300
G1 X24.37417082264707 Y39.033095780536556 F300
G1 X24.492014542834273 Y38.95034105907801 F300
G1 X24.614977699122193 Y38.8754938777784 F300
G1 X24.742567455280238 Y38.808913817884864 F300
G1 X24.87425729785336 Y38.75090788139661 F300
G1 X25.01002125394173 Y38.70155288544238 F300
G1 X25.149866675749664 Y38.66100142410265 F300
G1 X25.29382489191266 Y38.629487228128745 F300
G1 X25.44194172689997 Y38.60732985000063 F300
G1 X25.6046670344638 Y38.59474341570944 F300
G1 X25.76669764603357 Y38.594149054785575 F300
G1 X25.928017205478522 Y38.604820338968594 F300
G1 X26.08860691208516 Y38.626139438478 F300
G1 X26.24772304878509 Y38.65741975449796 F300
G1 X26.40496952178974 Y38.69798731364019 F300
G1 X26.56017800165312 Y38.74724827766058 F300
G1 X26.713164689862936 Y38.804655446708445 F300
G1 X26.912558403585734 Y38.89262194923775 F300
G1 X27.105101572976864 Y38.99182584135669 F300
G1 X27.290215060233308 Y39.10079540555618 F300
G1 X27.464357258184688 Y39.21570960786841 F300
G1 X27.632422551412276 Y39.33835979406509 F300
G1 X27.794561366785832 Y39.46838038957916 F300
G1 X27.950902269609525 Y39.6054364165651 F300
G1 X28.10155103245553 Y39.749218600000624 F300
G1 X28.281504493329475 Y39.93744395715161 F300
G1 X28.451950035067668 Y40.13406663473222 F300
G1 X28.613024637504587 Y40.33838354655664 F300
G1 X28.764826171344417 Y40.54972429444508 F300
G1 X28.890931955421408 Y40.74370655371038 F300
G1 X29.00715550171739 Y40.944279300893044 F300
G1 X29.112408969698333 Y41.15117643436278 F300
G1 X29.18336609209619 Y41.310138512132696 F300
G1 X29.246743191193353 Y41.47170411973967 F300
G1 X29.302121146902813 Y41.63581472498083 F300
G1 X29.34904707669421 Y41.802425117490344 F300
G1 X29.386963463793375 Y41.97116931555972 F300
G1 X29.415355535261433 Y42.141763740596026 F300
G1 X29.433747852941885 Y42.31426339339555 F300
G1 X29.4415950602333 Y42.488732072222845 F300
G1 X29.438119629800987 Y42.66785182670764 F300
G1 X29.422861070087396 Y42.84661929970194 F300
G1 X29.39570419581017 Y43.02429661591836 F300
G1 X29.356431891509033 Y43.200130673045905 F300
G1 X29.316194022313525 Y43.33858188176389 F300
G1 X29.26828284070313 Y43.47375472304665 F300
G1 X29.21262598966807 Y43.6053350044723 F300
G1 X29.14909549944982 Y43.732992808201416 F300
G1 X29.077507488216852 Y43.85637050843685 F300
G1 X28.998045054898697 Y43.97448668277747 F300
G1 X28.91071193855188 Y44.086773431097704 F300
G1 X28.81524559610973 Y44.192955003753056 F300
G1 X28.711301746567703 Y44.292688668498805 F300
G1 X28.598456171344417 Y44.38554762777841 F300
G1 X28.485136444410195 Y44.4654343695593 F300
G1 X28.36747769205103 Y44.53645049481097 F300
G1 X28.245865477903394 Y44.5986474819353 F300
G1 X28.120631430041147 Y44.65200015670082 F300
G1 X27.992070368875282 Y44.696399726543845 F300
G1 X27.860425413632985 Y44.73165502362826 F300
G1 X27.727501564096073 Y44.75722786968113 F300
G1 X27.593581067064836 Y44.77306157260486 F300
G1 X27.458923255616895 Y44.7790026720823 F300
G1 X27.32378382566541 Y44.77479478827224 F300
G1 X27.189790115564556 Y44.760274572645145 F300
G1 X27.057156072883533 Y44.73528107312494 F300
G1 X26.926055129561092 Y44.699520705249064 F300
G1 X26.796691793077287 Y44.65256121708893 F300
G1 X26.66932617134442 Y44.59382762777841 F300
G1 X26.626859892808405 Y44.56599013320822 F300
G1 X26.597224294794433 Y44.535005727833095 F300
G1 X26.577644528074106 Y44.501833432466576 F300
G1 X26.56638120606664 Y44.46671297500063 F300
G1 X26.56314543270823 Y44.41628710654589 F300
G1 X26.572799825663566 Y44.36623903861995 F300
G1 X26.594431449122197 Y44.317743738889526 F300
G1 X26.62606947554792 Y44.274949742799215 F300
G1 X26.66587089755281 Y44.240278107152704 F300
G1 X26.713339608844418 Y44.21544700277841 F300
G1 X26.75133777575179 Y44.20538928085814 F300
G1 X26.791959377322133 Y44.20309098289917 F300
G1 X26.83568868205812 Y44.2099453754912 F300
G1 X26.882968393566642 Y44.22834985000063 F300
G1 X26.977761992592654 Y44.271737379511315 F300
G1 X27.07414219792634 Y44.3058821704001 F300
G1 X27.171929437405733 Y44.33132758526782 F300
G1 X27.27098844553393 Y44.34849407174323 F300
G1 X27.371207611673643 Y44.35768602284015 F300
G1 X27.49731475570283 Y44.358278751686484 F300
G1 X27.622950521034678 Y44.34724826981896 F300
G1 X27.747689798438348 Y44.32508107445301 F300
G1 X27.871080656941132 Y44.29210071419816 F300
G1 X27.99134757849233 Y44.24899928175088 F300
G1 X28.1073943237349 Y44.19644957777039 F300
G1 X28.2187030181506 Y44.13485888621627 F300
G1 X28.324700615788867 Y44.06451985000063 F300
G1 X28.43316928127875 Y43.97754119698644 F300
G1 X28.53146674934031 Y43.88188000667222 F300
G1 X28.620207672492526 Y43.77818803621913 F300
G1 X28.69985757052138 Y43.66697326563849 F300
G1 X28.77031159757988 Y43.54941238191166 F300
G1 X28.831621934638743 Y43.42659127636637 F300
G1 X28.88406348744124 Y43.299128884335055 F300
G1 X28.927819957352654 Y43.16760717510351 F300
G1 X28.96282545195834 Y43.03330846709559 F300
G1 X28.989061171219202 Y42.897862919023055 F300
G1 X29.006773528230156 Y42.76197159411558 F300
G1 X29.016145060233313 Y42.62631540555619 F300
G1 X29.016530927607963 Y42.447997063635185 F300
G1 X29.00419958352417 Y42.270889207544606 F300
G1 X28.979773617760184 Y42.09495383711242 F300
G1 X28.943770290164505 Y41.92016167194052 F300
G1 X28.896615129677755 Y41.746503061806195 F300
G1 X28.839492755452376 Y41.57627427597826 F300
G1 X28.77265806920505 Y41.40846615779166 F300
G1 X28.696590021846667 Y41.24321923567591 F300
G1 X28.611728236223314 Y41.080693899950795 F300
G1 X28.518481449122202 Y40.92107582222285 F300
G1 X28.392120260020835 Y40.72799218271568 F300
G1 X28.25571424423005 Y40.54209631805788 F300
G1 X28.110305816937647 Y40.36380544903877 F300
G1 X27.956885685233317 Y40.19357087430618 F300
G1 X27.794714916186184 Y40.03026173562874 F300
G1 X27.628269981174483 Y39.87796146329553 F300
G1 X27.45867362558595 Y39.736951505984074 F300
G1 X27.286969504677757 Y39.60752540555618 F300
G1 X27.133324830560404 Y39.502402775319936 F300
G1 X26.97364022741485 Y39.4036349769932 F300
G1 X26.808148146653068 Y39.31260318333397 F300
G1 X26.637944463890957 Y39.23113916701155 F300
G1 X26.463689047660807 Y39.160728614011084 F300
G1 X26.285488270109855 Y39.10262985000064 F300
G1 X26.14940806905255 Y39.06797415039277 F300
G1 X26.01172885938538 Y39.0416996115577 F300
G1 X25.87236497519633 Y39.024352057216 F300
G1 X25.731219504677753 Y39.01655207222285 F300
G1 X25.57668898381852 Y39.01997539490837 F300
G1 X25.426205970369203 Y39.03603555298117 F300
G1 X25.279764554203506 Y39.064262470907586 F300
G1 X25.137373341660663 Y39.104363855359594 F300
G1 X24.999082143566643 Y39.15621679444507 F300
G1 X24.865619246345954 Y39.21953492909545 F300
G1 X24.737758122411066 Y39.29393187697613 F300
G1 X24.61561182136524 Y39.37941568562601 F300
G1 X24.49938425963972 Y39.47613866612203 F300
G1 X24.389393949122198 Y39.58438318333397 F300
G1 X24.28954210785976 Y39.69888025030447 F300
G1 X24.199025455102397 Y39.818290937253195 F300
G1 X24.11740528045331 Y39.94233359547987 F300
G1 X24.044314628945916 Y40.07078095519169 F300
G1 X23.979457351899978 Y40.203448652083964 F300
G1 X23.922645205014614 Y40.340082214859095 F300
G1 X23.873953902717243 Y40.4797421734543 F300
G1 X23.833156867842145 Y40.62217763207418 F300
G1 X23.800074591835887 Y40.76715374934173 F300
G1 X23.774572838011085 Y40.914443600000624 F300
G1 X23.753346819514576 Y41.09994095186637 F300
G1 X23.74358790492346 Y41.286493267649924 F300
G1 X23.744991860309298 Y41.47353376285567 F300
G1 X23.7573308241222 Y41.66049583958396 F300
G1 X23.780429185059358 Y41.846670462569904 F300
G1 X23.813831521081767 Y42.02982293673549 F300
G1 X23.85721428853128 Y42.20937193023508 F300
G1 X23.910321726899976 Y42.384733183333964 F300
G1 X23.971395176519106 Y42.55268268852348 F300
G1 X24.040721032517368 Y42.71671933304833 F300
G1 X24.118054740877124 Y42.876770311123764 F300
G1 X24.203192500299547 Y43.0327468800095 F300
G1 X24.29596736926109 Y43.18453993680619 F300
G1 X24.39604113765655 Y43.33173060904748 F300
G1 X24.502882257526064 Y43.473699047340304 F300
G1 X24.616295461911275 Y43.61033103660969 F300
G1 X24.73611568831117 Y43.74149080295203 F300
G1 X24.862204365788866 Y43.86701721111175 F300
G1 X24.99411450029431 Y43.98643438003417 F300
G1 X25.13128699938282 Y44.09923742647603 F300
G1 X25.273565209025058 Y44.2052878879578 F300
G1 X25.420816893377214 Y44.304419207111444 F300
G1 X25.572930320649974 Y44.39643302708397 F300
G1 X25.729294737675474 Y44.48083365790165 F300
G1 X25.88947837343528 Y44.55728799462656 F300
G1 X26.053381987884674 Y44.625624550699676 F300
G1 X26.220925402739653 Y44.68563203147326 F300
G1 X26.392042838011086 Y44.73705540555619 F300
G1 X26.43930697692902 Y44.75541206521326 F300
G1 X26.475419341577794 Y44.77971776825098 F300
G1 X26.502601507112093 Y44.8084787103209 F300
G1 X26.52232367134442 Y44.84104547500065 F300
G1 X26.538176914681152 Y44.89058898554807 F300
G1 X26.541533898651323 Y44.94234039781505 F300
G1 X26.53311867134442 Y44.994830127778414 F300
G1 X26.513572787702113 Y45.04426620884297 F300
G1 X26.48424191849444 Y45.08713482998351 F300
G1 X26.44522408801108 Y45.121786030556194 F300
G1 X26.41155786859942 Y45.13983098897421 F300
G1 X26.37336759090981 Y45.15082317613087 F300
G1 X26.32971296197752 Y45.153448443821546 F300
G1 X26.27943617134442 Y45.14528985000063 F300
G1 X26.27943617134442 Y45.14528985000063 F300
G1 X26.279577282455527 Y45.1450076277784 F300;svg#Layer_2 > g#Layer_1-2 > path
G0 X22.605326171344412 Y41.354198738889515
G1 X22.32042557253936 Y41.19629809404443 F300
G1 X22.04075729506676 Y41.03038408730297 F300
G1 X21.766391055871914 Y40.856565737013 F300
G1 X21.497403638381645 Y40.67493797670461 F300
G1 X21.233879913783387 Y40.48558238586075 F300
G1 X20.97591384977622 Y40.288567942254616 F300
G1 X20.723609504677746 Y40.08395179444507 F300
G1 X20.477389979903954 Y39.872053046491175 F300
G1 X20.237670001368556 Y39.653227607779556 F300
G1 X20.00453485956352 Y39.427552057600295 F300
G1 X19.778079847114718 Y39.195090767116234 F300
G1 X19.558411262938677 Y38.955896693548404 F300
G1 X19.345647398554462 Y38.71001219299076 F300
G1 X19.139919504677746 Y38.45746985000063 F300
G1 X19.115224946602382 Y38.420698322661785 F300
G1 X19.097124915094717 Y38.38181344656855 F300
G1 X19.085691027311494 Y38.3414869693422 F300
G1 X19.081301225608566 Y38.30004163560199 F300
G1 X19.08455133263517 Y38.259754748705454 F300
G1 X19.095840574636597 Y38.22095717510351 F300
G1 X19.11501138643147 Y38.18576271153677 F300
G1 X19.14332014243751 Y38.15355029629181 F300
G1 X19.182817282455524 Y38.125012072222844 F300
G1 X19.33033183024185 Y38.04664692904905 F300
G1 X19.4791531096455 Y37.978759569252745 F300
G1 X19.62925897624816 Y37.92070219217335 F300
G1 X19.780652592888224 Y37.87189610808083 F300
G1 X19.933357828675476 Y37.831827355232235 F300
G1 X20.087414469955522 Y37.8000420027784 F300
G1 X20.274957691090012 Y37.77217834262693 F300
G1 X20.463861115368953 Y37.755214597341514 F300
G1 X20.654026107400355 Y37.74851583529923 F300
G1 X20.845357637303433 Y37.75149939945322 F300
G1 X21.037758115788858 Y37.76362651666729 F300
G1 X21.276937922660395 Y37.79051017904076 F300
G1 X21.51561958056163 Y37.82937884743914 F300
G1 X21.753343050976827 Y37.8790968486111 F300
G1 X21.989636344955528 Y37.93856019722285 F300
G1 X22.301253907381746 Y38.03101496481297 F300
G1 X22.604754813376868 Y38.13502323762132 F300
G1 X22.898837282455528 Y38.2476376277784 F300
G1 X23.216669748895104 Y38.380525194019754 F300
G1 X23.529992108557767 Y38.521853309635915 F300
G1 X23.839080543457648 Y38.671161532452075 F300
G1 X24.144205554060466 Y38.82800149609116 F300
G1 X24.545355794074503 Y39.04809569024219 F300
G1 X24.94020257247225 Y39.27958110628283 F300
G1 X25.329272344183924 Y39.52137968539157 F300
G1 X25.712711733127193 Y39.772176024429 F300
G1 X26.09099323133751 Y40.030852070355 F300
G1 X26.464573949122194 Y40.29628873888951 F300
G1 X26.996823187088808 Y40.684664105590485 F300
G1 X27.52677739634435 Y41.07988225050487 F300
G1 X28.052814782455524 Y41.482574572222845 F300
G1 X28.572784212272598 Y41.892960908354084 F300
G1 X29.084579357802504 Y42.31125014208188 F300
G1 X29.586657282455526 Y42.73807540555618 F300
G1 X29.81375181659079 Y42.93909533856991 F300
G1 X30.03914980938023 Y43.14731872056967 F300
G1 X30.261305094955524 Y43.36308297500062 F300
G1 X30.47708629705834 Y43.585094598636246 F300
G1 X30.68565220290377 Y43.81425131579404 F300
G1 X30.885549782455527 Y44.0509026277784 F300
G1 X31.02899746195011 Y44.23366210922991 F300
G1 X31.165746532635744 Y44.420518507843596 F300
G1 X31.295244745538856 Y44.61166404570947 F300
G1 X31.416925719955522 Y44.80730228055617 F300
G1 X31.530291538871875 Y45.00781054156856 F300
G1 X31.634456873301612 Y45.21289572514952 F300
G1 X31.728877906570602 Y45.42286590755186 F300
G1 X31.81296728245552 Y45.63804985000062 F300
G1 X31.842833127419407 Y45.728344542829234 F300
G1 X31.868092172534713 Y45.82238094147566 F300
G1 X31.88774049233207 Y45.91944108456853 F300
G1 X31.900569384064486 Y46.01747354230485 F300
G1 X31.905716140236578 Y46.11555256956293 F300
G1 X31.902306294801207 Y46.213061948766054 F300
G1 X31.889348809687483 Y46.309421766105814 F300
G1 X31.865998431368013 Y46.40304342832181 F300
G1 X31.831170615788857 Y46.493606516667285 F300
G1 X31.79001839803127 Y46.569065366831 F300
G1 X31.742398558391653 Y46.63343914715857 F300
G1 X31.68907901078711 Y46.68807514820522 F300
G1 X31.63048448410162 Y46.73400758662614 F300
G1 X31.565879727272065 Y46.77241141769486 F300
G1 X31.497153952727544 Y46.80259385566754 F300
G1 X31.42460328946946 Y46.824970300084395 F300
G1 X31.34845563636499 Y46.839757298560286 F300
G1 X31.24528630087913 Y46.84765538609388 F300
G1 X31.13975508301672 Y46.84291432744298 F300
G1 X31.0329050602333 Y46.825782072222836 F300
G1 X30.906731567952107 Y46.79321841278254 F300
G1 X30.780509155043568 Y46.75121237837229 F300
G1 X30.654639944221245 Y46.70090023631424 F300
G1 X30.529561726899967 Y46.643413600000606 F300
G1 X30.366765061222047 Y46.5586507302666 F300
G1 X30.211156763456497 Y46.46844402910844 F300
G1 X30.0638950602333 Y46.37606096111172 F300
G1 X29.88402007771489 Y46.25270497201918 F300
G1 X29.71134016811961 Y46.12038646899066 F300
G1 X29.545916785402646 Y45.97938284373142 F300
G1 X29.387846495114267 Y45.82992401094903 F300
G1 X29.237266171344412 Y45.672198738889506 F300
G1 X29.20728504817122 Y45.631352210817695 F300
G1 X29.189404140724136 Y45.59096718259347 F300
G1 X29.181181224908585 Y45.5512301355519 F300
G1 X29.18114143176108 Y45.51202660347284 F300
G1 X29.192960631303546 Y45.4599124736998 F300
G1 X29.21628446233844 Y45.412647809098765 F300
G1 X29.249595754677742 Y45.37115582222283 F300
G1 X29.290978539531878 Y45.33788889115186 F300
G1 X29.33698174862716 Y45.31576257958301 F300
G1 X29.38670945259441 Y45.3059823326395 F300
G1 X29.423660873142637 Y45.307876786048794 F300
G1 X29.460884048599162 Y45.31830473013728 F300
G1 X29.498589666768197 Y45.33900728650138 F300
G1 X29.536562838011076 Y45.372902072222836 F300
G1 X29.685658137371103 Y45.52888980654714 F300
G1 X29.84298537532907 Y45.67696082922638 F300
G1 X30.008375954777836 Y45.8164682290224 F300
G1 X30.181705199122185 Y45.94671276666729 F300
G1 X30.325589231724518 Y46.04345002580713 F300
G1 X30.47361420236672 Y46.132915869528794 F300
G1 X30.62574702299538 Y46.214807033676735 F300
G1 X30.781976868644488 Y46.28878519636331 F300
G1 X30.942311726899963 Y46.35447096111173 F300
G1 X31.028400119999446 Y46.38411770116383 F300
G1 X31.11674710884441 Y46.40708115208395 F300
G1 X31.176419638051073 Y46.41688390740819 F300
G1 X31.232615980337428 Y46.42044964257768 F300
G1 X31.284753115788856 Y46.41710665555617 F300
G1 X31.334635770084244 Y46.40534556249907 F300
G1 X31.37832951961501 Y46.38448127339044 F300
G1 X31.41598203939997 Y46.35302236736172 F300
G1 X31.437842005884566 Y46.32437415767109 F300
G1 X31.45644339295313 Y46.28804331130729 F300
G1 X31.47098427222731 Y46.241904284876064 F300
G1 X31.480086171344414 Y46.18330318333395 F300
G1 X31.48253677279278 Y46.104500009827056 F300
G1 X31.476803415194812 Y46.02610658989184 F300
G1 X31.463936788628363 Y45.94797688703766 F300
G1 X31.433779855372002 Y45.83251597787259 F300
G1 X31.39369481331972 Y45.71904762777839 F300
G1 X31.347269624899933 Y45.60817950702295 F300
G1 X31.298899504677742 Y45.50215985000061 F300
G1 X31.19943095868917 Y45.30025012103799 F300
G1 X31.09198889197281 Y45.104054111376286 F300
G1 X30.977029255362982 Y44.913193739111925 F300
G1 X30.854979872971256 Y44.72730730080802 F300
G1 X30.726244484101617 Y44.54604845082367 F300
G1 X30.55660224693705 Y44.325597664995776 F300
G1 X30.378276398919706 Y44.11174072396634 F300
G1 X30.192118003255402 Y43.90396197126821 F300
G1 X29.9989630437724 Y43.70175976769609 F300
G1 X29.73266530257362 Y43.440646823855474 F300
G1 X29.458606903188148 Y43.1884886281156 F300
G1 X29.178987282455523 Y42.9442387388895 F300
G1 X28.721745531440508 Y42.56048402142065 F300
G1 X28.257319417346565 Y42.18340563520873 F300
G1 X27.786749782455523 Y41.81254526666728 F300
G1 X27.31143697928062 Y41.44771721612834 F300
G1 X26.832813924780275 Y41.08873551437841 F300
G1 X26.351967282455526 Y40.73514429444506 F300
G1 X25.97665346763066 Y40.46584935566064 F300
G1 X25.59666818486059 Y40.202757967649156 F300
G1 X25.21148579185306 Y39.94716623282317 F300
G1 X24.82057658801108 Y39.700376516667276 F300
G1 X24.503498670288955 Y39.510240031115956 F300
G1 X24.18242654329938 Y39.32740418961554 F300
G1 X23.85703093989204 Y39.15249555066745 F300
G1 X23.52697727542161 Y38.986150089219606 F300
G1 X23.191925060233302 Y38.82901540555616 F300
G1 X22.96196919814106 Y38.72773738282905 F300
G1 X22.721825191250954 Y38.62786484262219 F300
G1 X22.47230693578886 Y38.53153173444507 F300
G1 X22.22020561561915 Y38.442976471815584 F300
G1 X21.963395104516675 Y38.3629731715639 F300
G1 X21.70278966467775 Y38.29355857000061 F300
G1 X21.505282782752484 Y38.24967871327301 F300
G1 X21.307711951783084 Y38.214030654656945 F300
G1 X21.110368931594103 Y38.187370562348974 F300
G1 X20.9135349002333 Y38.170474685556165 F300
G1 X20.71587260907868 Y38.164142027522104 F300
G1 X20.52012638588664 Y38.169368511219744 F300
G1 X20.326375950261422 Y38.18692257962827 F300
G1 X20.134704295788858 Y38.217658854445055 F300
G1 X19.983834423394 Y38.252142717369395 F300
G1 X19.834622133909427 Y38.296028238270566 F300
G1 X19.68700631396602 Y38.34990955909995 F300
G1 X19.54095235837089 Y38.414470111471864 F300
G1 X19.39645950467775 Y38.49048985000061 F300
G1 X19.439357282455525 Y38.15803207222284 F300
G1 X19.674895666926272 Y38.44589350896217 F300
G1 X19.9192963941196 Y38.724623713381405 F300
G1 X20.172434284356957 Y38.9942055455131 F300
G1 X20.43420631238986 Y39.25460408944905 F300
G1 X20.704530063518074 Y39.50576509516219 F300
G1 X20.983342143566638 Y39.747613461111726 F300
G1 X21.270256664816177 Y39.97978623177073 F300
G1 X21.564858548881933 Y40.20193719498107 F300
G1 X21.867083662480326 Y40.413996725942454 F300
G1 X22.17688538358687 Y40.61587240102956 F300
G1 X22.494232905001617 Y40.807447547885346 F300
G1 X22.819109504677748 Y40.988579850000626 F300
G1 X22.861112240902184 Y41.017119208391016 F300
G1 X22.89044919243454 Y41.04870966300547 F300
G1 X22.909816059712714 Y41.08242266152488 F300
G1 X22.920903532455526 Y41.1180162215284 F300
G1 X22.923937039298778 Y41.16895359188149 F300
G1 X22.91415303841824 Y41.219274830667764 F300
G1 X22.8925225602333 Y41.26778582222284 F300
G1 X22.86089271152713 Y41.3105558190563 F300
G1 X22.821225287142457 Y41.34495815177824 F300
G1 X22.774024504677747 Y41.36932188125062 F300
G1 X22.736287742505937 Y41.37894662907367 F300
G1 X22.695948851131206 Y41.38073831539847 F300
G1 X22.65249555998263 Y41.37326618009806 F300
G1 X22.605467282455525 Y41.354057627778396 F300
G1 X22.605467282455525 Y41.354057627778396 F300
G1 X22.605326171344412 Y41.354198738889515 F300;svg#Layer_2 > g#Layer_1-2 > path
G0 X22.507818393566637 Y24.59908873888951
G1 X23.732327699122187 Y25.454098600000624 F300
G1 X24.95948283801108 Y26.305404294445072 F300
G1 X25.04324100268966 Y26.363004759824793 F300
G1 X25.132202838011082 Y26.419165981687872 F300
G1 X25.19405301695117 Y26.451596919485766 F300
G1 X25.256500076105116 Y26.476605625947577 F300
G1 X25.319786541714784 Y26.492256310905976 F300
G1 X25.367575171905962 Y26.496602604663067 F300
G1 X25.416166319934298 Y26.493655779094084 F300
G1 X25.466198269087297 Y26.482135678817624 F300
G1 X25.518282838011082 Y26.46020318333396 F300
G1 X25.583696062497307 Y26.421930575570602 F300
G1 X25.647882882374546 Y26.377050173559407 F300
G1 X25.71111378451314 Y26.32657096111174 F300
G1 X25.801974765135895 Y26.245280315171847 F300
G1 X25.890084484101614 Y26.160012812963593 F300
G1 X26.059585060233303 Y25.995806516667294 F300
G1 X26.597077282455526 Y25.50685651666729 F300
G1 X26.873937282455522 Y25.270865822222845 F300
G1 X26.966352591900183 Y25.18844565373823 F300
G1 X27.052357781441323 Y25.103318744566288 F300
G1 X27.129207282455525 Y25.0142376277784 F300
G1 X27.16208384458288 Y24.961853206922076 F300
G1 X27.179611816794502 Y24.911682532640906 F300
G1 X27.184817874271406 Y24.862737818331706 F300
G1 X27.17933559356664 Y24.81385985000063 F300
G1 X27.16447711119548 Y24.765979623417685 F300
G1 X27.140645126869284 Y24.717532502952405 F300
G1 X27.10805786110221 Y24.668296107316767 F300
G1 X27.06687003801108 Y24.618155672222848 F300
G1 X27.006601511371052 Y24.556990673348114 F300
G1 X26.93787820280197 Y24.497089768584356 F300
G1 X26.862862882455524 Y24.438876827778405 F300
G1 X26.746986817328185 Y24.35790490715896 F300
G1 X26.638366393566635 Y24.287775050000626 F300
G1 X26.46443283801108 Y24.17660207222285 F300
G1 X25.84962146370452 Y23.74977078664861 F300
G1 X25.232391726899966 Y23.326548738889514 F300
G1 X24.433796153462385 Y22.786655335273014 F300
G1 X23.631236384657626 Y22.252732256097488 F300
G1 X22.824753949122186 Y21.72479651666729 F300
G1 X21.899606421755134 Y21.12971912082168 F300
G1 X20.969454319688715 Y20.54248923173354 F300
G1 X20.03442283801108 Y19.96302429444507 F300
G1 X20.248065060233294 Y19.96302429444507 F300
G1 X20.21612822342186 Y19.996933474106353 F300
G1 X20.194751175074696 Y20.039683876340966 F300
G1 X20.182228887393794 Y20.090897092798983 F300
G1 X20.177933070823933 Y20.172746579881856 F300
G1 X20.18534901085058 Y20.25806149609116 F300
G1 X20.212928393566628 Y20.40399651666729 F300
G1 X20.256616393946775 Y20.591753976970946 F300
G1 X20.304438949122183 Y20.7789463777784 F300
G1 X20.402722838011073 Y21.152308738889513 F300
G1 X20.80277283801107 Y22.719629850000622 F300
G1 X20.85815591452619 Y22.951233299971076 F300
G1 X20.911705389451406 Y23.190235405556184 F300
G1 X20.96746374999743 Y23.429583988845717 F300
G1 X21.030390286570743 Y23.666297257408033 F300
G1 X21.078994614335052 Y23.82175984172401 F300
G1 X21.13412601507239 Y23.972574330821978 F300
G1 X21.197178393566624 Y24.117899850000622 F300
G1 X21.237556811706508 Y24.19420896006188 F300
G1 X21.28675715744702 Y24.270653756313905 F300
G1 X21.344471935233287 Y24.34530702013951 F300
G1 X21.40861036439434 Y24.41421557794451 F300
G1 X21.477988052664838 Y24.475186893178776 F300
G1 X21.552037560233288 Y24.52661054444507 F300
G1 X21.611542510036514 Y24.558405445822032 F300
G1 X21.672202598676826 Y24.58232837177284 F300
G1 X21.73408365545705 Y24.597918076512848 F300
G1 X21.797332768566623 Y24.604488443750625 F300
G1 X21.85980533147083 Y24.6013575204312 F300
G1 X21.923670717748063 Y24.58776458776987 F300
G1 X21.989522354666075 Y24.56200442492787 F300
G1 X22.05781506023329 Y24.52161873888951 F300
G1 X22.102357324947913 Y24.497041115877412 F300
G1 X22.14329878770152 Y24.485534238532487 F300
G1 X22.181196518923176 Y24.484050855173823 F300
G1 X22.216748063705513 Y24.490876360417285 F300
G1 X22.261642504763664 Y24.51215553017247 F300
G1 X22.300152222756175 Y24.544775116596774 F300
G1 X22.33169408801107 Y24.587464711111732 F300
G1 X22.353416318614006 Y24.63610042978842 F300
G1 X22.364325875083466 Y24.68821636822345 F300
G1 X22.36311115398329 Y24.74249952013951 F300
G1 X22.35365421260889 Y24.781254540710222 F300
G1 X22.336267090542208 Y24.81853819986869 F300
G1 X22.309589607412782 Y24.85407280407539 F300
G1 X22.27145728245551 Y24.887096516667288 F300
G1 X22.19070464822457 Y24.936552787802157 F300
G1 X22.10837475322483 Y24.974081366759595 F300
G1 X22.02463749901888 Y25.000827954847033 F300
G1 X21.93954410537218 Y25.0176309090284 F300
G1 X21.852576746535423 Y25.025060014229812 F300
G1 X21.7654680324914 Y25.02337924184188 F300
G1 X21.678416916326764 Y25.01306307207239 F300
G1 X21.591636865788843 Y24.994429155556176 F300
G1 X21.506859180988727 Y24.96818812623085 F300
G1 X21.424252512625714 Y24.934768423540376 F300
G1 X21.34416469163156 Y24.89452841800847 F300
G1 X21.266986501205515 Y24.84774636041729 F300
G1 X21.17031562332003 Y24.776306775169253 F300
G1 X21.08263946420662 Y24.69607718311117 F300
G1 X21.004843949122183 Y24.607837627778398 F300
G1 X20.921601439614893 Y24.49133981119976 F300
G1 X20.84859407933815 Y24.367839359816973 F300
G1 X20.784516409658828 Y24.237989252390303 F300
G1 X20.72814596558309 Y24.1023985331282 F300
G1 X20.6640029956327 Y23.917062669380133 F300
G1 X20.609160338960645 Y23.72683668959726 F300
G1 X20.56088748821683 Y23.53396116687305 F300
G1 X20.42925172689996 Y22.96840873888951 F300
G1 X19.924779504677733 Y20.99228873888951 F300
G1 X19.829095147038842 Y20.630034468056177 F300
G1 X19.80069506891084 Y20.503410724791284 F300
G1 X19.778898844097853 Y20.37734444178104 F300
G1 X19.76625881023329 Y20.252937072222846 F300
G1 X19.764348789470354 Y20.159355589065516 F300
G1 X19.770348610696104 Y20.06876654451879 F300
G1 X19.78521075881965 Y19.981224017931908 F300
G1 X19.810023098427735 Y19.89679467638951 F300
G1 X19.83715112547529 Y19.83307145725164 F300
G1 X19.87191833985087 Y19.77129787698424 F300
G1 X19.915397224427988 Y19.71137909104491 F300
G1 X19.968927707048728 Y19.653350931526123 F300
G1 X20.034140615788846 Y19.59740540555618 F300
G1 X20.065357956698943 Y19.579901804722777 F300
G1 X20.10125437237187 Y19.570150345852138 F300
G1 X20.14059131023329 Y19.567613322222847 F300
G1 X20.180157971254587 Y19.571992511185893 F300
G1 X20.216401588741377 Y19.582219311863497 F300
G1 X20.247782838011066 Y19.59740540555618 F300
G1 X21.16359168185003 Y20.164978706350194 F300
G1 X22.07464921351148 Y20.73996839688622 F300
G1 X22.980907613825014 Y21.32239212746888 F300
G1 X23.88231846094658 Y21.912268527879885 F300
G1 X24.778832700498235 Y22.50961720476395 F300
G1 X25.67040061578884 Y23.114458738889514 F300
G1 X26.342995782831522 Y23.57743129489874 F300
G1 X27.012085060233286 Y24.045368738889515 F300
G1 X27.13673990843001 Y24.137069805410924 F300
G1 X27.26372144912218 Y24.241493339583958 F300
G1 X27.344009504769637 Y24.316829575001815 F300
G1 X27.417818827823346 Y24.396308202022443 F300
G1 X27.483184504677734 Y24.480043877778403 F300
G1 X27.52615682982885 Y24.546921152321552 F300
G1 X27.56177045074923 Y24.615691954522987 F300
G1 X27.58941673820555 Y24.68665158887262 F300
G1 X27.608350060233292 Y24.760160457639515 F300
G1 X27.617513786337526 Y24.834490004582314 F300
G1 X27.616452474627618 Y24.912118698597553 F300
G1 X27.603673844888704 Y24.99396709181723 F300
G1 X27.577093949122176 Y25.08098318333396 F300
G1 X27.546880535913203 Y25.14763466839453 F300
G1 X27.509855416385342 Y25.209811797746507 F300
G1 X27.46699592443082 Y25.268394417901863 F300
G1 X27.39445276520769 Y25.350455976537276 F300
G1 X27.31503493677649 Y25.427583430247537 F300
G1 X27.152067282455505 Y25.573319850000626 F300
G1 X26.486587282455506 Y26.178686516667295 F300
G1 X26.215142421344396 Y26.429511516667294 F300
G1 X26.07829102739789 Y26.553897760148377 F300
G1 X25.938935060233284 Y26.67483318333396 F300
G1 X25.84773850457656 Y26.746525611324078 F300
G1 X25.75331168821637 Y26.809178849905763 F300
G1 X25.65482547689995 Y26.860553044445073 F300
G1 X25.577810789745634 Y26.890265089872454 F300
G1 X25.4977079182299 Y26.911250841543364 F300
G1 X25.413649188869293 Y26.922423968257384 F300
G1 X25.324678393566618 Y26.922342072222847 F300
G1 X25.230621520958746 Y26.909578120257287 F300
G1 X25.140390197224868 Y26.885739616125996 F300
G1 X25.05308654171477 Y26.852486845885398 F300
G1 X24.927159594092306 Y26.788803007343667 F300
G1 X24.80576580097403 Y26.71336174300474 F300
G1 X24.57453172689995 Y26.551784294445067 F300
G1 X23.83327506023328 Y26.035882072222847 F300
G1 X22.29389394912217 Y24.96442540555618 F300
G1 X22.255702638834425 Y24.931523974560868 F300
G1 X22.228970427685265 Y24.89608387432376 F300
G1 X22.211530356145335 Y24.85887149026718 F300
G1 X22.20202179634439 Y24.820165752778404 F300
G1 X22.200741947532663 Y24.765929972444297 F300
G1 X22.211597746342008 Y24.713823834835782 F300
G1 X22.233286726899948 Y24.66516401666729 F300
G1 X22.264805680611627 Y24.622445679114282 F300
G1 X22.303324002158895 Y24.589771886685945 F300
G1 X22.348265824122173 Y24.56842353055618 F300
G1 X22.383863814492756 Y24.561547455372466 F300
G1 X22.42183137788229 Y24.56297713619157 F300
G1 X22.46286824049055 Y24.574428487510456 F300
G1 X22.507536171344395 Y24.598947627778397 F300
G1 X22.507536171344395 Y24.598947627778397 F300
G1 X22.507818393566637 Y24.59908873888951 F300;svg#Layer_2 > g#Layer_1-2 > path
G0 X15.828888393566633 Y17.362628738889516
G1 X11.202419504677742 Y13.437764294445072 F300
G1 X11.174143477864448 Y13.40652452687341 F300
G1 X11.155373583076724 Y13.370695602693548 F300
G1 X11.144969643566633 Y13.330934363889515 F300
G1 X11.142641672256147 Y13.289342900899166 F300
G1 X11.147803396932956 Y13.247452727437967 F300
G1 X11.160121449122187 Y13.206271516667295 F300
G1 X11.179133811428647 Y13.167811544829215 F300
G1 X11.20379747279598 Y13.134420295594973 F300
G1 X11.233852004677743 Y13.107008669445072 F300
G1 X11.268595391511044 Y13.087216715022794 F300
G1 X11.307701462234723 Y13.076420981484489 F300
G1 X11.352138393566632 Y13.076378738889515 F300
G1 X18.673829504677744 Y14.055125405556185 F300
G1 X18.567008393566635 Y14.449530961111737 F300
G1 X17.349183087516696 Y13.64740933375034 F300
G1 X16.1360555480524 Y12.838218883493713 F300
G1 X14.927673282154526 Y12.021939703719383 F300
G1 X13.724084108754926 Y11.198551418678047 F300
G1 X12.52533617134441 Y10.368033183333964 F300
G1 X11.52971222948949 Y9.67020874413143 F300
G1 X10.534297453653508 Y8.965196422620867 F300
G1 X9.539883671344407 Y8.253518461111742 F300
G1 X8.54898476037106 Y7.536948325402779 F300
G1 X7.561827005151369 Y6.815630817083246 F300
G1 X6.57919617134441 Y6.090108738889522 F300
G1 X5.478019361780936 Y5.268060971732871 F300
G1 X4.381376988472805 Y4.439920577694343 F300
G1 X3.2891906157888533 Y3.6057065166673006 F300
G1 X3.2531107464939333 Y3.571685757921437 F300
G1 X3.227694057043844 Y3.535237693063993 F300
G1 X3.2110700627135276 Y3.4970880634721655 F300
G1 X3.2020611192610753 Y3.4575574888895217 F300
G1 X3.2010734901502618 Y3.402541341658701 F300
G1 X3.2117847793908028 Y3.3501399383648365 F300
G1 X3.2328696435666315 Y3.301682627778412 F300
G1 X3.2636892716589836 Y3.2591381930637517 F300
G1 X3.3013058356162523 Y3.2270167576278173 F300
G1 X3.3452492095388537 Y3.2064502666673027 F300
G1 X3.380004488957704 Y3.2002334908971477 F300
G1 X3.4173442007936248 Y3.202329226638453 F300
G1 X3.4580681818697125 Y3.2145823483381832 F300
G1 X3.502832838011076 Y3.240228738889526 F300
G1 X4.201404038909696 Y3.7366538603433326 F300
G1 X4.905644183059417 Y4.224289555834664 F300
G1 X5.61525253378781 Y4.703627768531795 F300
G1 X6.329929894780473 Y5.175158182517497 F300
G1 X7.049378393566632 Y5.639368491975944 F300
G1 X7.954892452115615 Y6.21004410471486 F300
G1 X8.866643694164543 Y6.770881628885374 F300
G1 X9.784009205815023 Y7.322803061820847 F300
G1 X10.706366912085151 Y7.866728985803103 F300
G1 X11.942630594192254 Y8.580979353645223 F300
G1 X13.1847509092517 Y9.284585888533899 F300
G1 X14.431182838011075 Y9.97969540555619 F300
G1 X16.00627489796907 Y10.84735604211132 F300
G1 X17.584169504677746 Y11.710282072222858 F300
G1 X17.32762950467774 Y12.042739850000636 F300
G1 X16.702689694279194 Y11.294150399383907 F300
G1 X16.068748814151594 Y10.553492387850314 F300
G1 X15.425843713195569 Y9.820797439620735 F300
G1 X14.774008539618968 Y9.096099389650876 F300
G1 X14.113274812372627 Y8.379434365283098 F300
G1 X13.443671493337176 Y7.670840867250228 F300
G1 X12.765225060233298 Y6.970359850000641 F300
G1 X12.737021759033322 Y6.935460893363453 F300
G1 X12.718591175675188 Y6.900151488596339 F300
G1 X12.708189072533528 Y6.864725806704519 F300
G1 X12.704721466483297 Y6.829215665972863 F300
G1 X12.710199023587117 Y6.781147350610076 F300
G1 X12.726086503047204 Y6.736112410453132 F300
G1 X12.751413810233295 Y6.694858044445086 F300
G1 X12.784698049050629 Y6.659724097964735 F300
G1 X12.824086952659563 Y6.632768260378724 F300
G1 X12.869146778983296 Y6.61513688125064 F300
G1 X12.90435408653374 Y6.609422391747755 F300
G1 X12.9413554799626 Y6.610459035791545 F300
G1 X12.980428716078734 Y6.619348495317646 F300
G1 X13.021765060233296 Y6.637902072222864 F300
G1 X13.699919375749133 Y7.030690133839925 F300
G1 X14.371965149722868 Y7.433296692396855 F300
G1 X15.037870790127002 Y7.845665198708254 F300
G1 X15.697602267766563 Y8.26774325304581 F300
G1 X16.35112297689996 Y8.69948248888953 F300
G1 X16.998256055798972 Y9.140743189087296 F300
G1 X17.638827006050185 Y9.591381146386702 F300
G1 X18.272798316827753 Y10.051346813528736 F300
G1 X18.900129787559315 Y10.520594463443217 F300
G1 X19.520778393566626 Y10.999082072222864 F300
G1 X20.09621760160615 Y11.456006086333302 F300
G1 X20.66516555632254 Y11.920869592196638 F300
G1 X21.227799504677733 Y12.393400961111753 F300
G1 X20.866413949122176 Y12.543119850000643 F300
G1 X20.84606226099326 Y12.069412063838184 F300
G1 X20.814041652788248 Y11.597114146358738 F300
G1 X20.770403863160634 Y11.126262812968427 F300
G1 X20.715186850685875 Y10.656895563843893 F300
G1 X20.6484149213444 Y10.189051377778421 F300
G1 X20.570139045221584 Y9.722993799916624 F300
G1 X20.480415662811026 Y9.258970400382717 F300
G1 X20.379260822597765 Y8.797023115774461 F300
G1 X20.26667735920395 Y8.337196567492622 F300
G1 X20.142655060233285 Y7.879538738889536 F300
G1 X20.13360269090505 Y7.831913398189709 F300
G1 X20.133749194158774 Y7.790883243447801 F300
G1 X20.14101623751526 Y7.755316082132745 F300
G1 X20.154157820649953 Y7.72423273194509 F300
G1 X20.18129414950701 Y7.687159961720481 F300
G1 X20.216351482191378 Y7.65842972698967 F300
G1 X20.258383810233283 Y7.6377448500006455 F300
G1 X20.30415827853818 Y7.626200191218921 F300
G1 X20.352205358749014 Y7.623868257370213 F300
G1 X20.401477091483287 Y7.631372801389535 F300
G1 X20.447836539437155 Y7.648671540307499 F300
G1 X20.490942951124957 Y7.676453758623636 F300
G1 X20.529581726899952 Y7.71641429444509 F300
G1 X25.660099504677728 Y14.441628738889532 F300
G1 X25.681645813291517 Y14.4802720568885 F300
G1 X25.69136770265331 Y14.521206805091591 F300
G1 X25.690882632249753 Y14.563992977572664 F300
G1 X25.68116932638504 Y14.606388396258057 F300
G1 X25.66346486827524 Y14.646524007218403 F300
G1 X25.638535636364974 Y14.683284129836036 F300
G1 X25.607398114531875 Y14.71465926687753 F300
G1 X25.57227600696523 Y14.738043270900334 F300
G1 X25.53366394912217 Y14.752496516667312 F300
G1 X24.0991636713444 Y15.082237905556202 F300
G1 X23.382505052279626 Y15.251331782747464 F300
G1 X22.669955060233285 Y15.432510961111753 F300
G1 X22.498939315630945 Y15.48090878186823 F300
G1 X22.320192879163326 Y15.541255364403938 F300
G1 X22.20343950932897 Y15.58940855816288 F300
G1 X22.091553042238967 Y15.645161955647218 F300
G1 X21.986548722784725 Y15.70979952078254 F300
G1 X21.913097227947688 Y15.765307590033595 F300
G1 X21.846195408096463 Y15.826764572237217 F300
G1 X21.78642610570153 Y15.894963648225154 F300
G1 X21.73452950467773 Y15.970849850000645 F300
G1 X21.693484888413003 Y16.051048685990356 F300
G1 X21.660822339462747 Y16.139932223120795 F300
G1 X21.6383178585872 Y16.23542795699653 F300
G1 X21.629550537428056 Y16.308435967388274 F300
G1 X21.628452650754678 Y16.380326708694263 F300
G1 X21.635461859628926 Y16.450319191677732 F300
G1 X21.651200780397893 Y16.517660631893648 F300
G1 X21.676357458882023 Y16.581197756374667 F300
G1 X21.71133186321267 Y16.639295058347088 F300
G1 X21.757397750270023 Y16.691626621081344 F300
G1 X21.816515060233286 Y16.737365405556197 F300
G1 X21.858662773552393 Y16.770987334322708 F300
G1 X21.887941039748583 Y16.80788823944501 F300
G1 X21.906732102340143 Y16.84700644391439 F300
G1 X21.916416500562505 Y16.887941413786656 F300
G1 X21.917371044543547 Y16.930929584147272 F300
G1 X21.909787093192392 Y16.972491833085286 F300
G1 X21.89417976657059 Y17.012070680880303 F300
G1 X21.870471768052212 Y17.048928286214633 F300
G1 X21.840479339183688 Y17.079878240950777 F300
G1 X21.804106690259765 Y17.104785111574078 F300
G1 X21.760822214424795 Y17.122687553130113 F300
G1 X21.709693949122176 Y17.13177096111175 F300
G1 X21.05041992242975 Y17.170616629280183 F300
G1 X20.391096789518098 Y17.196952344889386 F300
G1 X19.731789891960606 Y17.21083893382607 F300
G1 X19.07256402261627 Y17.212328695970854 F300
G1 X18.413483807530792 Y17.201465471220335 F300
G1 X17.75461408801106 Y17.17828471111175 F300
G1 X17.096285571483488 Y17.14283031856028 F300
G1 X16.438815776400688 Y17.095156611062585 F300
G1 X15.7822731115101 Y17.03530336804093 F300
G1 X15.126726488510215 Y16.963302342512915 F300
G1 X14.472245688347428 Y16.87917733865039 F300
G1 X13.81890172689995 Y16.78294429444508 F300
G1 X14.07925172689995 Y16.52259429444508 F300
G1 X14.117046370891545 Y16.633261369281556 F300
G1 X14.162126040288696 Y16.739165684878273 F300
G1 X14.214141687050207 Y16.840365240553556 F300
G1 X14.272826507985592 Y16.936887183437864 F300
G1 X14.337986788628346 Y17.02871803930105 F300
G1 X14.428476812842383 Y17.136946755742752 F300
G1 X14.52758692785106 Y17.236379359729348 F300
G1 X14.634980182534722 Y17.326896698038155 F300
G1 X14.750438887393777 Y17.408249438478006 F300
G1 X14.872280589131295 Y17.479218361883063 F300
G1 X15.000370834123661 Y17.53969819738851 F300
G1 X15.13455581620513 Y17.589343618524527 F300
G1 X15.274745060233277 Y17.62763540555619 F300
G1 X15.32276591992501 Y17.64400011287997 F300
G1 X15.359281536632961 Y17.66664059739667 F300
G1 X15.386687123826679 Y17.693943377705743 F300
G1 X15.406573706066611 Y17.725235787500633 F300
G1 X15.422632216428614 Y17.77340018869417 F300
G1 X15.426149189977131 Y17.8243966977359 F300
G1 X15.417725893566612 Y17.876837627778414 F300
G1 X15.398166451241941 Y17.926323578285896 F300
G1 X15.368655264404296 Y17.96993229179746 F300
G1 X15.329235997733281 Y18.00589696805619 F300
G1 X15.295168586470018 Y18.02516289709758 F300
G1 X15.256563683517468 Y18.037571269105264 F300
G1 X15.212575170051053 Y18.04188562064742 F300
G1 X15.162138393566615 Y18.035869850000637 F300
G1 X15.021304925142573 Y17.998424813971912 F300
G1 X14.885325072797935 Y17.951284716445482 F300
G1 X14.75421556133323 Y17.894892467403142 F300
G1 X14.628024345145544 Y17.82958658672967 F300
G1 X14.50684452525386 Y17.755612730659074 F300
G1 X14.390870436672548 Y17.673168685478824 F300
G1 X14.281334346729237 Y17.583256059965848 F300
G1 X14.178354054942686 Y17.486143842819335 F300
G1 X14.082102361524743 Y17.382030969094128 F300
G1 X13.992818558175667 Y17.27105808045331 F300
G1 X13.911535670485364 Y17.15442790098218 F300
G1 X13.83845605689634 Y17.032407876903413 F300
G1 X13.773795631692437 Y16.90513944078947 F300
G1 X13.717852416386409 Y16.77271695512517 F300
G1 X13.671017282455502 Y16.63520096111175 F300
G1 X13.662382541290771 Y16.59211609986355 F300
G1 X13.662395688911568 Y16.553565317398725 F300
G1 X13.669399759450195 Y16.518850361684223 F300
G1 X13.682447282455502 Y16.487363553704345 F300
G1 X13.708950996604004 Y16.449445119287592 F300
G1 X13.743617815601201 Y16.418369641837543 F300
G1 X13.785599504677723 Y16.39427725740805 F300
G1 X13.831668779981666 Y16.378732942425774 F300
G1 X13.880565656752141 Y16.371995890365113 F300
G1 X13.931367282455502 Y16.37485096111175 F300
G1 X14.575020401775483 Y16.469446446116024 F300
G1 X15.219988754404076 Y16.551776851858612 F300
G1 X15.866172823884954 Y16.621894077703985 F300
G1 X16.513474381869738 Y16.679841704370073 F300
G1 X17.1617960553942 Y16.7256550280448 F300
G1 X17.811040893566613 Y16.75936110000064 F300
G1 X18.46080645203805 Y16.78097145436517 F300
G1 X19.110701409129575 Y16.790512213614953 F300
G1 X19.760624560977583 Y16.788019276919222 F300
G1 X20.410474982763628 Y16.77352062273996 F300
G1 X21.06015161301531 Y16.747036352430385 F300
G1 X21.709552838011057 Y16.70857873888953 F300
G1 X21.602731726899943 Y17.102984294445083 F300
G1 X21.519883328313842 Y17.043403371970623 F300
G1 X21.44833918197842 Y16.97761556319101 F300
G1 X21.38705452586727 Y16.906210917261845 F300
G1 X21.335237323607764 Y16.829537092798997 F300
G1 X21.292031163686616 Y16.74705206177135 F300
G1 X21.258023790989487 Y16.660608918465538 F300
G1 X21.232871437498446 Y16.570495309593653 F300
G1 X21.21641131537731 Y16.476942236831917 F300
G1 X21.208733275714753 Y16.382430457808265 F300
G1 X21.209447675851184 Y16.286505990219947 F300
G1 X21.218473532019026 Y16.189539814396884 F300
G1 X21.235842838011056 Y16.09192318333397 F300
G1 X21.26575616608714 Y15.983591558589744 F300
G1 X21.305370032785653 Y15.882452314914438 F300
G1 X21.353858220354695 Y15.787801865043743 F300
G1 X21.410611562290896 Y15.699038491975951 F300
G1 X21.475446968837794 Y15.615377933281472 F300
G1 X21.547206468938004 Y15.537443154543034 F300
G1 X21.625381111079573 Y15.464951244052605 F300
G1 X21.709526706323814 Y15.397687874691998 F300
G1 X21.828474780272824 Y15.317029087777286 F300
G1 X21.954195931569096 Y15.245998717572483 F300
G1 X22.085331726899945 Y15.184296516667306 F300
G1 X22.25126661777081 Y15.118483678080601 F300
G1 X22.420831255196187 Y15.060463683493229 F300
G1 X22.593488517023406 Y15.008900631893649 F300
G1 X22.855546686137494 Y14.941131501402365 F300
G1 X23.1199897515913 Y14.880667216255786 F300
G1 X23.645738393566614 Y14.764067627778417 F300
G1 X25.4210572824555 Y14.344403183333975 F300
G1 X25.294621726899948 Y14.655270961111754 F300
G1 X20.16410394912217 Y7.930056516667306 F300
G1 X20.551030615788832 Y7.76693207222286 F300
G1 X20.677806570764417 Y8.235052058502784 F300
G1 X20.79283748267075 Y8.705756575407163 F300
G1 X20.89614626830389 Y9.178926333180343 F300
G1 X20.987742192577954 Y9.654445590959533 F300
G1 X21.067620754677723 Y10.132201238889529 F300
G1 X21.135724746943353 Y10.611781891179877 F300
G1 X21.192011621768412 Y11.092764592177053 F300
G1 X21.236480117635068 Y11.575033992525253 F300
G1 X21.269115283145542 Y12.058476373709787 F300
G1 X21.28988839356661 Y12.542978738889527 F300
G1 X21.286149782679967 Y12.591541847990916 F300
G1 X21.273515187022323 Y12.63201900322422 F300
G1 X21.253894609731194 Y12.665831395372441 F300
G1 X21.228212385336164 Y12.693962401440972 F300
G1 X21.185269548475528 Y12.723046648983777 F300
G1 X21.136128430590162 Y12.740901249098846 F300
G1 X21.082183290685954 Y12.747359891152904 F300
G1 X21.04156297662366 Y12.744246759348556 F300
G1 X21.001999898563252 Y12.734361063091445 F300
G1 X20.964064780666195 Y12.717414821235083 F300
G1 X20.928502838011056 Y12.692697627778417 F300
G1 X20.336369286679982 Y12.196115699389733 F300
G1 X19.737219177139327 Y11.708379529300876 F300
G1 X19.13110648877378 Y11.229526944484522 F300
G1 X18.518082242533946 Y10.759599339937191 F300
G1 X17.898194643566608 Y10.298641794445084 F300
G1 X17.271629675573223 Y9.846802914285911 F300
G1 X16.638579210267395 Y9.404228754677238 F300
G1 X15.999091820751982 Y8.97096302572738 F300
G1 X15.35321339516983 Y8.547053266942115 F300
G1 X14.700987282455499 Y8.13255096111175 F300
G1 X14.07524279569356 Y7.7474815044641 F300
G1 X13.444223438182277 Y7.371144250568296 F300
G1 X12.80812283801105 Y7.003379850000638 F300
G1 X13.06466283801105 Y6.6709220722228615 F300
G1 X13.74310927111493 Y7.3714030894724525 F300
G1 X14.412712590150377 Y8.079996587505326 F300
G1 X15.07344631739672 Y8.796661611873104 F300
G1 X15.72528149097332 Y9.521359661842963 F300
G1 X16.368186591929344 Y10.254054610072542 F300
G1 X17.002127472056944 Y10.994712621606132 F300
G1 X17.627067282455492 Y11.74330207222286 F300
G1 X17.65810677236129 Y11.791370375376731 F300
G1 X17.67516739830605 Y11.839804108709224 F300
G1 X17.68068509495549 Y11.888057818750637 F300
G1 X17.675598255773583 Y11.936729280920522 F300
G1 X17.660917898203977 Y11.98170170653832 F300
G1 X17.637544782455493 Y12.022296377778416 F300
G1 X17.606271787886502 Y12.05688822840371 F300
G1 X17.568758682293456 Y12.083185562831924 F300
G1 X17.52503071995549 Y12.10015222847286 F300
G1 X17.490866701280112 Y12.10534509027335 F300
G1 X17.454037370096355 Y12.103978194063586 F300
G1 X17.41406342414035 Y12.09477987100859 F300
G1 X17.370527282455495 Y12.075759850000638 F300
G1 X15.49189361265776 Y11.047772961668977 F300
G1 X13.617097158998705 Y10.011549932305167 F300
G1 X12.371858786738729 Y9.312434073386262 F300
G1 X11.132072169630229 Y8.604075406084633 F300
G1 X9.899132961467837 Y7.884184952881298 F300
G1 X8.979777377064863 Y7.33533091370813 F300
G1 X8.065678813888818 Y6.777754271571691 F300
G1 X7.157395544300822 Y6.210468669911438 F300
G1 X6.255487282455489 Y5.632485405556197 F300
G1 X5.504879116255671 Y5.1389459461726315 F300
G1 X4.760090263941766 Y4.636929494177042 F300
G1 X4.021425340257235 Y4.126032161285099 F300
G1 X3.289190615788823 Y3.605847627778416 F300
G1 X3.502832838011045 Y3.2403698500006417 F300
G1 X4.661954738176952 Y4.125275438330258 F300
G1 X5.826154947497782 Y5.003419624980699 F300
G1 X6.995445594184959 Y5.874749462956958 F300
G1 X8.169839143155858 Y6.7392115611578145 F300
G1 X9.3493483935666 Y7.596752072222866 F300
G1 X10.539451941514693 Y8.451252392221583 F300
G1 X11.734584595905384 Y9.298659436027709 F300
G1 X12.934712084361557 Y10.138960781283128 F300
G1 X14.13980047610419 Y10.972143528296304 F300
G1 X15.349816171344377 Y11.798194294445087 F300
G1 X16.48922237606192 Y12.566465465899029 F300
G1 X17.63288058055633 Y13.328393797473646 F300
G1 X18.78065061578882 Y14.08405318333398 F300
G1 X18.815898674406455 Y14.114063925737723 F300
G1 X18.842738455794432 Y14.150827392930953 F300
G1 X18.861809348427705 Y14.193244520139539 F300
G1 X18.87274949152017 Y14.238892316020463 F300
G1 X18.87559327188966 Y14.285268252942505 F300
G1 X18.87048547689993 Y14.33105054444509 F300
G1 X18.857140640085905 Y14.37476230186406 F300
G1 X18.83621730763184 Y14.41268711055465 F300
G1 X18.807538897038818 Y14.443959277083977 F300
G1 X18.78185727538684 Y14.46141401431181 F300
G1 X18.751749081140538 Y14.473712279817603 F300
G1 X18.716182067613214 Y14.479961001793873 F300
G1 X18.67382950467771 Y14.478458738889532 F300
G1 X11.352138393566594 Y13.499712072222863 F300
G1 X11.501857282455484 Y13.138326516667309 F300
G1 X16.128326171344373 Y17.06319096111175 F300
G1 X16.16337810528938 Y17.100017672233086 F300
G1 X16.184888098899336 Y17.136689345437187 F300
G1 X16.195938744894022 Y17.172969492199112 F300
G1 X16.198361379677706 Y17.209095440278418 F300
G1 X16.189180612505286 Y17.257928121325566 F300
G1 X16.16741572827089 Y17.303463851131312 F300
G1 X16.134147004677704 Y17.34481346111175 F300
G1 X16.092632744035576 Y17.37817302276163 F300
G1 X16.045005598023582 Y17.401951231891296 F300
G1 X15.99219804634437 Y17.414544398611753 F300
G1 X15.952319764924653 Y17.415220482631923 F300
G1 X15.911840872334293 Y17.40784775271029 F300
G1 X15.870682259817215 Y17.391034841866087 F300
G1 X15.829029504677704 Y17.362487627778417 F300
G1 X15.829029504677704 Y17.362487627778417 F300
G1 X15.828888393566633 Y17.362628738889516 F300;svg#Layer_2 > g#Layer_1-2 > path
G0 X33.388049504677745 Y13.408413183333957
G1 X29.70152172689997 Y10.83172429444507 F300
G1 X29.268381171344412 Y10.535144016667292 F300
G1 X29.053678016912254 Y10.383428628498852 F300
G1 X28.845400615788854 Y10.224805405556179 F300
G1 X28.74792709394434 Y10.138473618915762 F300
G1 X28.663006874764065 Y10.046319883108772 F300
G1 X28.589657137647112 Y9.94820766763362 F300
G1 X28.527106755398698 Y9.843854623869502 F300
G1 X28.474793464137942 Y9.732845465038157 F300
G1 X28.432357404065 Y9.614647625659165 F300
G1 X28.399630615788855 Y9.488628738889515 F300
G1 X28.355152812829694 Y9.249475196628582 F300
G1 X28.31893269912219 Y9.008215961111734 F300
G1 X28.283910554061272 Y8.766679683797863 F300
G1 X28.242997282455523 Y8.52653318333396 F300
G1 X28.173165028041222 Y8.192613633725996 F300
G1 X28.093594708195177 Y7.8608857587225724 F300
G1 X28.004378393566633 Y7.531558738889518 F300
G1 X27.90857968332868 Y7.214832732844478 F300
G1 X27.803824288739143 Y6.901645429660605 F300
G1 X27.69020364635256 Y6.591979729231612 F300
G1 X27.567794635568823 Y6.285823059686909 F300
G1 X27.436660074505795 Y5.983168034384956 F300
G1 X27.296849237534104 Y5.684013101344271 F300
G1 X27.14839839356663 Y5.388363183333965 F300
G1 X27.131830526091594 Y5.343849152841145 F300
G1 X27.126230322051754 Y5.298247021952496 F300
G1 X27.13032073731663 Y5.2521159958339645 F300
G1 X27.143259284265795 Y5.207208011324423 F300
G1 X27.16374593813397 Y5.165871157708086 F300
G1 X27.190996310233302 Y5.129071516667297 F300
G1 X27.224417565648693 Y5.098246273280562 F300
G1 X27.261760128301617 Y5.076030937625123 F300
G1 X27.302762924816633 Y5.063282870833963 F300
G1 X27.334165799938322 Y5.060908916824687 F300
G1 X27.366917095841035 Y5.065088107331215 F300
G1 X27.40142358933477 Y5.077050158766367 F300
G1 X27.437958393566632 Y5.0988031833339615 F300
G1 X31.54753728245552 Y8.10729207222285 F300
G1 X32.56602436578885 Y8.847931377778401 F300
G1 X33.07428689764788 Y9.219775402959918 F300
G1 X33.57911394912218 Y9.595873183333957 F300
G1 X33.71782667026985 Y9.70277424678299 F300
G1 X33.85284164556487 Y9.812912530090847 F300
G1 X33.982921032455515 Y9.927731238889516 F300
G1 X34.10687089575955 Y10.048718833387682 F300
G1 X34.22354153181652 Y10.177457861854554 F300
G1 X34.33180061578885 Y10.315680961111735 F300
G1 X34.40342615020813 Y10.422760046178597 F300
G1 X34.467379386305936 Y10.53423634143625 F300
G1 X34.524089879273454 Y10.649699899220298 F300
G1 X34.57392964356663 Y10.768771100000626 F300
G1 X34.62997452309429 Y10.93164599415195 F300
G1 X34.67468116089198 Y11.097557145018207 F300
G1 X34.708849504677744 Y11.265358738889512 F300
G1 X34.737473811448524 Y11.459853648021557 F300
G1 X34.75725092554868 Y11.654898510900443 F300
G1 X34.76989769912219 Y11.850475961111732 F300
G1 X34.7791950577009 Y12.144564244022348 F300
G1 X34.7819450602333 Y12.438979850000623 F300
G1 X34.78857728245552 Y13.912603183333959 F300
G1 X34.783537732211066 Y13.95652547595552 F300
G1 X34.76874678083295 Y13.999753823495551 F300
G1 X34.74476228245552 Y14.040608600000626 F300
G1 X34.713163478516705 Y14.075400645281105 F300
G1 X34.67590695797822 Y14.101280419346482 F300
G1 X34.63321394912218 Y14.116649850000625 F300
G1 X34.38852728245551 Y14.166744294445067 F300
G1 X34.33818446305097 Y14.171697887628115 F300
G1 X34.29414193534779 Y14.16654764672778 F300
G1 X34.25539408033846 Y14.153435817227342 F300
G1 X34.221151865788855 Y14.133556725000624 F300
G1 X34.18155139671849 Y14.096950672772591 F300
G1 X34.15192507411784 Y14.05298426919922 F300
G1 X34.13230478245551 Y14.00347873888951 F300
G1 X34.12380743816441 Y13.951063092048418 F300
G1 X34.127330901999606 Y13.900448651656387 F300
G1 X34.143417282455516 Y13.852974919445067 F300
G1 X34.1633324411443 Y13.822318611129496 F300
G1 X34.19080669374688 Y13.79573245326026 F300
G1 X34.227503311195896 Y13.773902778196497 F300
G1 X34.27592061578885 Y13.758509850000623 F300
G1 X34.52060728245552 Y13.70841540555618 F300
G1 X34.36524394912219 Y13.912462072222846 F300
G1 X34.37071069809338 Y13.145125981687869 F300
G1 X34.373587249572545 Y12.759865561521906 F300
G1 X34.37078386681766 Y12.374936310905975 F300
G1 X34.36360912289142 Y12.118566472651832 F300
G1 X34.350707364475355 Y11.86331796116023 F300
G1 X34.33081283801107 Y11.609387627778403 F300
G1 X34.311874652647894 Y11.447889560736671 F300
G1 X34.28442831813343 Y11.286677834412204 F300
G1 X34.247010476899966 Y11.127016933333955 F300
G1 X34.21159753128191 Y11.009421844611008 F300
G1 X34.16934926762523 Y10.894669111759615 F300
G1 X34.11962321527479 Y10.783137734542402 F300
G1 X34.061713949122186 Y10.675232072222846 F300
G1 X33.99165553613891 Y10.566445667968457 F300
G1 X33.91385284590317 Y10.463886977197387 F300
G1 X33.82924911000187 Y10.366769121644195 F300
G1 X33.73872825467774 Y10.27435304444507 F300
G1 X33.61100417538839 Y10.157846794157244 F300
G1 X33.47785235287331 Y10.048006902743793 F300
G1 X33.34176506023329 Y9.943429850000628 F300
G1 X32.369655294185684 Y9.22220286970713 F300
G1 X31.39238561578885 Y8.507465544445072 F300
G1 X29.43496283801107 Y7.082402072222853 F300
G1 X27.224316171344405 Y5.46399873888952 F300
G1 X27.5138761713444 Y5.174438738889517 F300
G1 X27.6634205386815 Y5.471813163716971 F300
G1 X27.80473985571503 Y5.772782578949759 F300
G1 X27.937762397714955 Y6.077249918895391 F300
G1 X28.062405169188498 Y6.385124068966645 F300
G1 X28.17857333092785 Y6.696319001696262 F300
G1 X28.286159643566624 Y7.010752905556184 F300
G1 X28.384950998988714 Y7.328033445535629 F300
G1 X28.474757002624198 Y7.64776324704486 F300
G1 X28.555487256245133 Y7.969866913564964 F300
G1 X28.627037447095482 Y8.29427332497571 F300
G1 X28.689288755147793 Y8.620914658623299 F300
G1 X28.742107282455517 Y8.949725405556187 F300
G1 X28.78000868163248 Y9.237430055761951 F300
G1 X28.796269235937483 Y9.33509450469543 F300
G1 X28.81715153329613 Y9.430959809254778 F300
G1 X28.84437625364893 Y9.52397445905413 F300
G1 X28.879865142854324 Y9.613489372765722 F300
G1 X28.925124807967475 Y9.697675624360668 F300
G1 X28.982278393566627 Y9.775930961111744 F300
G1 X29.054571973388622 Y9.853385990015077 F300
G1 X29.13458081278822 Y9.926550528153937 F300
G1 X29.221127241303257 Y9.996226310905982 F300
G1 X29.357204287683995 Y10.093677934886795 F300
G1 X29.49785658286704 Y10.186167092798986 F300
G1 X29.771230615788852 Y10.365352072222858 F300
G1 X31.556850615788846 Y11.613479850000635 F300
G1 X33.60169172689996 Y13.042794294445079 F300
G1 X33.63979694313629 Y13.075764497973848 F300
G1 X33.66646636068023 Y13.111266029980618 F300
G1 X33.68385773187238 Y13.148535095079216 F300
G1 X33.69332575467773 Y13.187292072222858 F300
G1 X33.69456062497559 Y13.241578928111 F300
G1 X33.6836767601891 Y13.293712264199371 F300
G1 X33.66198144912218 Y13.342373183333969 F300
G1 X33.63046335344157 Y13.385091279773285 F300
G1 X33.59197057557246 Y13.417735766245158 F300
G1 X33.547081726899954 Y13.43903429444508 F300
G1 X33.51153167863223 Y13.445867373042015 F300
G1 X33.473621238360515 Y13.444387477117312 F300
G1 X33.43264802162048 Y13.432874371111025 F300
G1 X33.38804950467773 Y13.408272072222857 F300
G1 X33.38804950467773 Y13.408272072222857 F300
G1 X33.388049504677745 Y13.408413183333957 F300;svg#Layer_2 > g#Layer_1-2 > path
G0 X19.250268393566635 Y18.55487651666729
G1 X19.483298888385047 Y18.590475688229077 F300
G1 X19.71337377637491 Y18.635176684102518 F300
G1 X19.941007282455526 Y18.6878293150212 F300
G1 X20.279471610967082 Y18.77941425414525 F300
G1 X20.615095060233298 Y18.882651496091164 F300
G1 X20.948665439658775 Y18.993563584608395 F300
G1 X21.281845060233298 Y19.108455405556178 F300
G1 X21.60370043914467 Y19.219520889490603 F300
G1 X21.930250615788857 Y19.32687450020639 F300
G1 X22.14983321351219 Y19.392946123642083 F300
G1 X22.37082141022615 Y19.452375605855533 F300
G1 X22.59333172689997 Y19.503305199794866 F300
G1 X22.761469556585087 Y19.534830738065395 F300
G1 X22.930370688605997 Y19.559683696370286 F300
G1 X23.100190658156265 Y19.57709244245798 F300
G1 X23.271088393566632 Y19.5862576277784 F300
G1 X23.45214124244313 Y19.584854196560453 F300
G1 X23.6265709150791 Y19.570997571551693 F300
G1 X23.7951544021156 Y19.54554203050145 F300
G1 X23.958628763937007 Y19.50919528209939 F300
G1 X24.119998248376834 Y19.46177033867901 F300
G1 X24.27752322491394 Y19.40418786869643 F300
G1 X24.431711384386034 Y19.336868199784618 F300
G1 X24.583045430603676 Y19.26016552901297 F300
G1 X24.729767296882223 Y19.175730866479576 F300
G1 X24.874407321786954 Y19.082846736670398 F300
G1 X25.01728951844047 Y18.981818299600338 F300
G1 X25.15873172689997 Y18.872940961111734 F300
G1 X25.436820022849584 Y18.648349224196473 F300
G1 X25.714725183690096 Y18.416838491975938 F300
G1 X25.987196006124964 Y18.17820228471894 F300
G1 X26.25096308492466 Y17.93063231913643 F300
G1 X26.420567088678858 Y17.75947463461847 F300
G1 X26.583289026842532 Y17.583535345356147 F300
G1 X26.738188393566634 Y17.402280961111735 F300
G1 X26.849512691894844 Y17.258630184749105 F300
G1 X26.952224813919386 Y17.110919294307642 F300
G1 X27.046962792720972 Y16.959355688754915 F300
G1 X27.134323866817667 Y16.804121413786635 F300
G1 X27.240475925175655 Y16.59132085144037 F300
G1 X27.33551771538368 Y16.37308489016041 F300
G1 X27.420612179574867 Y16.149956434362764 F300
G1 X27.496596664972618 Y15.923374708231794 F300
G1 X27.564714928139644 Y15.693687831938897 F300
G1 X27.626059504677748 Y15.46157985000062 F300
G1 X27.718547560278537 Y15.078804279187809 F300
G1 X27.804938356880985 Y14.69267570459446 F300
G1 X27.88448686578886 Y14.3038513777784 F300
G1 X27.956338107630412 Y13.913568677568039 F300
G1 X28.019672330182495 Y13.523108481471343 F300
G1 X28.073805060233305 Y13.133105405556174 F300
G1 X28.102490498895044 Y12.87844894448252 F300
G1 X28.123958619090896 Y12.619642351518335 F300
G1 X28.13722568142808 Y12.35754787487673 F300
G1 X28.1412716053722 Y12.093045961111729 F300
G1 X28.13512287719673 Y11.829036334153214 F300
G1 X28.117925776355037 Y11.56630336155541 F300
G1 X28.08879426101292 Y11.305604293348537 F300
G1 X28.04679992134442 Y11.047694850000621 F300
G1 X28.003088894365366 Y10.843058343453535 F300
G1 X27.950165841554686 Y10.642003546283492 F300
G1 X27.887557986053384 Y10.444779649233066 F300
G1 X27.814746964193276 Y10.25164602413729 F300
G1 X27.73116302898331 Y10.062880405556177 F300
G1 X27.653412872912916 Y9.910206432029014 F300
G1 X27.56765279660133 Y9.76121617489677 F300
G1 X27.47345314732288 Y9.61600248609032 F300
G1 X27.37033295412169 Y9.47468809650308 F300
G1 X27.25775713777328 Y9.33743122580107 F300
G1 X27.135133949122196 Y9.204430961111735 F300
G1 X27.019312985031473 Y9.093350272060789 F300
G1 X26.897688385724237 Y8.990553781744989 F300
G1 X26.770589683860436 Y8.895615475740662 F300
G1 X26.63830286910342 Y8.808161364023595 F300
G1 X26.50107991620039 Y8.727867380864822 F300
G1 X26.32388715256193 Y8.637590579826327 F300
G1 X26.141154775383704 Y8.558060857412087 F300
G1 X25.953543883321693 Y8.488775009793276 F300
G1 X25.7616942783403 Y8.429291948766057 F300
G1 X25.566915345748356 Y8.379382606741757 F300
G1 X25.37084941144645 Y8.338798935394223 F300
G1 X25.17427819499563 Y8.307049794521268 F300
G1 X24.977968393566638 Y8.283680961111738 F300
G1 X24.84177841053767 Y8.272936858324877 F300
G1 X24.704316473194577 Y8.268153892360381 F300
G1 X24.56634728245553 Y8.270521043416267 F300
G1 X24.42900850428073 Y8.281233601194263 F300
G1 X24.293753011981607 Y8.301379958914616 F300
G1 X24.161123208381454 Y8.332118656584987 F300
G1 X24.064004838338633 Y8.362778657036998 F300
G1 X23.969217479466526 Y8.400518417630513 F300
G1 X23.876874465756906 Y8.445970085727785 F300
G1 X23.787131726899972 Y8.499863183333957 F300
G1 X23.69521011424189 Y8.567425610728277 F300
G1 X23.61184389987575 Y8.64271339606788 F300
G1 X23.537511397681868 Y8.725343059877167 F300
G1 X23.48784186653428 Y8.792331705325207 F300
G1 X23.444447964857357 Y8.862554724490124 F300
G1 X23.407532074566138 Y8.935956837547995 F300
G1 X23.377386870932895 Y9.012535529012968 F300
G1 X23.354651434765113 Y9.09131929520864 F300
G1 X23.33950228566877 Y9.17265046709042 F300
G1 X23.332375947422392 Y9.256676687308772 F300
G1 X23.333882838011085 Y9.343566516667288 F300
G1 X23.331989278459382 Y9.394321041178202 F300
G1 X23.320761058393945 Y9.435485740708966 F300
G1 X23.30248743861492 Y9.46902535786745 F300
G1 X23.27827403592775 Y9.49636339166729 F300
G1 X23.236837539309935 Y9.524483444811386 F300
G1 X23.18901511181178 Y9.541336082093101 F300
G1 X23.136239088011088 Y9.547084016667291 F300
G1 X23.08330774848428 Y9.541338938647334 F300
G1 X23.033036760442137 Y9.524478190352022 F300
G1 X22.987192681761083 Y9.496045891667288 F300
G1 X22.958897621886727 Y9.468329200041833 F300
G1 X22.93592265634418 Y9.434471115144714 F300
G1 X22.91920837675421 Y9.393395659275606 F300
G1 X22.91054950467775 Y9.343566516667288 F300
G1 X22.90805249041552 Y9.232776264254362 F300
G1 X22.915528516520475 Y9.125957293871794 F300
G1 X22.932211581858976 Y9.022840192123702 F300
G1 X22.957506549015754 Y8.923173327337576 F300
G1 X22.99097181370553 Y8.8267382527784 F300
G1 X23.04413538113112 Y8.709905503301943 F300
G1 X23.10845025837043 Y8.599114133584745 F300
G1 X23.18323331211745 Y8.494291497636294 F300
G1 X23.2679663102333 Y8.395476238889511 F300
G1 X23.360748769953474 Y8.304200020208347 F300
G1 X23.46095440319321 Y8.220405771137116 F300
G1 X23.5679433939891 Y8.144260133157509 F300
G1 X23.68114184842775 Y8.076027141667288 F300
G1 X23.79920225797511 Y8.016452092687626 F300
G1 X23.92047693307361 Y7.966229799951465 F300
G1 X24.04431367098617 Y7.925534668077997 F300
G1 X24.17010728245553 Y7.894637627778395 F300
G1 X24.324376646635756 Y7.868102996877526 F300
G1 X24.481648589245086 Y7.850686005812683 F300
G1 X24.64162550224836 Y7.842001331752628 F300
G1 X24.804007439887343 Y7.84170601099569 F300
G1 X24.968482591097505 Y7.849492524897739 F300
G1 X25.172582759140212 Y7.869670044779564 F300
G1 X25.376314385044246 Y7.900696760708082 F300
G1 X25.57883158640814 Y7.941759754910998 F300
G1 X25.779275677517262 Y7.992087915844241 F300
G1 X25.978098612994017 Y8.051371382385328 F300
G1 X26.17055499378082 Y8.11767225860321 F300
G1 X26.35583257454824 Y8.190006187618009 F300
G1 X26.533153949122195 Y8.267453183333952 F300
G1 X26.70311749754324 Y8.352372255654563 F300
G1 X26.863827751625546 Y8.445783423247162 F300
G1 X27.01580700338252 Y8.547218102445484 F300
G1 X27.15952623990477 Y8.656288640693937 F300
G1 X27.29540398949843 Y8.772679955879322 F300
G1 X27.42380539009442 Y8.89614066597284 F300
G1 X27.545772647103945 Y9.027304296664461 F300
G1 X27.6602182734226 Y9.164601413667405 F300
G1 X27.767388769083016 Y9.307741977877066 F300
G1 X27.867495375726207 Y9.456466180308224 F300
G1 X27.96071444431455 Y9.610538176760043 F300
G1 X28.04718797689997 Y9.769739711111729 F300
G1 X28.14128697285267 Y9.965225221406053 F300
G1 X28.225565496918886 Y10.16584419874103 F300
G1 X28.3002590180743 Y10.371061917676267 F300
G1 X28.36556096713761 Y10.580359646570294 F300
G1 X28.421624105372192 Y10.79322521458395 F300
G1 X28.468446261648488 Y11.008550305530875 F300
G1 X28.506002902131918 Y11.224644888663148 F300
G1 X28.53454462271108 Y11.440905030312626 F300
G1 X28.554291928581065 Y11.656741282782876 F300
G1 X28.565436171344412 Y11.87157207222284 F300
G1 X28.568343434239747 Y12.167537557212569 F300
G1 X28.5589015040732 Y12.462915071796804 F300
G1 X28.53850485447199 Y12.757828245062347 F300
G1 X28.508555517378237 Y13.052066459446356 F300
G1 X28.4704375820483 Y13.345637573256493 F300
G1 X28.425527117846475 Y13.638534047531483 F300
G1 X28.348495965305204 Y14.076217714613453 F300
G1 X28.264163949122192 Y14.51105540555617 F300
G1 X28.184665201545812 Y14.904954792644453 F300
G1 X28.09965975159134 Y15.298486763580863 F300
G1 X28.037375725263942 Y15.559516629699113 F300
G1 X27.968854351347083 Y15.818562073995853 F300
G1 X27.892539998504915 Y16.075099603087036 F300
G1 X27.806910282913456 Y16.32848621673063 F300
G1 X27.710361614050505 Y16.578295013175936 F300
G1 X27.601223949122193 Y16.8241487388895 F300
G1 X27.510372400684016 Y17.002451804135756 F300
G1 X27.41143109523744 Y17.173931625157845 F300
G1 X27.30497572986876 Y17.339224585153243 F300
G1 X27.19153658286705 Y17.49893684588539 F300
G1 X27.029924886566718 Y17.704616901263844 F300
G1 X26.858142950851473 Y17.90232578576508 F300
G1 X26.677458352414376 Y18.093166187449174 F300
G1 X26.489859498202215 Y18.27750976244124 F300
G1 X26.29642080379739 Y18.456678599692584 F300
G1 X26.09853172689997 Y18.631640961111724 F300
G1 X25.81081455640411 Y18.881776911463987 F300
G1 X25.515450163113968 Y19.13064643436276 F300
G1 X25.31313646236707 Y19.290066987268958 F300
G1 X25.105529679085883 Y19.440460025416655 F300
G1 X24.891289586982275 Y19.578977339712548 F300
G1 X24.72533787850395 Y19.673396209289166 F300
G1 X24.55451916299245 Y19.758167779934936 F300
G1 X24.378010114153483 Y19.832164172032897 F300
G1 X24.19494283801108 Y19.894162072222834 F300
G1 X24.023243027660584 Y19.93961380935109 F300
G1 X23.853487359033593 Y19.973752750437473 F300
G1 X23.68537272150288 Y19.997468934079663 F300
G1 X23.51859347073245 Y20.0115651300135 F300
G1 X23.352842683690096 Y20.016765415844237 F300
G1 X23.14455267253833 Y20.011634397778618 F300
G1 X22.936982054698408 Y19.994561871106935 F300
G1 X22.72980839455667 Y19.96668008603629 F300
G1 X22.522713455295037 Y19.929074006379217 F300
G1 X22.24900994940998 Y19.866344560645484 F300
G1 X21.97520319000514 Y19.79119445447393 F300
G1 X21.700980338011078 Y19.706237350000613 F300
G1 X21.29240095390785 Y19.56771332087794 F300
G1 X20.884068517023426 Y19.423404952881274 F300
G1 X20.47537730106663 Y19.282667054249103 F300
G1 X20.06840317751725 Y19.155726321194027 F300
G1 X19.863173324438158 Y19.099700918366626 F300
G1 X19.65856006265407 Y19.050753735990522 F300
G1 X19.454370343037464 Y19.00994941309797 F300
G1 X19.250409504677748 Y18.978350961111722 F300
G1 X19.19405023004931 Y18.965814173505446 F300
G1 X19.144370892536134 Y18.944247967650412 F300
G1 X19.102189921344415 Y18.913792627778392 F300
G1 X19.07660594733909 Y18.88529754354591 F300
G1 X19.056966248710612 Y18.851919130628 F300
G1 X19.043890404875047 Y18.812790181030152 F300
G1 X19.038742838011082 Y18.766684294445056 F300
G1 X19.041877165891385 Y18.732317510161483 F300
G1 X19.051691097480266 Y18.697393606765257 F300
G1 X19.067937158998742 Y18.66273244259321 F300
G1 X19.089376148196784 Y18.630977313408124 F300
G1 X19.115184314424866 Y18.603233859873306 F300
G1 X19.14492110961602 Y18.580417627778395 F300
G1 X19.17797468817306 Y18.56384519484912 F300
G1 X19.213068228113958 Y18.55500871636609 F300
G1 X19.250409504677748 Y18.55501762777839 F300
G1 X19.250409504677748 Y18.55501762777839 F300
G1 X19.250268393566635 Y18.55487651666729 F300;svg#Layer_2 > g#Layer_1-2 > path
G0 X59.9012750602333 Y40.84055429444507
G1 X58.71575521537537 Y40.730355050957094 F300
G1 X57.53000736476006 Y40.61189680473314 F300
G1 X56.74038664339185 Y40.52446453783112 F300
G1 X55.95213641383849 Y40.42755508057125 F300
G1 X55.165669792743586 Y40.31882993230515 F300
G1 X54.57724423483037 Y40.22812428480105 F300
G1 X53.990292953748835 Y40.12847679632206 F300
G1 X53.40493919806163 Y40.01888875418553 F300
G1 X52.82130728245552 Y39.898355405556174 F300
G1 X52.33073461886499 Y39.78640657014175 F300
G1 X51.844443758836306 Y39.66432142598762 F300
G1 X51.362284250395305 Y39.53225279138107 F300
G1 X50.88410854334045 Y39.390343972716714 F300
G1 X50.40977201084848 Y39.238729079333616 F300
G1 X49.939132969748556 Y39.07753334574478 F300
G1 X49.47205269912219 Y38.90687346111173 F300
G1 X49.0084392711359 Y38.72687541844742 F300
G1 X48.54818888606584 Y38.537655072955474 F300
G1 X48.0911884254313 Y38.33931792377923 F300
G1 X47.637327170413585 Y38.131963543802854 F300
G1 X47.18649679477796 Y37.9156858639014 F300
G1 X46.73859135571345 Y37.69057346103852 F300
G1 X46.29350728245552 Y37.456709850000614 F300
G1 X45.77848649012043 Y37.17472095990919 F300
G1 X45.268108960317825 Y36.88495804980825 F300
G1 X44.76188271635189 Y36.58819434118947 F300
G1 X44.25931744706458 Y36.28520017921873 F300
G1 X43.5942042031642 Y35.87292168625816 F300
G1 X42.93375935149774 Y35.452873159538626 F300
G1 X42.27689971043907 Y35.02692285411584 F300
G1 X41.29613308694688 Y34.38113096538896 F300
G1 X40.317875060233305 Y33.7329287388895 F300
G1 X33.979446171344414 Y29.538965405556173 F300
G1 X27.641017282455522 Y25.345002072222837 F300
G1 X26.848678393566637 Y24.82077429444506 F300
G1 X26.808540708199946 Y24.788380100885362 F300
G1 X26.780302119025027 Y24.754283815159628 F300
G1 X26.76159730695668 Y24.719188304410356 F300
G1 X26.750853115788857 Y24.68330120416728 F300
G1 X26.74770474554989 Y24.632428859860514 F300
G1 X26.756988965779367 Y24.583559379761738 F300
G1 X26.777593671344412 Y24.537493738889506 F300
G1 X26.808037232112255 Y24.497164180401995 F300
G1 X26.84667064981928 Y24.464839273909533 F300
G1 X26.89328714356664 Y24.44195710694506 F300
G1 X26.930459465313817 Y24.433001724653735 F300
G1 X26.9707103913499 Y24.431201458442477 F300
G1 X27.0145170920062 Y24.437903010784893 F300
G1 X27.06232061578886 Y24.45529651666728 F300
G1 X27.770557282455524 Y24.791423183333947 F300
G1 X27.81381339418561 Y24.817920243208256 F300
G1 X27.843940200792538 Y24.847753641238576 F300
G1 X27.86386140438199 Y24.879903430388083 F300
G1 X27.8754072477333 Y24.914132523611727 F300
G1 X27.87897280117359 Y24.963585745543963 F300
G1 X27.86953290994386 Y25.013114221459734 F300
G1 X27.847886171344417 Y25.06158040555617 F300
G1 X27.816235211589174 Y25.10442529773958 F300
G1 X27.77620832018434 Y25.139604680687363 F300
G1 X27.728290094955526 Y25.16531912083395 F300
G1 X27.689845897423037 Y25.176202518925727 F300
G1 X27.648751890985523 Y25.179466545824578 F300
G1 X27.604577182696655 Y25.17378634044593 F300
G1 X27.5569150602333 Y25.156900961111727 F300
G1 X26.848678393566637 Y24.82077429444506 F300
G1 X27.06232061578886 Y24.45529651666728 F300
G1 X33.37153950467775 Y28.629786516667284 F300
G1 X36.51512464356664 Y30.709746655556167 F300
G1 X39.65140728245552 Y32.784944294445054 F300
G1 X41.61501543060368 Y34.08952174300473 F300
G1 X42.60064604079662 Y34.73692124745907 F300
G1 X43.59292283801108 Y35.373622401440954 F300
G1 X44.25977649695615 Y35.78947247532671 F300
G1 X44.931885984454844 Y36.19645421950365 F300
G1 X45.610247282455525 Y36.5929687388895 F300
G1 X46.11737585501809 Y36.87796440569103 F300
G1 X46.62828034613571 Y37.15342356585238 F300
G1 X47.143205876308414 Y37.41884627565289 F300
G1 X47.66240003965718 Y37.67372828621461 F300
G1 X48.08161104638994 Y37.869983590112 F300
G1 X48.503770773648995 Y38.058845528550684 F300
G1 X48.92903070921572 Y38.240059959239446 F300
G1 X49.3575443146706 Y38.41336821005031 F300
G1 X49.78946711784647 Y38.578506598971806 F300
G1 X50.224259356793 Y38.73496291525909 F300
G1 X50.662748458772896 Y38.882727489310646 F300
G1 X51.10512294549392 Y39.02152953852938 F300
G1 X51.551574566536644 Y39.15108912636449 F300
G1 X52.00229839356664 Y39.27111651666727 F300
G1 X52.57763944876914 Y39.41045059206104 F300
G1 X53.15521521363292 Y39.53721843955274 F300
G1 X53.73488500879475 Y39.65244618959997 F300
G1 X54.31651016311397 Y39.75715022037098 F300
G1 X54.89986781168474 Y39.85232571051842 F300
G1 X55.48469246922957 Y39.938960490837985 F300
G1 X56.07078355462742 Y40.018051977452444 F300
G1 X56.657940698093384 Y40.09059577592654 F300
G1 X57.4418619151637 Y40.178825940623476 F300
G1 X58.22631035780074 Y40.25949252156411 F300
G1 X59.01072283801108 Y40.33495318333394 F300
G1 X59.901416171344415 Y40.41736207222283 F300
G1 X59.950812209836286 Y40.42709546578126 F300
G1 X59.991672267412575 Y40.44469765783647 F300
G1 X60.02544656101624 Y40.46845040595931 F300
G1 X60.05314148384441 Y40.49743821805617 F300
G1 X60.08154648317229 Y40.54400314871826 F300
G1 X60.098402993360644 Y40.59468118318325 F300
G1 X60.10419283801107 Y40.647655405556165 F300
G1 X60.09852540348436 Y40.700431512852575 F300
G1 X60.081783102451304 Y40.74785331529266 F300
G1 X60.053855858844415 Y40.78855925972283 F300
G1 X60.02669421226 Y40.81210427071156 F300
G1 X59.99332252819154 Y40.829611938228425 F300
G1 X59.952247017322364 Y40.83993987680498 F300
G1 X59.901416171344415 Y40.84069540555617 F300
G1 X59.901416171344415 Y40.84069540555617 F300
G1 X59.9012750602333 Y40.84055429444507 F300;svg#Layer_2 > g#Layer_1-2 > path
G0 X59.74337172689997 Y40.90221985000062
G1 X59.59518597699097 Y40.557422247680215 F300
G1 X59.43897865533009 Y40.217066935081725 F300
G1 X59.27510879937334 Y39.880925035560274 F300
G1 X59.103926510706344 Y39.54877194253183 F300
G1 X58.9257739491222 Y39.22038707222284 F300
G1 X58.693816355263735 Y38.8149175044458 F300
G1 X58.45230889411868 Y38.41486132317892 F300
G1 X58.20194061604082 Y38.01986288272502 F300
G1 X57.943393671344424 Y37.62957096111174 F300
G1 X57.58762825859896 Y37.116630198546076 F300
G1 X57.220638041341964 Y36.61125986465325 F300
G1 X56.844120476899974 Y36.11273235000063 F300
G1 X56.45967102677838 Y35.6202021385765 F300
G1 X56.069658706518005 Y35.13379424369334 F300
G1 X55.675843949122196 Y34.65283207222285 F300
G1 X55.07507471899864 Y33.935412732048384 F300
G1 X54.464813024328244 Y33.226217686019446 F300
G1 X53.84538754099403 Y32.52502938952562 F300
G1 X53.2171239491222 Y31.831632905556177 F300
G1 X52.58044473943229 Y31.145921667217536 F300
G1 X51.935770108282284 Y30.46778185314833 F300
G1 X51.28343787421787 Y29.797011899367448 F300
G1 X50.62378394912219 Y29.133412072222843 F300
G1 X49.95647350335958 Y28.476154075947203 F300
G1 X49.282616200025984 Y27.825723193094387 F300
G1 X48.60250801997611 Y27.18184655794258 F300
G1 X47.916443810233304 Y26.54425248888951 F300
G1 X47.224769311830585 Y25.912717345404523 F300
G1 X46.52784450900019 Y25.287028819868787 F300
G1 X45.82597426868493 Y24.666924351854643 F300
G1 X45.119462838011074 Y24.05214207222284 F300
G1 X44.17045304710065 Y23.240020330890633 F300
G1 X43.212336165716614 Y22.434517185312753 F300
G1 X42.246193671344415 Y21.635367350000614 F300
G1 X41.27424540610569 Y20.84322422707205 F300
G1 X40.29727975956915 Y20.057547976912872 F300
G1 X39.31640950467774 Y19.278070961111734 F300
G1 X37.83767471074429 Y18.11786849979495 F300
G1 X36.34977769912218 Y16.96476596111173 F300
G1 X34.856595229180044 Y15.81782271282076 F300
G1 X33.3608150602333 Y14.675167627778398 F300
G1 X32.608410615788856 Y14.101550961111732 F300
G1 X32.57189964501512 Y14.06727206287651 F300
G1 X32.54637928786923 Y14.03057988467182 F300
G1 X32.52986794192633 Y13.99219887631897 F300
G1 X32.52112236926108 Y13.952429589583954 F300
G1 X32.520671831417225 Y13.897103686295342 F300
G1 X32.53202389906696 Y13.844398614861156 F300
G1 X32.55378297689997 Y13.795674988889509 F300
G1 X32.58525171018686 Y13.752925584690745 F300
G1 X32.623250912215774 Y13.720828675922085 F300
G1 X32.66716795953886 Y13.70048892986173 F300
G1 X32.70182338318814 Y13.694505633352824 F300
G1 X32.738710357328245 Y13.696981442318872 F300
G1 X32.77859208743841 Y13.709744343978105 F300
G1 X32.82205283801108 Y13.736073183333952 F300
G1 X34.32679980580977 Y14.883847729501277 F300
G1 X35.829448115788864 Y16.034314572222844 F300
G1 X37.328129186463656 Y17.189915455810592 F300
G1 X38.82096839356664 Y18.353087627778397 F300
G1 X39.81741142657451 Y19.13828052538754 F300
G1 X40.80971669304604 Y19.928705151447836 F300
G1 X41.79724867134442 Y20.72509485000062 F300
G1 X42.779337846200356 Y21.528155633232895 F300
G1 X43.755340060550765 Y22.338613808873014 F300
G1 X44.72463394912219 Y23.157215405556176 F300
G1 X45.44162379903045 Y23.772437453307237 F300
G1 X46.15418265708123 Y24.392810111674518 F300
G1 X46.86200312998129 Y25.018606895340824 F300
G1 X47.564777282455516 Y25.650101933333957 F300
G1 X48.26215057884792 Y26.28752765327628 F300
G1 X48.95377103862582 Y26.931117184303748 F300
G1 X49.63934070949288 Y27.581153574691676 F300
G1 X50.318560615788854 Y28.237920961111733 F300
G1 X50.991060167802715 Y28.901679166315486 F300
G1 X51.65735086477185 Y29.57354380115534 F300
G1 X52.31691819618646 Y30.25358491591199 F300
G1 X52.969244643566626 Y30.941874433333957 F300
G1 X53.6131791313245 Y31.63779662399149 F300
G1 X54.24839753733028 Y32.341598895125486 F300
G1 X54.87440554979326 Y33.05335604267653 F300
G1 X55.49070617134442 Y33.77314540555618 F300
G1 X55.892458106041275 Y34.25178789807215 F300
G1 X56.291720329904145 Y34.73498448543854 F300
G1 X56.686880806761074 Y35.22341485000062 F300
G1 X57.0756406618706 Y35.71688985745197 F300
G1 X57.45667060802566 Y36.21640757431915 F300
G1 X57.828405754677746 Y36.7226851277784 F300
G1 X58.100253006667785 Y37.107392677478316 F300
G1 X58.3651529689386 Y37.49636886754265 F300
G1 X58.622475162983676 Y37.88994910355671 F300
G1 X58.87158507759441 Y38.28847165555618 F300
G1 X59.11186346699317 Y38.692313447093255 F300
G1 X59.34255734424909 Y39.10163085444021 F300
G1 X59.563052815746246 Y39.51682141262147 F300
G1 X59.77272283801107 Y39.93828985000062 F300
G1 X59.967927807689655 Y40.361348209279484 F300
G1 X60.151606171344405 Y40.789613183333955 F300
G1 X60.165913475908646 Y40.83825872260393 F300
G1 X60.16803317505702 Y40.879997743054986 F300
G1 X60.1609797254944 Y40.91623025978854 F300
G1 X60.14631891439996 Y40.94815813125062 F300
G1 X60.11541983893091 Y40.985348562271824 F300
G1 X60.0746659670194 Y41.0138333736308 F300
G1 X60.02527644912218 Y41.03329443333396 F300
G1 X59.97260392320461 Y41.04184836894301 F300
G1 X59.918734709920585 Y41.039332729077145 F300
G1 X59.86534023384441 Y41.02474177708395 F300
G1 X59.82910970549557 Y41.00611534790487 F300
G1 X59.79619979415152 Y40.980337016426404 F300
G1 X59.76721871892059 Y40.94628167800223 F300
G1 X59.74337172689997 Y40.90221985000062 F300
G1 X59.74337172689997 Y40.90221985000062 F300;svg#Layer_2 > g#Layer_1-2 > path
G0 X43.76366728245552 Y31.767956516667294
G1 X43.66723196442658 Y31.745470253573508 F300
G1 X43.572391027973914 Y31.712878715937 F300
G1 X43.47899159470402 Y31.671020402027736 F300
G1 X43.38693197381355 Y31.620636516667297 F300
G1 X43.26980196799416 Y31.54395893251559 F300
G1 X43.15733120801948 Y31.45765591093991 F300
G1 X43.049801850356765 Y31.3640965166673 F300
G1 X42.89842433087128 Y31.2152332618667 F300
G1 X42.765447282455526 Y31.069456516667294 F300
G1 X42.685808068308226 Y30.972723774459745 F300
G1 X42.612044186497585 Y30.87012821186115 F300
G1 X42.546155389451414 Y30.76199631090598 F300
G1 X42.50317539292537 Y30.677442788413465 F300
G1 X42.46714459822766 Y30.591082630275196 F300
G1 X42.43874509160362 Y30.50291268491938 F300
G1 X42.418742508792974 Y30.412892648354536 F300
G1 X42.408078259766235 Y30.321914665979016 F300
G1 X42.40747541316114 Y30.229433673120695 F300
G1 X42.41799231742402 Y30.13504650348945 F300
G1 X42.44103283801108 Y30.0383576277784 F300
G1 X42.47317959441125 Y29.949998497878223 F300
G1 X42.51319417448697 Y29.867566330616086 F300
G1 X42.56027824922548 Y29.790266941316418 F300
G1 X42.61378419603578 Y29.71739256605001 F300
G1 X42.69379592394203 Y29.62645107026119 F300
G1 X42.78202624531957 Y29.541868991028757 F300
G1 X42.876846665171584 Y29.46265565246976 F300
G1 X43.02630190959309 Y29.35293356436587 F300
G1 X43.177632838011085 Y29.2522276277784 F300
G1 X43.35244958679254 Y29.143133379768642 F300
G1 X43.53274319251667 Y29.040136943458116 F300
G1 X43.71847644912219 Y28.945363877778405 F300
G1 X43.86094396572448 Y28.88115756167348 F300
G1 X44.00567639860799 Y28.82399576727636 F300
G1 X44.15275817391657 Y28.774684936402263 F300
G1 X44.30228839356665 Y28.7340676277784 F300
G1 X44.44818221147475 Y28.704914609795566 F300
G1 X44.592797341277866 Y28.687103154096526 F300
G1 X44.73576708755817 Y28.68037673049685 F300
G1 X44.87675899422656 Y28.684599879099878 F300
G1 X45.01544827010986 Y28.699761948766064 F300
G1 X45.15323039640755 Y28.72639163097149 F300
G1 X45.28627987501046 Y28.764085543371728 F300
G1 X45.414404757880924 Y28.812859183551875 F300
G1 X45.53736878297623 Y28.87290133703059 F300
G1 X45.654854072578985 Y28.94457404753149 F300
G1 X45.74625424900742 Y29.011953326049266 F300
G1 X45.83280244256457 Y29.08719601848101 F300
G1 X45.91433002162093 Y29.17067239445858 F300
G1 X45.99057400430925 Y29.26285744424774 F300
G1 X46.061159724684224 Y29.364326078984277 F300
G1 X46.125585060233306 Y29.475747627778404 F300
G1 X46.18234289476525 Y29.594569183231023 F300
G1 X46.22974112717636 Y29.71599157160225 F300
G1 X46.26795128211483 Y29.839666078912163 F300
G1 X46.29705614465468 Y29.965285431432946 F300
G1 X46.31704670632384 Y30.092565199794866 F300
G1 X46.32782031637296 Y30.221231541725594 F300
G1 X46.32921558303045 Y30.349520488001566 F300
G1 X46.321261047476696 Y30.47715510987732 F300
G1 X46.30388807706938 Y30.603863236640535 F300
G1 X46.27692934006869 Y30.72935783353972 F300
G1 X46.24054951614118 Y30.85204766649167 F300
G1 X46.19467471319305 Y30.971687879355166 F300
G1 X46.13910263432297 Y31.088052009987514 F300
G1 X46.07351045254328 Y31.20086278372078 F300
G1 X45.99745617134442 Y31.309768738889513 F300
G1 X45.90189680849028 Y31.424963732647083 F300
G1 X45.79894533200893 Y31.530413695826542 F300
G1 X45.68906656376208 Y31.626512832992212 F300
G1 X45.57262132759441 Y31.71355156875062 F300
G1 X45.44973692147508 Y31.79180085335136 F300
G1 X45.3218376580183 Y31.860693994829575 F300
G1 X45.189290234699506 Y31.920382264957926 F300
G1 X45.052417421344416 Y31.970927211111732 F300
G1 X44.91243035354506 Y32.012063352228665 F300
G1 X44.77000108250277 Y32.04378755044058 F300
G1 X44.62549648017229 Y32.06613231167914 F300
G1 X44.47927039009441 Y32.07905139513951 F300
G1 X44.332570383797474 Y32.082427516862765 F300
G1 X44.18615303236928 Y32.07625922956047 F300
G1 X44.040376692469685 Y32.06051395826088 F300
G1 X43.89560617134442 Y32.03507985000062 F300
G1 X43.847353573699614 Y32.01944072744411 F300
G1 X43.81073065433367 Y31.997401073705774 F300
G1 X43.783278124723076 Y31.97062060095033 F300
G1 X43.763360806761085 Y31.939781343056175 F300
G1 X43.74726205534134 Y31.89211064120198 F300
G1 X43.74370958448758 Y31.841379979964497 F300
G1 X43.75214908801109 Y31.788946794445064 F300
G1 X43.77171742329461 Y31.739432531422967 F300
G1 X43.801283247676785 Y31.6955550195203 F300
G1 X43.84081757759442 Y31.659120162500617 F300
G1 X43.87500359387155 Y31.63941346654868 F300
G1 X43.913720704979355 Y31.626498192864226 F300
G1 X43.957780481827164 Y31.62158397068814 F300
G1 X44.00821283801109 Y31.62684540555617 F300
G1 X44.13138450227608 Y31.647760943656667 F300
G1 X44.25454387102517 Y31.65904336803876 F300
G1 X44.3773864335654 Y31.66111528673419 F300
G1 X44.499623244437586 Y31.654298738718847 F300
G1 X44.620961309122215 Y31.638821787778404 F300
G1 X44.741436255118494 Y31.614742749804496 F300
G1 X44.85878699985096 Y31.582638362953087 F300
G1 X44.972701008086 Y31.542822487286085 F300
G1 X45.08285490912248 Y31.495529224107344 F300
G1 X45.188897406899976 Y31.440919663333954 F300
G1 X45.291287611206684 Y31.378524529310948 F300
G1 X45.387373046480604 Y31.309789600618696 F300
G1 X45.476909149106845 Y31.23492237943909 F300
G1 X45.55960522654917 Y31.15404465400617 F300
G1 X45.635103158011084 Y31.06720212555617 F300
G1 X45.70302815742271 Y30.974267848841507 F300
G1 X45.76212134212267 Y30.87639279121436 F300
G1 X45.81208569095355 Y30.773479316192294 F300
G1 X45.85247402802945 Y30.665343078114958 F300
G1 X45.8826605891222 Y30.551732267778398 F300
G1 X45.90120495352667 Y30.43784355840252 F300
G1 X45.90876308745644 Y30.319086152311037 F300
G1 X45.90440036935156 Y30.194963846545164 F300
G1 X45.88688183923462 Y30.064961671645403 F300
G1 X45.854651726899974 Y29.928573183333953 F300
G1 X45.82047827795424 Y29.825840023755195 F300
G1 X45.779399795507544 Y29.72982941484762 F300
G1 X45.73185077663572 Y29.640320703950703 F300
G1 X45.678142426772254 Y29.55713846150658 F300
G1 X45.61847353759957 Y29.480169109259883 F300
G1 X45.55169874840643 Y29.408148591170296 F300
G1 X45.479639469886564 Y29.34323410132042 F300
G1 X45.40238619198779 Y29.285372248866288 F300
G1 X45.3199372246617 Y29.23461329291826 F300
G1 X45.23221584212632 Y29.19112651666729 F300
G1 X45.141763920164806 Y29.156110174968177 F300
G1 X45.04688777447733 Y29.12885889435533 F300
G1 X44.94742608561786 Y29.109684135750648 F300
G1 X44.843182909629 Y29.099047523088256 F300
G1 X44.733947282455524 Y29.097569850000617 F300
G1 X44.60939567414573 Y29.106606316550792 F300
G1 X44.48616097361692 Y29.12546322587792 F300
G1 X44.36420745842304 Y29.15312525301057 F300
G1 X44.243515615788866 Y29.18865707222284 F300
G1 X44.08566293782237 Y29.246314164555223 F300
G1 X43.932360405520896 Y29.31319734691462 F300
G1 X43.78398728245552 Y29.386847627778398 F300
G1 X43.58675008601126 Y29.493362403766113 F300
G1 X43.38878797689996 Y29.611514155556172 F300
G1 X43.26120596458672 Y29.69754710990432 F300
G1 X43.14078349149388 Y29.78955846300238 F300
G1 X43.02946617134441 Y29.888356516667287 F300
G1 X42.96517456637514 Y29.958344724475204 F300
G1 X42.91680969135748 Y30.026939627437603 F300
G1 X42.88198827235902 Y30.09438681687808 F300
G1 X42.858878517023435 Y30.16111906810762 F300
G1 X42.84576673008502 Y30.23155982767335 F300
G1 X42.84343670401233 Y30.30216702161633 F300
G1 X42.85137852729862 Y30.373445073685005 F300
G1 X42.86947752936911 Y30.445891743004736 F300
G1 X42.89581378098952 Y30.51515964893224 F300
G1 X42.93123699340514 Y30.585435080309566 F300
G1 X42.97596926540929 Y30.656827828629304 F300
G1 X43.03031283801108 Y30.729378738889512 F300
G1 X43.138991973621955 Y30.857398058417736 F300
G1 X43.267144319492566 Y30.992111948766063 F300
G1 X43.358880574267616 Y31.077319815684724 F300
G1 X43.45522004410017 Y31.156273489879794 F300
G1 X43.55562246764071 Y31.2265288623463 F300
G1 X43.63503035170859 Y31.272946745603548 F300
G1 X43.71498134772857 Y31.311073763526473 F300
G1 X43.79547032656184 Y31.34024702621055 F300
G1 X43.87655617134441 Y31.359722072222837 F300
G1 X43.9252373437596 Y31.37377473530386 F300
G1 X43.96203469250633 Y31.39450502711912 F300
G1 X43.989544375485885 Y31.420148424484132 F300
G1 X44.00949606717775 Y31.45000011041728 F300
G1 X44.02565398333421 Y31.496585921966936 F300
G1 X44.029275488727876 Y31.546726226528364 F300
G1 X44.02080700467775 Y31.599134711111727 F300
G1 X44.00123765171607 Y31.64870530819763 F300
G1 X43.97158337709158 Y31.69316229298562 F300
G1 X43.93184085884441 Y31.730621603472844 F300
G1 X43.897434227250756 Y31.751295207014195 F300
G1 X43.85851167255008 Y31.765327516447854 F300
G1 X43.81433517246774 Y31.771563450247026 F300
G1 X43.76394950467775 Y31.767956516667287 F300
G1 X43.76394950467775 Y31.767956516667287 F300
G1 X43.76366728245552 Y31.767956516667294 F300;svg#Layer_2 > g#Layer_1-2 > path
G0 X51.59011283801108 Y39.48532318333395
G1 X51.994720983257245 Y39.440738894035505 F300
G1 X52.40197136231664 Y39.38485207222285 F300
G1 X52.67191807440228 Y39.337530270154964 F300
G1 X52.937789930934336 Y39.27970457847626 F300
G1 X53.19833853245554 Y39.20913346111173 F300
G1 X53.3905621961363 Y39.146103728255355 F300
G1 X53.57806036182722 Y39.073734172910385 F300
G1 X53.76050170236768 Y38.99100534564457 F300
G1 X53.937529244261086 Y38.89683693333396 F300
G1 X54.07354612229723 Y38.813434890718284 F300
G1 X54.20573890461024 Y38.72150959557577 F300
G1 X54.33398164881946 Y38.620304232657624 F300
G1 X54.45809894349077 Y38.508984560813595 F300
G1 X54.577858393566636 Y38.386632072222845 F300
G1 X54.694902996201186 Y38.251809670850676 F300
G1 X54.80482541143234 Y38.11155450311648 F300
G1 X54.908544442949356 Y37.966492031070594 F300
G1 X55.05411243206523 Y37.741745633934705 F300
G1 X55.19021789973948 Y37.51047840967141 F300
G1 X55.31951879431439 Y37.27532747492174 F300
G1 X55.444421726899975 Y37.03944429444506 F300
G1 X56.36954617134441 Y35.26835873888951 F300
G1 X56.39767436585974 Y35.226077928234496 F300
G1 X56.42890814338818 Y35.1965606828978 F300
G1 X56.46230131257336 Y35.177064636126396 F300
G1 X56.497613324122185 Y35.16587017986173 F300
G1 X56.54824615905772 Y35.16271304552207 F300
G1 X56.59840244020413 Y35.172417308614165 F300
G1 X56.6469000602333 Y35.19404610000062 F300
G1 X56.68968004309453 Y35.225679059083014 F300
G1 X56.72423948930313 Y35.26542621599948 F300
G1 X56.74887929634442 Y35.31278889513951 F300
G1 X56.75876054433536 Y35.35068313802623 F300
G1 X56.7608536919909 Y35.39119379577088 F300
G1 X56.75375051914257 Y35.43481640587095 F300
G1 X56.735023949122194 Y35.48200096111173 F300
G1 X55.75641839356663 Y37.35468651666729 F300
G1 X55.62101970399776 Y37.6053555784421 F300
G1 X55.479239901448004 Y37.8535255146845 F300
G1 X55.32853422689997 Y38.09668401666729 F300
G1 X55.20826079895875 Y38.27401512475287 F300
G1 X55.080752032974054 Y38.44563913205455 F300
G1 X54.94482642538457 Y38.610671739761756 F300
G1 X54.799261726899964 Y38.76819651666729 F300
G1 X54.66796417052033 Y38.89365873477284 F300
G1 X54.53234784264322 Y39.008055515983486 F300
G1 X54.392630065835796 Y39.112269475269684 F300
G1 X54.248978073912944 Y39.20710643893049 F300
G1 X54.10151578939996 Y39.29330182916729 F300
G1 X53.9103754462262 Y39.3906590488573 F300
G1 X53.713899301399316 Y39.476383441928846 F300
G1 X53.51245222196435 Y39.55155327437276 F300
G1 X53.30637672689997 Y39.61719151666729 F300
G1 X53.02740875816477 Y39.69099770743522 F300
G1 X52.74331747515909 Y39.75174342164357 F300
G1 X52.45535766439996 Y39.80169870416729 F300
G1 X52.021135538833974 Y39.861094625145995 F300
G1 X51.58997172689997 Y39.90865651666729 F300
G1 X51.53927124927225 Y39.908452017301926 F300
G1 X51.49832744831152 Y39.89856752212021 F300
G1 X51.46506979648028 Y39.881434525222744 F300
G1 X51.437988445649964 Y39.858207089583956 F300
G1 X51.410129674713374 Y39.817865799384734 F300
G1 X51.39338140859051 Y39.770650668437355 F300
G1 X51.3876713102333 Y39.71789193333395 F300
G1 X51.39339582993719 Y39.66490576104956 F300
G1 X51.4101711497839 Y39.61403911204478 F300
G1 X51.43850438314996 Y39.567125735417285 F300
G1 X51.46615317985858 Y39.537809475365236 F300
G1 X51.49988224637961 Y39.513668651063504 F300
G1 X51.54067944583604 Y39.49561025816378 F300
G1 X51.58997172689997 Y39.48532318333395 F300
G1 X51.58997172689997 Y39.48532318333395 F300
G1 X51.59011283801108 Y39.48532318333395 F300;svg#Layer_2 > g#Layer_1-2 > path
G0 X30.037366171344413 Y23.08609540555618
G1 X30.438016414120348 Y23.327171050342038 F300
G1 X30.833103636572027 Y23.576526945458067 F300
G1 X31.22260863660386 Y23.83409483921377 F300
G1 X31.606507844687943 Y24.099813910805555 F300
G1 X31.98477300481536 Y24.373630484586734 F300
G1 X32.357370859325876 Y24.65549773829698 F300
G1 X32.72426283801108 Y24.945375405556177 F300
G1 X33.03774504834871 Y25.203316612703823 F300
G1 X33.346232756319715 Y25.46710513372609 F300
G1 X33.64970053838657 Y25.73669252204514 F300
G1 X33.94811950467774 Y26.01203429444507 F300
G1 X34.25236283506687 Y26.30378950628201 F300
G1 X34.5508050602333 Y26.60159651666729 F300
G1 X34.66379978245552 Y26.725825006250624 F300
G1 X34.731608830973464 Y26.796240316373865 F300
G1 X34.80399367134441 Y26.86020026666729 F300
G1 X34.856032915903576 Y26.896369567658162 F300
G1 X34.90658524602093 Y26.921627870266327 F300
G1 X34.9557763102333 Y26.934911985417294 F300
G1 X34.992473110200905 Y26.936187204878138 F300
G1 X35.02876994263054 Y26.92888335246454 F300
G1 X35.06558113866705 Y26.911247596409094 F300
G1 X35.10353728245552 Y26.88014985000062 F300
G1 X35.15653433655823 Y26.817060516273408 F300
G1 X35.20344394912219 Y26.746182488889513 F300
G1 X35.28811061578885 Y26.601314294445068 F300
G1 X35.54465061578886 Y26.179392072222843 F300
G1 X36.021041726899966 Y25.395943183333955 F300
G1 X36.49743283801108 Y24.612494294445067 F300
G1 X36.57643415488351 Y24.49796433559733 F300
G1 X36.62095945366582 Y24.435057464158092 F300
G1 X36.66227152113865 Y24.371142031070583 F300
G1 X36.69664075668576 Y24.305963894044766 F300
G1 X36.71700172689997 Y24.246452072222848 F300
G1 X36.717421985880556 Y24.211740364291508 F300
G1 X36.704622149174185 Y24.17531619168403 F300
G1 X36.67911078039791 Y24.136171125720793 F300
G1 X36.629181672480854 Y24.08244935009004 F300
G1 X36.56994304377239 Y24.030813389095275 F300
G1 X36.46779950467775 Y23.94687318333396 F300
G1 X33.767638393566635 Y21.426064294445066 F300
G1 X30.733185060233296 Y18.593117627778405 F300
G1 X31.08695061578885 Y18.49970207222285 F300
G1 X31.014376765354402 Y18.70705286980846 F300
G1 X30.9496347783047 Y18.916826234926766 F300
G1 X30.890770893566636 Y19.12847554444507 F300
G1 X30.730362838011082 Y19.767726516667288 F300
G1 X30.404255060233304 Y21.070746516667292 F300
G1 X30.089859504677747 Y22.33002207222285 F300
G1 X30.0411694458283 Y22.54388433054108 F300
G1 X30.00026962813454 Y22.75946499403355 F300
G1 X29.979546210571435 Y22.90408295399437 F300
G1 X29.96568274072645 Y23.048807467759122 F300
G1 X29.95997456640614 Y23.193674335597333 F300
G1 X29.963730617081556 Y23.338350192908365 F300
G1 X29.978301737464772 Y23.483253883245403 F300
G1 X30.005192838011077 Y23.628667627778405 F300
G1 X30.01139256863138 Y23.678987546319107 F300
G1 X30.00723221214607 Y23.722892702494697 F300
G1 X29.99495417228207 Y23.76144449752705 F300
G1 X29.97579542481663 Y23.79548741944507 F300
G1 X29.93995750167343 Y23.834892070298825 F300
G1 X29.89642429833578 Y23.864430497271073 F300
G1 X29.846954365788854 Y23.884043461111737 F300
G1 X29.794515125537554 Y23.89252406196391 F300
G1 X29.743458009132638 Y23.889070190619012 F300
G1 X29.695173931761076 Y23.873063252778405 F300
G1 X29.66377417158353 Y23.853206661261034 F300
G1 X29.636335672534507 Y23.825817737544238 F300
G1 X29.613528769669376 Y23.789305187584148 F300
G1 X29.596958393566634 Y23.74127429444507 F300
G1 X29.56542980686692 Y23.57617552784808 F300
G1 X29.546025508022534 Y23.410422747217595 F300
G1 X29.537627157979166 Y23.243876009038118 F300
G1 X29.53921087620552 Y23.07638740208396 F300
G1 X29.555016903702832 Y22.853265038614868 F300
G1 X29.584332431894993 Y22.629237969921963 F300
G1 X29.624880754677744 Y22.40447582222285 F300
G1 X29.700904535453596 Y22.06987739645332 F300
G1 X29.78799417481663 Y21.73862320069507 F300
G1 X29.87849934065723 Y21.410144983334 F300
G1 X29.962577282455523 Y21.091913183333958 F300
G1 X30.297010615788857 Y19.755449850000623 F300
G1 X30.468601726899966 Y19.065681100000628 F300
G1 X30.531422553251428 Y18.837119507084708 F300
G1 X30.60071022313824 Y18.610742812627784 F300
G1 X30.678716171344412 Y18.387236516667294 F300
G1 X30.70214885258056 Y18.339944388949586 F300
G1 X30.73226725367766 Y18.301388687486494 F300
G1 X30.76789316722919 Y18.271044582510918 F300
G1 X30.8089387242372 Y18.248767000059875 F300
G1 X30.85255181463769 Y18.236188320555883 F300
G1 X30.898337323607787 Y18.233624006379223 F300
G1 X30.943260602226957 Y18.24154152159533 F300
G1 X30.98809006276515 Y18.260828465649748 F300
G1 X31.032481726899967 Y18.293820961111738 F300
G1 X36.87010728245553 Y23.74367318333396 F300
G1 X36.935744038956614 Y23.80722113465251 F300
G1 X36.99549665885904 Y23.871369990376742 F300
G1 X37.047693002620136 Y23.93672886234631 F300
G1 X37.092246518837705 Y24.006553919168752 F300
G1 X37.12510950357127 Y24.078533728777106 F300
G1 X37.14497082155018 Y24.15396157839569 F300
G1 X37.15020136192586 Y24.211197946112925 F300
G1 X37.1467242059948 Y24.272208359816585 F300
G1 X37.13290576089545 Y24.338190077827797 F300
G1 X37.10646839356664 Y24.410423183333958 F300
G1 X37.03629212241352 Y24.554219708475173 F300
G1 X36.95652188880094 Y24.696010950239433 F300
G1 X36.87008964356663 Y24.836455266667286 F300
G1 X36.606511726899974 Y25.248199850000628 F300
G1 X36.095118982515345 Y26.09297155647319 F300
G1 X35.58035172689998 Y26.935606516667296 F300
G1 X35.51294984289882 Y27.038304223402584 F300
G1 X35.43793403142673 Y27.135670714198167 F300
G1 X35.38246583758896 Y27.195379758095598 F300
G1 X35.322731445568586 Y27.248368550628197 F300
G1 X35.25794942237323 Y27.293495652469765 F300
G1 X35.20617543525901 Y27.321110060702424 F300
G1 X35.15076170979876 Y27.34309458417153 F300
G1 X35.09099637668229 Y27.35881721523783 F300
G1 X35.026067282455536 Y27.36740651666729 F300
G1 X34.957713971282764 Y27.367849067546445 F300
G1 X34.89287001482543 Y27.36026302391248 F300
G1 X34.830937883137636 Y27.345621676692392 F300
G1 X34.771372179574875 Y27.324670755350425 F300
G1 X34.694879604569664 Y27.28792682319276 F300
G1 X34.62180576001566 Y27.242725650096304 F300
G1 X34.55164127422508 Y27.190526352058242 F300
G1 X34.4526513903043 Y27.103906132629884 F300
G1 X34.360446171344414 Y27.012794294445072 F300
G1 X34.04685037102996 Y26.696949856554813 F300
G1 X33.727599062111125 Y26.387143806193983 F300
G1 X33.40226301698091 Y26.083739008109916 F300
G1 X33.07040839356663 Y25.78710318333396 F300
G1 X32.68920102800294 Y25.461945499553888 F300
G1 X32.30061994373585 Y25.146291194760146 F300
G1 X31.904791762163473 Y24.840093186573345 F300
G1 X31.501834921344415 Y24.543314572222847 F300
G1 X31.092029693624983 Y24.25604459457182 F300
G1 X30.675663612879916 Y23.978369538643694 F300
G1 X30.25285702236743 Y23.710264461148927 F300
G1 X29.82372394912219 Y23.45171429444507 F300
G1 X29.78290009828655 Y23.4215910788328 F300
G1 X29.754340571751708 Y23.38862019242478 F300
G1 X29.735534763367834 Y23.353666074860566 F300
G1 X29.724906483844414 Y23.316979641667288 F300
G1 X29.72238968178862 Y23.264868928204844 F300
G1 X29.73249352978915 Y23.21391823245677 F300
G1 X29.75412089356664 Y23.165364572222845 F300
G1 X29.78571559067906 Y23.122635782452758 F300
G1 X29.825032148638833 Y23.088848783666734 F300
G1 X29.871547386622197 Y23.06555491944507 F300
G1 X29.908623758534993 Y23.05691626667391 F300
G1 X29.94824631784702 Y23.05627847842816 F300
G1 X29.990993479238398 Y23.065165755589533 F300
G1 X30.03736617134442 Y23.08623651666729 F300
G1 X30.03736617134442 Y23.08623651666729 F300
G1 X30.037366171344413 Y23.08609540555618 F300
G0 X0 Y0
