G21
G90;svg#Layer_2 > g#Layer_2-2 > path
G0 X10.789802222222223 Y31.52214392334264
G1 X10.789802222222223 Y21.503819478898194 F300
G1 X10.789802222222223 Y11.556050590009306 F300
G1 X10.789802222222223 Y5.911888367787086 F300
G1 X10.795111770675598 Y5.861421952281161 F300
G1 X10.809085900309393 Y5.820132660073353 F300
G1 X10.829702848262567 Y5.786278057840519 F300
G1 X10.855948055555556 Y5.758615242787085 F300
G1 X10.899596018769175 Y5.730180294692993 F300
G1 X10.948641313868578 Y5.713221518229112 F300
G1 X11.001468888888889 Y5.707418367787085 F300
G1 X11.05429992864758 Y5.713153188008421 F300
G1 X11.103343603994967 Y5.730055793045565 F300
G1 X11.146989722222223 Y5.758456492787085 F300
G1 X11.173224122203198 Y5.786102473946422 F300
G1 X11.193840864252078 Y5.819968099400187 F300
G1 X11.207821353845674 Y5.861310142444132 F300
G1 X11.213135555555555 Y5.911888367787086 F300
G1 X11.213135555555555 Y15.930212812231527 F300
G1 X11.213135555555555 Y25.87798170112041 F300
G1 X11.213135555555555 Y31.522143923342632 F300
G1 X11.207826007102181 Y31.57261033884856 F300
G1 X11.193851877468385 Y31.613899631056366 F300
G1 X11.173234929515209 Y31.647754233289195 F300
G1 X11.146989722222221 Y31.675417048342634 F300
G1 X11.103341759008606 Y31.703851996436732 F300
G1 X11.054296463909202 Y31.720810772900606 F300
G1 X11.001468888888889 Y31.726613923342633 F300
G1 X10.9486378491302 Y31.720879103121298 F300
G1 X10.89959417378281 Y31.703976498084153 F300
G1 X10.855948055555556 Y31.675575798342635 F300
G1 X10.82971365557458 Y31.647929817183297 F300
G1 X10.809096913525703 Y31.614064191729533 F300
G1 X10.795116423932106 Y31.57272214868559 F300
G1 X10.789802222222223 Y31.522143923342632 F300
G1 X10.789802222222223 Y31.522143923342632 F300
G1 X10.789802222222223 Y31.52214392334264 F300;svg#Layer_2 > g#Layer_2-2 > path
G0 X11.151187777777777 Y5.762169478898192
G1 X16.258845555555553 Y10.869827256675974 F300
G1 X16.290838420521595 Y10.909333380041879 F300
G1 X16.31018965136226 Y10.948454063642378 F300
G1 X16.31957087250582 Y10.986994139518291 F300
G1 X16.320586076388885 Y11.025117829592642 F300
G1 X16.309833586029264 Y11.076098657796296 F300
G1 X16.287137958437107 Y11.12276327004559 F300
G1 X16.25387138888889 Y11.164202673342642 F300
G1 X16.212440139453285 Y11.197477643485612 F300
G1 X16.16578716706247 Y11.22017528120574 F300
G1 X16.114819618055556 Y11.230923975425974 F300
G1 X16.07670769278299 Y11.22990252162413 F300
G1 X16.038175776863422 Y11.220511671338592 F300
G1 X15.99905811205369 Y11.201144293819997 F300
G1 X15.95954888888889 Y11.169123923342639 F300
G1 X10.85189111111111 Y6.061466145564856 F300
G1 X10.819898246145064 Y6.0219600221989475 F300
G1 X10.800547015304398 Y5.982839338598451 F300
G1 X10.791165794160841 Y5.944299262722542 F300
G1 X10.790150590277776 Y5.9061755726481895 F300
G1 X10.800903080637402 Y5.855194744444538 F300
G1 X10.823598708229557 Y5.80853013219524 F300
G1 X10.856865277777779 Y5.76709072889819 F300
G1 X10.898296527213382 Y5.7338157587552185 F300
G1 X10.944949499604194 Y5.71111812103509 F300
G1 X10.995917048611112 Y5.700369426814858 F300
G1 X11.034028973883675 Y5.701390880616701 F300
G1 X11.072560889803245 Y5.710781730902239 F300
G1 X11.111678554612975 Y5.730149108420836 F300
G1 X11.151187777777777 Y5.762169478898192 F300
G1 X11.151187777777777 Y5.762169478898192 F300;svg#Layer_2 > g#Layer_2-2 > path
G0 X16.258845555555556 Y10.869827256675974
G1 X16.690504444444446 Y11.301486145564867 F300
G1 X16.71629014268227 Y11.333301222362937 F300
G1 X16.735871666666668 Y11.370366006675976 F300
G1 X16.748201191237712 Y11.410438685690405 F300
G1 X16.752452222222225 Y11.451205034453752 F300
G1 X16.748342729889902 Y11.491003646584259 F300
G1 X16.736083333333337 Y11.532096978898196 F300
G1 X16.716394564087935 Y11.570046949875607 F300
G1 X16.690504444444446 Y11.60092392334264 F300
G1 X16.658058664175538 Y11.62653328885178 F300
G1 X16.621677499999997 Y11.646714478898193 F300
G1 X16.582385158797912 Y11.659448723722013 F300
G1 X16.540785555555555 Y11.66287170112042 F300
G1 X16.498907974272324 Y11.657740730253334 F300
G1 X16.459911442314503 Y11.646118382280404 F300
G1 X16.42387335696904 Y11.627503971052212 F300
G1 X16.391066666666667 Y11.60092392334264 F300
G1 X15.959407777777779 Y11.169265034453746 F300
G1 X15.933622079539951 Y11.137449957655672 F300
G1 X15.914040555555555 Y11.100385173342636 F300
G1 X15.901711030984515 Y11.060312494328208 F300
G1 X15.897459999999999 Y11.019546145564858 F300
G1 X15.901569492332325 Y10.979747533434356 F300
G1 X15.91382888888889 Y10.938654201120416 F300
G1 X15.933517658134285 Y10.900704230143006 F300
G1 X15.959407777777779 Y10.869827256675974 F300
G1 X15.991853558046683 Y10.844217891166831 F300
G1 X16.028234722222223 Y10.82403670112042 F300
G1 X16.067527063424308 Y10.8113024562966 F300
G1 X16.109126666666665 Y10.807879478898194 F300
G1 X16.151004247949892 Y10.813010449765276 F300
G1 X16.190000779907713 Y10.824632797738206 F300
G1 X16.226038865253184 Y10.8432472089664 F300
G1 X16.258845555555556 Y10.869827256675974 F300
G1 X16.258845555555556 Y10.869827256675974 F300;svg#Layer_2 > g#Layer_2-2 > path
G0 X16.522864444444444 Y11.239538367787086
G1 X26.167949999999998 Y11.239538367787086 F300
G1 X35.81303555555556 Y11.239538367787086 F300
G1 X41.23396 Y11.239538367787086 F300
G1 X41.28442641550594 Y11.244847916240461 F300
G1 X41.32571570771374 Y11.258822045874258 F300
G1 X41.35957030994656 Y11.279438993827432 F300
G1 X41.387233125 Y11.305684201120417 F300
G1 X41.41566807309409 Y11.349332164334038 F300
G1 X41.43262684955797 Y11.398377459433439 F300
G1 X41.438430000000004 Y11.451205034453753 F300
G1 X41.43269517977866 Y11.504036074212442 F300
G1 X41.415792574741516 Y11.55307974955983 F300
G1 X41.387391875 Y11.596725867787086 F300
G1 X41.35974589384067 Y11.622960267768061 F300
G1 X41.325880268386896 Y11.64357700981694 F300
G1 X41.28453822534296 Y11.657557499410537 F300
G1 X41.23396 Y11.66287170112042 F300
G1 X31.588874444444443 Y11.66287170112042 F300
G1 X21.94378888888889 Y11.66287170112042 F300
G1 X16.52286444444444 Y11.66287170112042 F300
G1 X16.472398028938514 Y11.657562152667044 F300
G1 X16.431108736730714 Y11.64358802303325 F300
G1 X16.397254134497874 Y11.622971075080072 F300
G1 X16.369591319444442 Y11.596725867787086 F300
G1 X16.34115637135035 Y11.553077904573469 F300
G1 X16.324197594886467 Y11.504032609474066 F300
G1 X16.318394444444444 Y11.451205034453753 F300
G1 X16.32412926466578 Y11.398373994695062 F300
G1 X16.341031869702924 Y11.349330319347674 F300
G1 X16.36943256944444 Y11.305684201120417 F300
G1 X16.397078550603776 Y11.279449801139442 F300
G1 X16.430944176057544 Y11.258833059090563 F300
G1 X16.472286219101488 Y11.244852569496967 F300
G1 X16.52286444444444 Y11.239538367787086 F300
G1 X16.52286444444444 Y11.239538367787086 F300
G1 X16.522864444444444 Y11.239538367787086 F300;svg#Layer_2 > g#Layer_2-2 > path
G0 X41.08424111111111 Y11.654828367787085
G1 X35.90461666666667 Y6.475203923342637 F300
G1 X35.87262380170062 Y6.435697799976728 F300
G1 X35.85327257085996 Y6.396577116376233 F300
G1 X35.8438913497164 Y6.358037040500324 F300
G1 X35.84287614583334 Y6.31991335042597 F300
G1 X35.85362863619296 Y6.268932522222317 F300
G1 X35.876324263785115 Y6.222267909973019 F300
G1 X35.90959083333333 Y6.1808285066759705 F300
G1 X35.95102208276894 Y6.147553536533 F300
G1 X35.997675055159746 Y6.124855898812871 F300
G1 X36.048642604166666 Y6.114107204592639 F300
G1 X36.08675452943923 Y6.115128658394483 F300
G1 X36.125286445358796 Y6.124519508680019 F300
G1 X36.16440411016853 Y6.143886886198615 F300
G1 X36.20391333333333 Y6.1759072566759725 F300
G1 X41.383537777777775 Y11.35553170112042 F300
G1 X41.415530642743825 Y11.395037824486328 F300
G1 X41.43488187358449 Y11.434158508086824 F300
G1 X41.444263094728036 Y11.472698583962734 F300
G1 X41.44527829861111 Y11.510822274037086 F300
G1 X41.434525808251486 Y11.561803102240736 F300
G1 X41.41183018065933 Y11.608467714490034 F300
G1 X41.37856361111111 Y11.649907117787086 F300
G1 X41.33713236167551 Y11.683182087930057 F300
G1 X41.29047938928469 Y11.705879725650185 F300
G1 X41.23951184027777 Y11.716628419870418 F300
G1 X41.20139991500521 Y11.715606966068574 F300
G1 X41.16286799908564 Y11.706216115783036 F300
G1 X41.12375033427591 Y11.686848738264441 F300
G1 X41.08424111111111 Y11.654828367787085 F300
G1 X41.08424111111111 Y11.654828367787085 F300;svg#Layer_2 > g#Layer_2-2 > path
G0 X36.05010222222222 Y6.379389478898196
G1 X36.05010222222222 Y16.17532281223153 F300
G1 X36.05010222222222 Y25.971256145564865 F300
G1 X36.05010222222223 Y27.20774122816934 F300
G1 X36.05010222222222 Y28.168491908441446 F300
G1 X36.050102222222215 Y28.928708477926378 F300
G1 X36.05010222222222 Y29.56359122816934 F300
G1 X36.05010222222222 Y30.1483404507155 F300
G1 X36.05010222222222 Y30.75815643711006 F300
G1 X36.05010222222222 Y31.4682394788982 F300
G1 X36.04479267376884 Y31.518705894404125 F300
G1 X36.030818544135045 Y31.559995186611932 F300
G1 X36.01020159618188 Y31.59384978884477 F300
G1 X35.983956388888885 Y31.6215126038982 F300
G1 X35.94030842567527 Y31.64994755199229 F300
G1 X35.891263130575865 Y31.666906328456175 F300
G1 X35.838435555555556 Y31.672709478898202 F300
G1 X35.78560451579686 Y31.666974658676867 F300
G1 X35.73656084044948 Y31.650072053639718 F300
G1 X35.69291472222222 Y31.6216713538982 F300
G1 X35.66668032224125 Y31.594025372738866 F300
G1 X35.64606358019237 Y31.560159747285105 F300
G1 X35.63208309059877 Y31.518817704241155 F300
G1 X35.62676888888889 Y31.4682394788982 F300
G1 X35.62676888888889 Y6.3795305900093044 F300
G1 X35.63207843734227 Y6.3290641745033795 F300
G1 X35.64605256697607 Y6.287774882295573 F300
G1 X35.666669514929225 Y6.2539202800627365 F300
G1 X35.69291472222223 Y6.226257465009303 F300
G1 X35.73656268543584 Y6.197822516915212 F300
G1 X35.78560798053523 Y6.1808637404513265 F300
G1 X35.838435555555556 Y6.175060590009301 F300
G1 X35.89126659531424 Y6.180795410230638 F300
G1 X35.94031027066163 Y6.1976980152677825 F300
G1 X35.983956388888885 Y6.226098715009302 F300
G1 X36.01019078886986 Y6.2537446961686385 F300
G1 X36.03080753091874 Y6.287610321622406 F300
G1 X36.04478802051234 Y6.32895236466635 F300
G1 X36.05010222222222 Y6.3795305900093044 F300
G1 X36.05010222222222 Y6.3795305900093044 F300
G1 X36.05010222222222 Y6.379389478898196 F300;svg#Layer_2 > g#Layer_2-2 > path
G0 X35.784531111111114 Y31.733810590009305
G1 X26.23455444444444 Y31.733810590009305 F300
G1 X26.184088028938515 Y31.728501041555933 F300
G1 X26.142798736730708 Y31.714526911922132 F300
G1 X26.10894413449787 Y31.69390996396896 F300
G1 X26.08128131944444 Y31.667664756675972 F300
G1 X26.052846371350345 Y31.624016793462353 F300
G1 X26.035887594886464 Y31.574971498362952 F300
G1 X26.03008444444444 Y31.522143923342636 F300
G1 X26.035819264665776 Y31.469312883583946 F300
G1 X26.05272186970292 Y31.420269208236554 F300
G1 X26.081122569444442 Y31.376623090009303 F300
G1 X26.108768550603777 Y31.35038869002833 F300
G1 X26.142634176057545 Y31.329771947979452 F300
G1 X26.183976219101485 Y31.31579145838585 F300
G1 X26.23455444444444 Y31.31047725667597 F300
G1 X35.784531111111114 Y31.31047725667597 F300
G1 X35.83499752661704 Y31.315786805129346 F300
G1 X35.876286818824845 Y31.329760934763144 F300
G1 X35.91014142105767 Y31.350377882716316 F300
G1 X35.937804236111106 Y31.376623090009303 F300
G1 X35.96623918420521 Y31.420271053222926 F300
G1 X35.98319796066909 Y31.469316348322323 F300
G1 X35.98900111111111 Y31.522143923342636 F300
G1 X35.98326629088977 Y31.57497496310133 F300
G1 X35.966363685852635 Y31.624018638448717 F300
G1 X35.93796298611112 Y31.667664756675972 F300
G1 X35.91031700495178 Y31.693899156656943 F300
G1 X35.87645137949801 Y31.714515898705827 F300
G1 X35.83510933645407 Y31.728496388299426 F300
G1 X35.784531111111114 Y31.733810590009305 F300
G1 X35.784531111111114 Y31.733810590009305 F300;svg#Layer_2 > g#Layer_2-2 > path
G0 X25.81517222222222 Y31.26461614556486
G1 X31.156651111111113 Y25.92313725667597 F300
G1 X31.196157234477013 Y25.891144391709922 F300
G1 X31.23527791807751 Y25.871793160869256 F300
G1 X31.273817993953422 Y25.862411939725707 F300
G1 X31.311941684027776 Y25.86139673584264 F300
G1 X31.362922512231428 Y25.872149226202264 F300
G1 X31.409587124480726 Y25.89484485379442 F300
G1 X31.451026527777774 Y25.92811142334264 F300
G1 X31.484301497920747 Y25.969542672778243 F300
G1 X31.506999135640875 Y26.016195645169056 F300
G1 X31.517747829861108 Y26.067163194175972 F300
G1 X31.516726376059264 Y26.105275119448535 F300
G1 X31.507335525773726 Y26.143807035368106 F300
G1 X31.487968148255128 Y26.18292470017784 F300
G1 X31.45594777777777 Y26.222433923342642 F300
G1 X26.114468888888887 Y31.563912812231532 F300
G1 X26.07496276552298 Y31.595905677197578 F300
G1 X26.035842081922482 Y31.615256908038248 F300
G1 X25.997302006046574 Y31.624638129181797 F300
G1 X25.959178315972213 Y31.625653333064864 F300
G1 X25.90819748776856 Y31.614900842705232 F300
G1 X25.861532875519266 Y31.592205215113076 F300
G1 X25.820093472222215 Y31.55893864556486 F300
G1 X25.786818502079242 Y31.517507396129258 F300
G1 X25.76412086435911 Y31.470854423738444 F300
G1 X25.75337217013888 Y31.419886874731528 F300
G1 X25.75439362394072 Y31.381774949458958 F300
G1 X25.76378447422626 Y31.343243033539398 F300
G1 X25.783151851744854 Y31.304125368729665 F300
G1 X25.81517222222221 Y31.26461614556486 F300
G1 X25.81517222222221 Y31.26461614556486 F300
G1 X25.81517222222222 Y31.26461614556486 F300;svg#Layer_2 > g#Layer_2-2 > path
G0 X31.14451555555555 Y26.284381701120417
G1 X21.216925555555555 Y26.284381701120417 F300
G1 X21.16645914004962 Y26.27907215266703 F300
G1 X21.12516984784182 Y26.265098023033243 F300
G1 X21.091315245608985 Y26.244481075080067 F300
G1 X21.06365243055555 Y26.218235867787083 F300
G1 X21.03521748246146 Y26.174587904573464 F300
G1 X21.01825870599758 Y26.125542609474063 F300
G1 X21.01245555555555 Y26.07271503445375 F300
G1 X21.01819037577689 Y26.01988399469506 F300
G1 X21.035092980814035 Y25.970840319347673 F300
G1 X21.063493680555553 Y25.927194201120415 F300
G1 X21.09113966171489 Y25.900959801139443 F300
G1 X21.125005287168655 Y25.880343059090563 F300
G1 X21.1663473302126 Y25.866362569496964 F300
G1 X21.216925555555555 Y25.86104836778708 F300
G1 X31.14451555555555 Y25.86104836778708 F300
G1 X31.194981971061473 Y25.866357916240453 F300
G1 X31.236271263269288 Y25.880332045874255 F300
G1 X31.270125865502116 Y25.90094899382743 F300
G1 X31.297788680555552 Y25.927194201120415 F300
G1 X31.326223628649643 Y25.970842164334034 F300
G1 X31.343182405113524 Y26.019887459433434 F300
G1 X31.348985555555554 Y26.07271503445375 F300
G1 X31.343250735334212 Y26.125546074212437 F300
G1 X31.32634813029707 Y26.174589749559825 F300
G1 X31.297947430555553 Y26.21823586778708 F300
G1 X31.270301449396207 Y26.244470267768055 F300
G1 X31.236435823942447 Y26.265087009816938 F300
G1 X31.195093780898503 Y26.27906749941053 F300
G1 X31.14451555555555 Y26.284381701120417 F300
G1 X31.14451555555555 Y26.284381701120417 F300;svg#Layer_2 > g#Layer_2-2 > path
G0 X20.95121333333333 Y25.856956145564858
G1 X20.95121333333333 Y17.097060590009306 F300
G1 X20.95121333333333 Y8.337165034453754 F300
G1 X20.951213333333335 Y7.231072378153141 F300
G1 X20.95121333333333 Y6.370942559559036 F300
G1 X20.951213333333328 Y5.689696375561627 F300
G1 X20.951213333333335 Y5.120254623051098 F300
G1 X20.95121333333333 Y4.595538098917634 F300
G1 X20.95121333333333 Y4.0484676000514215 F300
G1 X20.95121333333333 Y3.411963923342642 F300
G1 X20.95652288178671 Y3.361497507836715 F300
G1 X20.970497011420502 Y3.3202082156289086 F300
G1 X20.991113959373678 Y3.286353613396075 F300
G1 X21.017359166666665 Y3.25869079834264 F300
G1 X21.061007129880284 Y3.230255850248548 F300
G1 X21.11005242497968 Y3.2132970737846653 F300
G1 X21.16288 Y3.207493923342639 F300
G1 X21.21571103975869 Y3.213228743563975 F300
G1 X21.26475471510608 Y3.2301313486011196 F300
G1 X21.308400833333334 Y3.258532048342639 F300
G1 X21.334635233314305 Y3.2861780295019756 F300
G1 X21.35525197536319 Y3.3200436549557413 F300
G1 X21.369232464956784 Y3.361385697999685 F300
G1 X21.374546666666667 Y3.4119639233426406 F300
G1 X21.374546666666667 Y25.856956145564858 F300
G1 X21.36923711821329 Y25.90742256107079 F300
G1 X21.35526298857949 Y25.94871185327859 F300
G1 X21.334646040626318 Y25.982566455511424 F300
G1 X21.30840083333333 Y26.01022927056486 F300
G1 X21.264752870119715 Y26.038664218658955 F300
G1 X21.215707575020318 Y26.05562299512284 F300
G1 X21.16288 Y26.06142614556486 F300
G1 X21.110048960241308 Y26.055691325343524 F300
G1 X21.06100528489392 Y26.03878872030638 F300
G1 X21.017359166666665 Y26.01038802056486 F300
G1 X20.991124766685687 Y25.982742039405522 F300
G1 X20.97050802463681 Y25.94887641395176 F300
G1 X20.95652753504321 Y25.907534370907815 F300
G1 X20.95121333333333 Y25.856956145564858 F300
G1 X20.95121333333333 Y25.856956145564858 F300;svg#Layer_2 > g#Layer_2-2 > path
G0 X21.312598888888886 Y3.2622450344537555
G1 X29.433825555555547 Y11.383471701120424 F300
G1 X37.55505222222221 Y19.50469836778709 F300
G1 X42.13890555555554 Y24.088551701120426 F300
G1 X42.170898420521574 Y24.12805782448633 F300
G1 X42.190249651362244 Y24.16717850808682 F300
G1 X42.199630872505814 Y24.20571858396274 F300
G1 X42.20064607638887 Y24.24384227403709 F300
G1 X42.189893586029235 Y24.29482310224074 F300
G1 X42.167197958437086 Y24.341487714490036 F300
G1 X42.13393138888887 Y24.382927117787087 F300
G1 X42.092500139453264 Y24.416202087930067 F300
G1 X42.045847167062455 Y24.43889972565019 F300
G1 X41.994879618055535 Y24.449648419870428 F300
G1 X41.956767692782975 Y24.44862696606858 F300
G1 X41.918235776863405 Y24.439236115783043 F300
G1 X41.879118112053675 Y24.419868738264448 F300
G1 X41.839608888888876 Y24.387848367787093 F300
G1 X33.7183822222222 Y16.266621701120428 F300
G1 X25.59715555555554 Y8.145395034453758 F300
G1 X21.0133022222222 Y3.561541701120427 F300
G1 X20.981309357256155 Y3.5220355777545196 F300
G1 X20.961958126415485 Y3.482914894154021 F300
G1 X20.952576905271936 Y3.4443748182781135 F300
G1 X20.951561701388865 Y3.40625112820376 F300
G1 X20.96231419174849 Y3.3552703000001096 F300
G1 X20.985009819340647 Y3.3086056877508114 F300
G1 X21.018276388888868 Y3.2671662844537614 F300
G1 X21.059707638324472 Y3.233891314310789 F300
G1 X21.10636061071528 Y3.211193676590661 F300
G1 X21.157328159722198 Y3.2004449823704295 F300
G1 X21.195440084994765 Y3.2014664361722733 F300
G1 X21.233972000914335 Y3.2108572864578093 F300
G1 X21.273089665724065 Y3.230224663976406 F300
G1 X21.312598888888864 Y3.262245034453763 F300
G1 X21.312598888888864 Y3.262245034453763 F300
G1 X21.312598888888886 Y3.2622450344537555 F300;svg#Layer_2 > g#Layer_2-2 > path
G0 X41.989327777777774 Y24.026603923342638
G1 X49.655612222222224 Y24.026603923342638 F300
G1 X53.50194833333333 Y24.026603923342638 F300
G1 X57.35717444444444 Y24.026603923342638 F300
G1 X61.68265333333332 Y24.026603923342638 F300
G1 X61.73311974883924 Y24.031913471796013 F300
G1 X61.77440904104706 Y24.045887601429808 F300
G1 X61.80826364327988 Y24.06650454938298 F300
G1 X61.83592645833332 Y24.09274975667597 F300
G1 X61.86436140642742 Y24.136397719889594 F300
G1 X61.8813201828913 Y24.18544301498899 F300
G1 X61.88712333333332 Y24.238270590009307 F300
G1 X61.88138851311199 Y24.291101629767994 F300
G1 X61.86448590807484 Y24.340145305115385 F300
G1 X61.83608520833333 Y24.383791423342636 F300
G1 X61.808439227173984 Y24.41002582332361 F300
G1 X61.77457360172022 Y24.430642565372494 F300
G1 X61.73323155867627 Y24.44462305496609 F300
G1 X61.68265333333332 Y24.449937256675973 F300
G1 X54.01636888888889 Y24.449937256675973 F300
G1 X50.17003277777778 Y24.449937256675973 F300
G1 X46.31480666666668 Y24.449937256675973 F300
G1 X41.989327777777774 Y24.449937256675973 F300
G1 X41.93886136227184 Y24.444627708222594 F300
G1 X41.897572070064044 Y24.430653578588803 F300
G1 X41.86371746783121 Y24.410036630635624 F300
G1 X41.83605465277777 Y24.38379142334264 F300
G1 X41.807619704683674 Y24.340143460129013 F300
G1 X41.79066092821979 Y24.291098165029616 F300
G1 X41.78485777777777 Y24.238270590009307 F300
G1 X41.790592597999115 Y24.185439550250617 F300
G1 X41.80749520303625 Y24.136395874903226 F300
G1 X41.83589590277777 Y24.09274975667597 F300
G1 X41.86354188393711 Y24.066515356694996 F300
G1 X41.897407509390874 Y24.04589861464612 F300
G1 X41.93874955243482 Y24.031918125052517 F300
G1 X41.989327777777774 Y24.026603923342638 F300
G1 X41.989327777777774 Y24.026603923342638 F300;svg#Layer_2 > g#Layer_2-2 > path
G0 X61.42921777777778 Y24.22190170112042
G1 X54.43956111111112 Y17.215170590009304 F300
G1 X52.45666777777778 Y15.227479478898193 F300
G1 X52.424729619549524 Y15.187927551704716 F300
G1 X52.40541526688717 Y15.1487649364191 F300
G1 X52.39606078692348 Y15.110186631572317 F300
G1 X52.39506616319445 Y15.072030155981524 F300
G1 X52.40583884406031 Y15.02101332086717 F300
G1 X52.428542424323176 Y14.974331252610716 F300
G1 X52.46180069444444 Y14.932892395564858 F300
G1 X52.503222965115526 Y14.899620767064238 F300
G1 X52.54985526004218 Y14.87694201770734 F300
G1 X52.60079293402778 Y14.866224010148194 F300
G1 X52.638876025212525 Y14.867273159089844 F300
G1 X52.677380942062 Y14.876696257386609 F300
G1 X52.71647507422476 Y14.896104992061003 F300
G1 X52.755964444444444 Y14.928182812231526 F300
G1 X59.74562111111111 Y21.934913923342638 F300
G1 X61.72851444444444 Y23.92260503445375 F300
G1 X61.76045260267271 Y23.96215696164722 F300
G1 X61.77976695533506 Y24.001319576932843 F300
G1 X61.78912143529874 Y24.03989788177962 F300
G1 X61.79011605902778 Y24.078054357370416 F300
G1 X61.77934337816192 Y24.129071192484773 F300
G1 X61.75663979789905 Y24.175753260741224 F300
G1 X61.723381527777775 Y24.217192117787086 F300
G1 X61.6819592571067 Y24.250463746287707 F300
G1 X61.635326962180045 Y24.273142495644606 F300
G1 X61.584389288194444 Y24.28386050320375 F300
G1 X61.546306197009685 Y24.2828113542621 F300
G1 X61.50780128016022 Y24.273388255965333 F300
G1 X61.46870714799747 Y24.253979521290944 F300
G1 X61.42921777777778 Y24.22190170112042 F300
G1 X61.42921777777778 Y24.22190170112042 F300;svg#Layer_2 > g#Layer_2-2 > path
G0 X52.72209777777778 Y15.012143923342643
G1 X52.72209777777778 Y20.569381701120424 F300
G1 X52.71678822932441 Y20.61984811662635 F300
G1 X52.70281409969062 Y20.661137408834158 F300
G1 X52.682197151737434 Y20.694992011066986 F300
G1 X52.65595194444445 Y20.722654826120426 F300
G1 X52.61230398123084 Y20.751089774214513 F300
G1 X52.563258686131434 Y20.768048550678394 F300
G1 X52.51043111111111 Y20.773851701120424 F300
G1 X52.457600071352424 Y20.768116880899086 F300
G1 X52.40855639600504 Y20.75121427586194 F300
G1 X52.36491027777778 Y20.722813576120423 F300
G1 X52.3386758777968 Y20.695167594961088 F300
G1 X52.31805913574792 Y20.66130196950732 F300
G1 X52.30407864615433 Y20.619959926463377 F300
G1 X52.298764444444444 Y20.569381701120424 F300
G1 X52.298764444444444 Y15.012143923342643 F300
G1 X52.30407399289782 Y14.961677507836718 F300
G1 X52.31804812253162 Y14.92038821562891 F300
G1 X52.338665070484794 Y14.886533613396075 F300
G1 X52.36491027777778 Y14.858870798342641 F300
G1 X52.4085582409914 Y14.830435850248547 F300
G1 X52.4576035360908 Y14.813477073784668 F300
G1 X52.51043111111112 Y14.80767392334264 F300
G1 X52.563262150869804 Y14.813408743563976 F300
G1 X52.612305826217195 Y14.830311348601121 F300
G1 X52.65595194444445 Y14.85871204834264 F300
G1 X52.68218634442543 Y14.886358029501977 F300
G1 X52.702803086474304 Y14.920223654955745 F300
G1 X52.7167835760679 Y14.961565697999687 F300
G1 X52.72209777777778 Y15.012143923342643 F300
G1 X52.72209777777778 Y15.012143923342643 F300;svg#Layer_2 > g#Layer_2-2 > path
G0 X52.348576666666666 Y20.94290281223153
G1 X33.288134444444445 Y20.94290281223153 F300
G1 X14.32491777777778 Y20.94290281223153 F300
G1 X3.627707777777781 Y20.94290281223153 F300
G1 X3.5772413622718546 Y20.937593263778155 F300
G1 X3.535952070064049 Y20.923619134144356 F300
G1 X3.502097467831215 Y20.903002186191184 F300
G1 X3.4744346527777803 Y20.876756978898197 F300
G1 X3.445999704683688 Y20.833109015684578 F300
G1 X3.4290409282198064 Y20.784063720585177 F300
G1 X3.4232377777777803 Y20.731236145564864 F300
G1 X3.428972597999117 Y20.678405105806178 F300
G1 X3.445875203036261 Y20.629361430458786 F300
G1 X3.474275902777781 Y20.585715312231535 F300
G1 X3.501921883937118 Y20.559480912250557 F300
G1 X3.535787509390883 Y20.538864170201677 F300
G1 X3.577129552434826 Y20.52488368060808 F300
G1 X3.627707777777781 Y20.519569478898198 F300
G1 X22.688150000000004 Y20.519569478898198 F300
G1 X41.65136666666667 Y20.519569478898198 F300
G1 X52.348576666666666 Y20.519569478898198 F300
G1 X52.3990430821726 Y20.524879027351574 F300
G1 X52.440332374380404 Y20.538853156985372 F300
G1 X52.47418697661322 Y20.559470104938537 F300
G1 X52.50184979166667 Y20.58571531223153 F300
G1 X52.530284739760766 Y20.629363275445154 F300
G1 X52.54724351622465 Y20.67840857054455 F300
G1 X52.553046666666674 Y20.731236145564864 F300
G1 X52.54731184644534 Y20.784067185323554 F300
G1 X52.53040924140818 Y20.833110860670942 F300
G1 X52.50200854166667 Y20.8767569788982 F300
G1 X52.47436256050733 Y20.90299137887917 F300
G1 X52.44049693505357 Y20.92360812092805 F300
G1 X52.39915489200962 Y20.93758861052165 F300
G1 X52.348576666666666 Y20.94290281223153 F300
G1 X52.348576666666666 Y20.94290281223153 F300;svg#Layer_2 > g#Layer_2-2 > path
G0 X3.5616677777777777 Y20.635562812231527
G1 X13.085538888888891 Y30.159433923342636 F300
G1 X22.559597777777782 Y39.63349281223153 F300
G1 X27.895008888888896 Y44.96890392334264 F300
G1 X27.927001753854945 Y45.00841004670855 F300
G1 X27.946352984695604 Y45.047530730309035 F300
G1 X27.955734205839157 Y45.086070806184956 F300
G1 X27.956749409722224 Y45.12419449625931 F300
G1 X27.9459969193626 Y45.175175324462955 F300
G1 X27.923301291770446 Y45.221839936712264 F300
G1 X27.890034722222225 Y45.263279340009305 F300
G1 X27.84860347278662 Y45.296554310152274 F300
G1 X27.801950500395808 Y45.3192519478724 F300
G1 X27.75098295138889 Y45.330000642092635 F300
G1 X27.71287102611633 Y45.328979188290795 F300
G1 X27.67433911019676 Y45.31958833800526 F300
G1 X27.635221445387025 Y45.30022096048666 F300
G1 X27.595712222222225 Y45.2682005900093 F300
G1 X18.071841111111105 Y35.74432947889819 F300
G1 X8.59778222222222 Y26.2702705900093 F300
G1 X3.2623711111111087 Y20.93485947889819 F300
G1 X3.2303782461450634 Y20.895353355532283 F300
G1 X3.211027015304396 Y20.856232671931785 F300
G1 X3.201645794160841 Y20.817692596055874 F300
G1 X3.2006305902777754 Y20.77956890598152 F300
G1 X3.2113830806374 Y20.728588077777868 F300
G1 X3.234078708229556 Y20.681923465528573 F300
G1 X3.2673452777777747 Y20.640484062231522 F300
G1 X3.3087765272133796 Y20.607209092088546 F300
G1 X3.355429499604191 Y20.58451145436842 F300
G1 X3.406397048611108 Y20.573762760148185 F300
G1 X3.444508973883673 Y20.574784213950032 F300
G1 X3.483040889803242 Y20.584175064235566 F300
G1 X3.5221585546129734 Y20.603542441754165 F300
G1 X3.5616677777777745 Y20.63556281223152 F300
G1 X3.5616677777777745 Y20.63556281223152 F300
G1 X3.5616677777777777 Y20.635562812231527 F300;svg#Layer_2 > g#Layer_2-2 > path
G0 X27.691385555555552 Y44.79914725667598
G1 X50.83784111111111 Y44.79914725667598 F300
G1 X50.88830752661702 Y44.80445680512934 F300
G1 X50.929596818824834 Y44.81843093476314 F300
G1 X50.96345142105767 Y44.83904788271631 F300
G1 X50.99111423611111 Y44.86529309000931 F300
G1 X51.019549184205204 Y44.908941053222925 F300
G1 X51.03650796066907 Y44.95798634832233 F300
G1 X51.04231111111111 Y45.010813923342646 F300
G1 X51.03657629088978 Y45.063644963101325 F300
G1 X51.01967368585263 Y45.112688638448724 F300
G1 X50.99127298611111 Y45.156334756675975 F300
G1 X50.963627004951775 Y45.18256915665695 F300
G1 X50.92976137949802 Y45.203185898705826 F300
G1 X50.888419336454064 Y45.217166388299425 F300
G1 X50.83784111111111 Y45.222480590009305 F300
G1 X27.691385555555552 Y45.222480590009305 F300
G1 X27.640919140049633 Y45.21717104155594 F300
G1 X27.599629847841815 Y45.203196911922134 F300
G1 X27.565775245608986 Y45.18257996396897 F300
G1 X27.538112430555554 Y45.15633475667597 F300
G1 X27.509677482461452 Y45.11268679346235 F300
G1 X27.49271870599758 Y45.06364149836296 F300
G1 X27.486915555555548 Y45.01081392334264 F300
G1 X27.492650375776886 Y44.95798288358395 F300
G1 X27.509552980814032 Y44.90893920823657 F300
G1 X27.537953680555553 Y44.86529309000931 F300
G1 X27.565599661714884 Y44.83905869002833 F300
G1 X27.599465287168655 Y44.81844194797946 F300
G1 X27.640807330212596 Y44.80446145838586 F300
G1 X27.691385555555552 Y44.79914725667598 F300
G1 X27.691385555555552 Y44.79914725667598 F300;svg#Layer_2 > g#Layer_2-2 > path
G0 X50.634217777777785 Y45.16039170112042
G1 X44.448753333333336 Y38.97492725667597 F300
G1 X42.70292666666667 Y37.22910059000931 F300
G1 X42.67093380170063 Y37.189594466643406 F300
G1 X42.65158257085995 Y37.1504737830429 F300
G1 X42.64220134971641 Y37.11193370716699 F300
G1 X42.64118614583334 Y37.07381001709264 F300
G1 X42.65193863619296 Y37.022829188888984 F300
G1 X42.67463426378511 Y36.97616457663968 F300
G1 X42.70790083333333 Y36.93472517334264 F300
G1 X42.749332082768944 Y36.901450203199666 F300
G1 X42.79598505515975 Y36.87875256547954 F300
G1 X42.84695260416667 Y36.868003871259305 F300
G1 X42.885064529439234 Y36.86902532506115 F300
G1 X42.92359644535881 Y36.878416175346686 F300
G1 X42.962714110168534 Y36.89778355286528 F300
G1 X43.00222333333333 Y36.92980392334264 F300
G1 X49.187687777777775 Y43.11526836778708 F300
G1 X50.93351444444445 Y44.861095034453754 F300
G1 X50.96550730941049 Y44.900601157819665 F300
G1 X50.98485854025117 Y44.93972184142015 F300
G1 X50.99423976139472 Y44.97826191729607 F300
G1 X50.99525496527778 Y45.01638560737042 F300
G1 X50.984502474918166 Y45.06736643557407 F300
G1 X50.961806847325995 Y45.114031047823374 F300
G1 X50.92854027777778 Y45.155470451120415 F300
G1 X50.88710902834217 Y45.188745421263384 F300
G1 X50.840456055951364 Y45.21144305898352 F300
G1 X50.789488506944444 Y45.22219175320376 F300
G1 X50.75137658167188 Y45.22117029940191 F300
G1 X50.712844665752314 Y45.21177944911637 F300
G1 X50.673727000942584 Y45.19241207159777 F300
G1 X50.634217777777785 Y45.16039170112042 F300
G1 X50.634217777777785 Y45.16039170112042 F300;svg#Layer_2 > g#Layer_2-2 > path
G0 X42.63674555555556 Y37.39899836778709
G1 X34.08371888888888 Y37.39899836778709 F300
G1 X31.629937777777776 Y37.39899836778709 F300
G1 X31.579471362271857 Y37.39368881933371 F300
G1 X31.53818207006404 Y37.37971468969991 F300
G1 X31.504327467831203 Y37.35909774174674 F300
G1 X31.476664652777778 Y37.33285253445376 F300
G1 X31.448229704683687 Y37.28920457124013 F300
G1 X31.431270928219803 Y37.24015927614073 F300
G1 X31.42546777777778 Y37.187331701120414 F300
G1 X31.431202597999114 Y37.13450066136172 F300
G1 X31.448105203036256 Y37.085456986014336 F300
G1 X31.476505902777777 Y37.041810867787085 F300
G1 X31.504151883937112 Y37.015576467806106 F300
G1 X31.538017509390876 Y36.99495972575723 F300
G1 X31.579359552434823 Y36.980979236163634 F300
G1 X31.629937777777776 Y36.97566503445375 F300
G1 X40.18296444444445 Y36.97566503445375 F300
G1 X42.63674555555556 Y36.97566503445375 F300
G1 X42.68721197106149 Y36.98097458290713 F300
G1 X42.728501263269294 Y36.994948712540925 F300
G1 X42.76235586550214 Y37.01556566049409 F300
G1 X42.79001868055556 Y37.04181086778708 F300
G1 X42.818453628649664 Y37.0854588310007 F300
G1 X42.835412405113544 Y37.13450412610011 F300
G1 X42.841215555555564 Y37.18733170112042 F300
G1 X42.83548073533423 Y37.24016274087911 F300
G1 X42.81857813029708 Y37.28920641622649 F300
G1 X42.79017743055556 Y37.33285253445375 F300
G1 X42.76253144939622 Y37.35908693443473 F300
G1 X42.72866582394246 Y37.37970367648361 F300
G1 X42.68732378089852 Y37.39368416607721 F300
G1 X42.63674555555556 Y37.39899836778709 F300
G1 X42.63674555555556 Y37.39899836778709 F300;svg#Layer_2 > g#Layer_2-2 > path
G0 X31.61780222222222 Y37.19960836778708
G1 X35.12483666666667 Y40.706642812231536 F300
G1 X35.15682953163271 Y40.746148935597446 F300
G1 X35.176180762473386 Y40.78526961919794 F300
G1 X35.18556198361693 Y40.82380969507385 F300
G1 X35.1865771875 Y40.861933385148205 F300
G1 X35.17582469714037 Y40.91291421335185 F300
G1 X35.15312906954822 Y40.95957882560115 F300
G1 X35.119862499999996 Y41.001018228898204 F300
G1 X35.07843125056439 Y41.03429319904117 F300
G1 X35.03177827817358 Y41.0569908367613 F300
G1 X34.98081072916666 Y41.06773953098153 F300
G1 X34.942698803894096 Y41.06671807717969 F300
G1 X34.904166887974526 Y41.057327226894145 F300
G1 X34.865049223164796 Y41.037959849375554 F300
G1 X34.82553999999999 Y41.00593947889819 F300
G1 X31.31850555555555 Y37.49890503445375 F300
G1 X31.2865126905895 Y37.45939891108784 F300
G1 X31.267161459748838 Y37.420278227487344 F300
G1 X31.257780238605285 Y37.381738151611444 F300
G1 X31.256765034722218 Y37.343614461537086 F300
G1 X31.267517525081832 Y37.29263363333342 F300
G1 X31.290213152673996 Y37.245969021084136 F300
G1 X31.32347972222221 Y37.204529617787074 F300
G1 X31.364910971657814 Y37.17125464764411 F300
G1 X31.411563944048623 Y37.14855700992398 F300
G1 X31.462531493055543 Y37.13780831570375 F300
G1 X31.50064341832811 Y37.13882976950559 F300
G1 X31.539175334247677 Y37.148220619791125 F300
G1 X31.578292999057407 Y37.16758799730972 F300
G1 X31.617802222222213 Y37.19960836778708 F300
G1 X31.617802222222213 Y37.19960836778708 F300
G1 X31.61780222222222 Y37.19960836778708 F300;svg#Layer_2 > g#Layer_2-2 > path
G0 X35.02916333333333 Y40.698599478898196
G1 X41.665477777777774 Y40.698599478898196 F300
G1 X41.7159441932837 Y40.70390902735157 F300
G1 X41.757233485491504 Y40.717883156985366 F300
G1 X41.79108808772434 Y40.738500104938545 F300
G1 X41.81875090277777 Y40.76474531223153 F300
G1 X41.84718585087187 Y40.808393275445155 F300
G1 X41.864144627335754 Y40.85743857054456 F300
G1 X41.869947777777774 Y40.91026614556486 F300
G1 X41.86421295755644 Y40.96309718532355 F300
G1 X41.847310352519294 Y41.01214086067094 F300
G1 X41.818909652777776 Y41.0557869788982 F300
G1 X41.79126367161844 Y41.082021378879176 F300
G1 X41.757398046164674 Y41.10263812092806 F300
G1 X41.71605600312073 Y41.116618610521655 F300
G1 X41.665477777777774 Y41.121932812231535 F300
G1 X35.02916333333333 Y41.121932812231535 F300
G1 X34.97869691782741 Y41.11662326377816 F300
G1 X34.9374076256196 Y41.10264913414436 F300
G1 X34.90355302338677 Y41.08203218619119 F300
G1 X34.875890208333324 Y41.055786978898205 F300
G1 X34.847455260239244 Y41.01213901568459 F300
G1 X34.830496483775356 Y40.96309372058518 F300
G1 X34.82469333333333 Y40.91026614556487 F300
G1 X34.830428153554664 Y40.85743510580617 F300
G1 X34.84733075859181 Y40.808391430458784 F300
G1 X34.87573145833333 Y40.76474531223153 F300
G1 X34.90337743949266 Y40.73851091225055 F300
G1 X34.93724306494643 Y40.71789417020168 F300
G1 X34.97858510799038 Y40.70391368060808 F300
G1 X35.02916333333333 Y40.698599478898196 F300
G1 X35.02916333333333 Y40.698599478898196 F300;svg#Layer_2 > g#Layer_2-2 > path
G0 X41.515899999999995 Y40.95203503445375
G1 X39.89721444444444 Y39.33334947889819 F300
G1 X39.8652215794784 Y39.29384335553229 F300
G1 X39.84587034863774 Y39.2547226719318 F300
G1 X39.83648912749418 Y39.21618259605589 F300
G1 X39.835473923611104 Y39.17805890598152 F300
G1 X39.84622641397073 Y39.127078077777874 F300
G1 X39.86892204156289 Y39.08041346552857 F300
G1 X39.902188611111114 Y39.03897406223153 F300
G1 X39.94361986054672 Y39.00569909208855 F300
G1 X39.99027283293752 Y38.98300145436842 F300
G1 X40.04124038194445 Y38.972252760148194 F300
G1 X40.07935230721701 Y38.973274213950035 F300
G1 X40.11788422313658 Y38.982665064235576 F300
G1 X40.15700188794631 Y39.00203244175417 F300
G1 X40.19651111111111 Y39.03405281223152 F300
G1 X41.81519666666666 Y40.65273836778709 F300
G1 X41.84718953163271 Y40.69224449115299 F300
G1 X41.86654076247337 Y40.73136517475349 F300
G1 X41.87592198361693 Y40.7699052506294 F300
G1 X41.87693718749998 Y40.80802894070375 F300
G1 X41.86618469714037 Y40.8590097689074 F300
G1 X41.84348906954821 Y40.9056743811567 F300
G1 X41.810222499999995 Y40.94711378445375 F300
G1 X41.76879125056439 Y40.98038875459672 F300
G1 X41.722138278173574 Y41.00308639231685 F300
G1 X41.67117072916666 Y41.013835086537085 F300
G1 X41.633058803894095 Y41.01281363273524 F300
G1 X41.594526887974524 Y41.0034227824497 F300
G1 X41.555409223164794 Y40.984055404931105 F300
G1 X41.515899999999995 Y40.95203503445375 F300
G1 X41.515899999999995 Y40.95203503445375 F300;svg#Layer_2 > g#Layer_2-2 > path
G0 X40.046933333333335 Y38.971963923342635
G1 X57.47415555555556 Y38.971963923342635 F300
G1 X57.52462197106149 Y38.97727347179602 F300
G1 X57.56591126326929 Y38.99124760142981 F300
G1 X57.59976586550213 Y39.011864549382985 F300
G1 X57.62742868055555 Y39.038109756675965 F300
G1 X57.65586362864965 Y39.08175771988959 F300
G1 X57.67282240511353 Y39.13080301498899 F300
G1 X57.67862555555556 Y39.18363059000931 F300
G1 X57.67289073533422 Y39.236461629767994 F300
G1 X57.655988130297075 Y39.28550530511538 F300
G1 X57.62758743055556 Y39.32915142334264 F300
G1 X57.59994144939622 Y39.355385823323616 F300
G1 X57.56607582394247 Y39.3760025653725 F300
G1 X57.524733780898515 Y39.389983054966095 F300
G1 X57.47415555555556 Y39.395297256675974 F300
G1 X40.046933333333335 Y39.395297256675974 F300
G1 X39.99646691782742 Y39.3899877082226 F300
G1 X39.9551776256196 Y39.3760135785888 F300
G1 X39.92132302338676 Y39.35539663063564 F300
G1 X39.89366020833333 Y39.32915142334264 F300
G1 X39.86522526023925 Y39.28550346012903 F300
G1 X39.848266483775355 Y39.236458165029624 F300
G1 X39.842463333333335 Y39.1836305900093 F300
G1 X39.84819815355467 Y39.130799550250615 F300
G1 X39.865100758591815 Y39.08175587490322 F300
G1 X39.89350145833333 Y39.038109756675965 F300
G1 X39.92114743949267 Y39.011875356695 F300
G1 X39.955013064946435 Y38.991258614646114 F300
G1 X39.99635510799038 Y38.977278125052514 F300
G1 X40.046933333333335 Y38.971963923342635 F300
G1 X40.046933333333335 Y38.971963923342635 F300;svg#Layer_2 > g#Layer_2-2 > path
G0 X57.20858444444444 Y39.12972614556486
G1 X57.20858444444444 Y32.16956170112041 F300
G1 X57.21389399289782 Y32.119095285614485 F300
G1 X57.22786812253162 Y32.077805993406685 F300
G1 X57.24848507048478 Y32.04395139117385 F300
G1 X57.27473027777776 Y32.01628857612041 F300
G1 X57.31837824099139 Y31.987853628026322 F300
G1 X57.3674235360908 Y31.97089485156244 F300
G1 X57.4202511111111 Y31.965091701120414 F300
G1 X57.47308215086979 Y31.97082652134175 F300
G1 X57.52212582621718 Y31.987729126378888 F300
G1 X57.565771944444435 Y32.01612982612041 F300
G1 X57.592006344425414 Y32.04377580727975 F300
G1 X57.61262308647429 Y32.077641432733515 F300
G1 X57.626603576067886 Y32.118983475777455 F300
G1 X57.63191777777777 Y32.16956170112041 F300
G1 X57.63191777777777 Y39.12972614556486 F300
G1 X57.62660822932442 Y39.18019256107079 F300
G1 X57.612634099690595 Y39.22148185327858 F300
G1 X57.59201715173744 Y39.255336455511426 F300
G1 X57.565771944444435 Y39.28299927056486 F300
G1 X57.52212398123083 Y39.31143421865896 F300
G1 X57.47307868613143 Y39.32839299512285 F300
G1 X57.42025111111111 Y39.33419614556486 F300
G1 X57.36742007135242 Y39.328461325343525 F300
G1 X57.318376396005036 Y39.31155872030638 F300
G1 X57.27473027777776 Y39.28315802056487 F300
G1 X57.2484958777968 Y39.25551203940553 F300
G1 X57.22787913574791 Y39.22164641395176 F300
G1 X57.21389864615432 Y39.18030437090782 F300
G1 X57.20858444444444 Y39.12972614556486 F300
G1 X57.20858444444444 Y39.12972614556486 F300;svg#Layer_2 > g#Layer_2-2 > path
G0 X57.36620555555556 Y32.38122836778708
G1 X45.92788 Y32.38122836778708 F300
G1 X45.87741358449407 Y32.375918819333705 F300
G1 X45.83612429228627 Y32.36194468969991 F300
G1 X45.80226969005344 Y32.34132774174674 F300
G1 X45.77460687500001 Y32.31508253445375 F300
G1 X45.74617192690592 Y32.27143457124013 F300
G1 X45.72921315044203 Y32.222389276140724 F300
G1 X45.72341000000001 Y32.169561701120415 F300
G1 X45.72914482022134 Y32.11673066136173 F300
G1 X45.746047425258496 Y32.06768698601434 F300
G1 X45.774448125000006 Y32.024040867787086 F300
G1 X45.80209410615933 Y31.997806467806107 F300
G1 X45.8359597316131 Y31.97718972575723 F300
G1 X45.87730177465705 Y31.963209236163635 F300
G1 X45.92788 Y31.957895034453752 F300
G1 X57.36620555555556 Y31.957895034453752 F300
G1 X57.41667197106149 Y31.963204582907128 F300
G1 X57.45796126326928 Y31.97717871254092 F300
G1 X57.491815865502126 Y31.9977956604941 F300
G1 X57.51947868055556 Y32.024040867787086 F300
G1 X57.54791362864965 Y32.06768883100071 F300
G1 X57.564872405113526 Y32.1167341261001 F300
G1 X57.57067555555555 Y32.169561701120415 F300
G1 X57.56494073533422 Y32.22239274087911 F300
G1 X57.54803813029707 Y32.27143641622649 F300
G1 X57.51963743055556 Y32.31508253445375 F300
G1 X57.491991449396224 Y32.34131693443472 F300
G1 X57.45812582394247 Y32.3619336764836 F300
G1 X57.41678378089851 Y32.375914166077195 F300
G1 X57.36620555555556 Y32.38122836778708 F300
G1 X57.36620555555556 Y32.38122836778708 F300;svg#Layer_2 > g#Layer_2-2 > path
G0 X46.0775988888889 Y32.073888367787085
G1 X52.545708888888896 Y38.541998367787095 F300
G1 X54.38664444444444 Y40.38293392334264 F300
G1 X54.41863730941049 Y40.422440046708545 F300
G1 X54.43798854025115 Y40.461560730309046 F300
G1 X54.44736976139471 Y40.50010080618495 F300
G1 X54.44838496527778 Y40.5382244962593 F300
G1 X54.43763247491816 Y40.58920532446296 F300
G1 X54.414936847326 Y40.63586993671226 F300
G1 X54.38167027777778 Y40.67730934000931 F300
G1 X54.34023902834218 Y40.710584310152285 F300
G1 X54.293586055951366 Y40.73328194787241 F300
G1 X54.24261850694445 Y40.74403064209264 F300
G1 X54.20450658167188 Y40.7430091882908 F300
G1 X54.165974665752316 Y40.73361833800526 F300
G1 X54.12685700094258 Y40.71425096048666 F300
G1 X54.08734777777778 Y40.682230590009304 F300
G1 X47.61923777777778 Y34.21412059000931 F300
G1 X45.77830222222224 Y32.373185034453755 F300
G1 X45.74630935725619 Y32.33367891108785 F300
G1 X45.72695812641553 Y32.29455822748736 F300
G1 X45.71757690527197 Y32.25601815161145 F300
G1 X45.7165617013889 Y32.21789446153709 F300
G1 X45.72731419174851 Y32.16691363333343 F300
G1 X45.75000981934069 Y32.12024902108414 F300
G1 X45.78327638888891 Y32.078809617787094 F300
G1 X45.824707638324504 Y32.04553464764412 F300
G1 X45.87136061071532 Y32.02283700992399 F300
G1 X45.922328159722234 Y32.01208831570375 F300
G1 X45.9604400849948 Y32.0131097695056 F300
G1 X45.99897200091437 Y32.02250061979113 F300
G1 X46.0380896657241 Y32.04186799730973 F300
G1 X46.0775988888889 Y32.073888367787085 F300
G1 X46.0775988888889 Y32.073888367787085 F300;svg#Layer_2 > g#Layer_2-2 > path
G0 X54.23692555555555 Y40.37489059000931
G1 X69.88374888888887 Y40.37489059000931 F300
G1 X69.93421530439481 Y40.38020013846269 F300
G1 X69.9755045966026 Y40.394174268096485 F300
G1 X70.00935919883543 Y40.41479121604964 F300
G1 X70.03702201388887 Y40.44103642334264 F300
G1 X70.06545696198296 Y40.48468438655626 F300
G1 X70.08241573844684 Y40.533729681655664 F300
G1 X70.08821888888887 Y40.58655725667597 F300
G1 X70.08248406866754 Y40.63938829643467 F300
G1 X70.0655814636304 Y40.68843197178205 F300
G1 X70.03718076388887 Y40.73207809000931 F300
G1 X70.00953478272955 Y40.75831248999029 F300
G1 X69.97566915727577 Y40.77892923203916 F300
G1 X69.93432711423183 Y40.79290972163275 F300
G1 X69.88374888888887 Y40.79822392334264 F300
G1 X54.23692555555555 Y40.79822392334264 F300
G1 X54.18645914004963 Y40.792914374889264 F300
G1 X54.145169847841814 Y40.77894024525546 F300
G1 X54.111315245608985 Y40.75832329730228 F300
G1 X54.083652430555546 Y40.7320780900093 F300
G1 X54.055217482461465 Y40.68843012679569 F300
G1 X54.03825870599758 Y40.63938483169628 F300
G1 X54.03245555555556 Y40.58655725667598 F300
G1 X54.038190375776885 Y40.53372621691728 F300
G1 X54.05509298081404 Y40.484682541569896 F300
G1 X54.08349368055555 Y40.44103642334264 F300
G1 X54.11113966171489 Y40.414802023361666 F300
G1 X54.14500528716866 Y40.39418528131279 F300
G1 X54.1863473302126 Y40.38020479171919 F300
G1 X54.23692555555555 Y40.37489059000931 F300
G1 X54.23692555555555 Y40.37489059000931 F300;svg#Layer_2 > g#Layer_2-2 > path
G0 X69.51008666666667 Y40.53251170112041
G1 X69.51008666666667 Y28.411490590009308 F300
G1 X69.51008666666667 Y16.290469478898192 F300
G1 X69.51008666666667 Y9.45476503445375 F300
G1 X69.51539621512003 Y9.404298618947825 F300
G1 X69.52937034475381 Y9.363009326740016 F300
G1 X69.54998729270702 Y9.329154724507188 F300
G1 X69.5762325 Y9.30149190945375 F300
G1 X69.6198804632136 Y9.273056961359655 F300
G1 X69.66892575831302 Y9.256098184895773 F300
G1 X69.72175333333333 Y9.250295034453746 F300
G1 X69.77458437309203 Y9.256029854675084 F300
G1 X69.8236280484394 Y9.272932459712226 F300
G1 X69.86727416666666 Y9.301333159453748 F300
G1 X69.89350856664763 Y9.328979140613084 F300
G1 X69.91412530869653 Y9.36284476606685 F300
G1 X69.92810579829012 Y9.404186809110795 F300
G1 X69.93342 Y9.45476503445375 F300
G1 X69.93342 Y21.57578614556486 F300
G1 X69.93342 Y33.69680725667597 F300
G1 X69.93342 Y40.53251170112041 F300
G1 X69.92811045154663 Y40.58297811662634 F300
G1 X69.91413632191282 Y40.62426740883415 F300
G1 X69.89351937395968 Y40.65812201106699 F300
G1 X69.86727416666668 Y40.68578482612042 F300
G1 X69.82362620345305 Y40.714219774214506 F300
G1 X69.77458090835364 Y40.731178550678386 F300
G1 X69.72175333333334 Y40.73698170112042 F300
G1 X69.66892229357464 Y40.73124688089908 F300
G1 X69.61987861822726 Y40.71434427586193 F300
G1 X69.5762325 Y40.68594357612041 F300
G1 X69.54999810001902 Y40.65829759496107 F300
G1 X69.52938135797015 Y40.624431969507306 F300
G1 X69.51540086837655 Y40.58308992646337 F300
G1 X69.51008666666667 Y40.53251170112041 F300
G1 X69.51008666666667 Y40.53251170112041 F300;svg#Layer_2 > g#Layer_2-2 > path
G0 X69.66784888888888 Y9.61252725667597
G1 X61.82193 Y9.61252725667597 F300
G1 X53.976011111111106 Y9.61252725667597 F300
G1 X49.54286444444444 Y9.61252725667597 F300
G1 X49.49239802893852 Y9.607217708222596 F300
G1 X49.45110873673071 Y9.593243578588798 F300
G1 X49.417254134497874 Y9.572626630635627 F300
G1 X49.38959131944444 Y9.546381423342636 F300
G1 X49.36115637135034 Y9.502733460129019 F300
G1 X49.34419759488647 Y9.453688165029618 F300
G1 X49.33839444444444 Y9.400860590009303 F300
G1 X49.34412926466577 Y9.348029550250613 F300
G1 X49.36103186970292 Y9.298985874903225 F300
G1 X49.38943256944444 Y9.255339756675971 F300
G1 X49.417078550603776 Y9.229105356694994 F300
G1 X49.45094417605755 Y9.208488614646116 F300
G1 X49.49228621910149 Y9.19450812505252 F300
G1 X49.54286444444444 Y9.189193923342637 F300
G1 X57.38878333333332 Y9.189193923342637 F300
G1 X65.23470222222223 Y9.189193923342637 F300
G1 X69.66784888888888 Y9.189193923342637 F300
G1 X69.7183153043948 Y9.194503471796011 F300
G1 X69.75960459660263 Y9.20847760142981 F300
G1 X69.79345919883545 Y9.229094549382982 F300
G1 X69.82112201388888 Y9.255339756675971 F300
G1 X69.84955696198297 Y9.29898771988959 F300
G1 X69.86651573844685 Y9.348033014988989 F300
G1 X69.87231888888888 Y9.400860590009305 F300
G1 X69.86658406866755 Y9.453691629767993 F300
G1 X69.8496814636304 Y9.502735305115383 F300
G1 X69.8212807638889 Y9.546381423342638 F300
G1 X69.79363478272955 Y9.572615823323613 F300
G1 X69.75976915727577 Y9.593232565372492 F300
G1 X69.71842711423183 Y9.607213054966088 F300
G1 X69.66784888888888 Y9.61252725667597 F300
G1 X69.66784888888888 Y9.61252725667597 F300;svg#Layer_2 > g#Layer_2-2 > path
G0 X49.700626666666665 Y9.400860590009303
G1 X49.700626666666665 Y16.570010590009304 F300
G1 X49.700626666666665 Y20.141409340009307 F300
G1 X49.700626666666665 Y23.704023923342636 F300
G1 X49.700626666666665 Y27.74544614556486 F300
G1 X49.69531711821329 Y27.795912561070782 F300
G1 X49.681342988579495 Y27.83720185327859 F300
G1 X49.66072604062633 Y27.871056455511425 F300
G1 X49.634480833333335 Y27.89871927056485 F300
G1 X49.590832870119705 Y27.927154218658945 F300
G1 X49.54178757502032 Y27.94411299512283 F300
G1 X49.48896 Y27.949916145564856 F300
G1 X49.43612896024131 Y27.944181325343514 F300
G1 X49.38708528489392 Y27.927278720306376 F300
G1 X49.34343916666667 Y27.898878020564855 F300
G1 X49.31720476668569 Y27.87123203940552 F300
G1 X49.296588024636804 Y27.837366413951752 F300
G1 X49.28260753504322 Y27.796024370907816 F300
G1 X49.27729333333333 Y27.74544614556486 F300
G1 X49.27729333333333 Y20.576296145564857 F300
G1 X49.27729333333333 Y13.442282812231525 F300
G1 X49.27729333333333 Y9.400860590009303 F300
G1 X49.282602881786715 Y9.350394174503379 F300
G1 X49.2965770114205 Y9.309104882295571 F300
G1 X49.317193959373675 Y9.275250280062737 F300
G1 X49.34343916666667 Y9.247587465009303 F300
G1 X49.3870871298803 Y9.219152516915212 F300
G1 X49.436132424979704 Y9.20219374045133 F300
G1 X49.48896 Y9.196390590009301 F300
G1 X49.541791039758685 Y9.20212541023064 F300
G1 X49.590834715106084 Y9.219028015267783 F300
G1 X49.63448083333333 Y9.247428715009303 F300
G1 X49.66071523331431 Y9.27507469616864 F300
G1 X49.68133197536319 Y9.308940321622405 F300
G1 X49.69531246495677 Y9.350282364666347 F300
G1 X49.700626666666665 Y9.400860590009303 F300
G1 X49.700626666666665 Y9.400860590009303 F300;svg#Layer_2 > g#Layer_2-2 > path
G0 X49.48896 Y28.064921701120415
G1 X37.144983333333336 Y28.064921701120415 F300
G1 X24.765728888888876 Y28.064921701120415 F300
G1 X17.8178411111111 Y28.064921701120415 F300
G1 X17.767374695605177 Y28.059612152667043 F300
G1 X17.726085403397366 Y28.04563802303324 F300
G1 X17.69223080116453 Y28.025021075080065 F300
G1 X17.664567986111102 Y27.998775867787085 F300
G1 X17.636133038017007 Y27.955127904573466 F300
G1 X17.619174261553127 Y27.90608260947407 F300
G1 X17.6133711111111 Y27.85325503445375 F300
G1 X17.619105931332435 Y27.80042399469506 F300
G1 X17.63600853636958 Y27.75138031934767 F300
G1 X17.664409236111098 Y27.707734201120417 F300
G1 X17.692055217270436 Y27.68149980113944 F300
G1 X17.7259208427242 Y27.660883059090562 F300
G1 X17.767262885768144 Y27.646902569496966 F300
G1 X17.8178411111111 Y27.641588367787083 F300
G1 X30.161817777777767 Y27.641588367787083 F300
G1 X42.54107222222222 Y27.641588367787083 F300
G1 X49.48896 Y27.641588367787083 F300
G1 X49.539426415505936 Y27.646897916240462 F300
G1 X49.58071570771372 Y27.66087204587425 F300
G1 X49.61457030994658 Y27.681488993827433 F300
G1 X49.642233125000004 Y27.707734201120417 F300
G1 X49.6706680730941 Y27.75138216433404 F300
G1 X49.68762684955797 Y27.800427459433436 F300
G1 X49.693430000000006 Y27.85325503445375 F300
G1 X49.68769517977866 Y27.90608607421244 F300
G1 X49.67079257474152 Y27.955129749559827 F300
G1 X49.642391875 Y27.99877586778708 F300
G1 X49.614745893840656 Y28.025010267768053 F300
G1 X49.58088026838689 Y28.04562700981694 F300
G1 X49.53953822534296 Y28.059607499410536 F300
G1 X49.48896 Y28.064921701120415 F300
G1 X49.48896 Y28.064921701120415 F300;svg#Layer_2 > g#Layer_2-2 > path
G0 X17.97546222222222 Y27.907159478898198
G1 X17.97546222222222 Y30.550876145564864 F300
G1 X17.970152673768844 Y30.601342561070787 F300
G1 X17.956178544135046 Y30.64263185327859 F300
G1 X17.935561596181866 Y30.676486455511423 F300
G1 X17.90931638888889 Y30.70414927056486 F300
G1 X17.865668425675267 Y30.732584218658957 F300
G1 X17.81662313057587 Y30.74954299512284 F300
G1 X17.763795555555557 Y30.755346145564857 F300
G1 X17.710964515796867 Y30.749611325343523 F300
G1 X17.66192084044948 Y30.732708720306377 F300
G1 X17.618274722222225 Y30.70430802056486 F300
G1 X17.592040322241246 Y30.67666203940552 F300
G1 X17.57142358019237 Y30.64279641395176 F300
G1 X17.557443090598774 Y30.601454370907817 F300
G1 X17.55212888888889 Y30.550876145564864 F300
G1 X17.55212888888889 Y27.90715947889819 F300
G1 X17.55743843734227 Y27.856693063392264 F300
G1 X17.57141256697606 Y27.815403771184457 F300
G1 X17.592029514929234 Y27.78154916895162 F300
G1 X17.618274722222225 Y27.753886353898192 F300
G1 X17.661922685435844 Y27.725451405804098 F300
G1 X17.710967980535244 Y27.708492629340213 F300
G1 X17.763795555555554 Y27.70268947889819 F300
G1 X17.816626595314244 Y27.708424299119528 F300
G1 X17.86567027066163 Y27.72532690415667 F300
G1 X17.909316388888886 Y27.75372760389819 F300
G1 X17.93555078886986 Y27.78137358505753 F300
G1 X17.95616753091874 Y27.815239210511294 F300
G1 X17.970148020512337 Y27.856581253555234 F300
G1 X17.97546222222222 Y27.90715947889819 F300
G1 X17.97546222222222 Y27.90715947889819 F300
G1 X17.97546222222222 Y27.907159478898198 F300;svg#Layer_2 > g#Layer_2-2 > path
G0 X17.805564444444443 Y30.67110281223153
G1 X19.586104444444445 Y32.451642812231526 F300
G1 X19.618097309410494 Y32.49114893559744 F300
G1 X19.637448540251157 Y32.53026961919793 F300
G1 X19.646829761394713 Y32.568809695073845 F300
G1 X19.647844965277777 Y32.60693338514819 F300
G1 X19.637092474918152 Y32.65791421335185 F300
G1 X19.614396847325995 Y32.704578825601146 F300
G1 X19.581130277777774 Y32.746018228898194 F300
G1 X19.53969902834217 Y32.77929319904117 F300
G1 X19.493046055951357 Y32.8019908367613 F300
G1 X19.44207850694444 Y32.81273953098153 F300
G1 X19.40396658167188 Y32.81171807717969 F300
G1 X19.36543466575231 Y32.80232722689415 F300
G1 X19.326317000942574 Y32.78295984937555 F300
G1 X19.286807777777774 Y32.7509394788982 F300
G1 X17.506267777777776 Y30.970399478898198 F300
G1 X17.474274912811726 Y30.930893355532287 F300
G1 X17.45492368197106 Y30.891772671931786 F300
G1 X17.445542460827507 Y30.853232596055886 F300
G1 X17.44452725694444 Y30.815108905981532 F300
G1 X17.45527974730407 Y30.764128077777883 F300
G1 X17.47797537489622 Y30.71746346552859 F300
G1 X17.511241944444443 Y30.676024062231534 F300
G1 X17.552673193880047 Y30.642749092088557 F300
G1 X17.599326166270856 Y30.620051454368433 F300
G1 X17.650293715277776 Y30.6093027601482 F300
G1 X17.68840564055034 Y30.610324213950044 F300
G1 X17.72693755646991 Y30.61971506423558 F300
G1 X17.76605522127964 Y30.639082441754173 F300
G1 X17.805564444444443 Y30.67110281223153 F300
G1 X17.805564444444443 Y30.67110281223153 F300
G1 X17.805564444444443 Y30.67110281223153 F300;svg#Layer_2 > g#Layer_2-2 > path
G0 X19.382481111111108 Y32.75898281223153
G1 X11.12748111111111 Y32.75898281223153 F300
G1 X11.077014695605184 Y32.753673263778154 F300
G1 X11.035725403397379 Y32.73969913414436 F300
G1 X11.001870801164545 Y32.71908218619118 F300
G1 X10.974207986111109 Y32.69283697889819 F300
G1 X10.945773038017016 Y32.64918901568458 F300
G1 X10.928814261553134 Y32.60014372058517 F300
G1 X10.923011111111109 Y32.54731614556486 F300
G1 X10.928745931332447 Y32.49448510580617 F300
G1 X10.94564853636959 Y32.445441430458786 F300
G1 X10.97404923611111 Y32.40179531223152 F300
G1 X11.001695217270445 Y32.37556091225054 F300
G1 X11.035560842724212 Y32.35494417020167 F300
G1 X11.076902885768153 Y32.34096368060807 F300
G1 X11.12748111111111 Y32.33564947889819 F300
G1 X19.382481111111108 Y32.33564947889819 F300
G1 X19.432947526617035 Y32.340959027351566 F300
G1 X19.47423681882484 Y32.35493315698537 F300
G1 X19.50809142105767 Y32.375550104938526 F300
G1 X19.535754236111107 Y32.40179531223152 F300
G1 X19.564189184205198 Y32.44544327544515 F300
G1 X19.581147960669085 Y32.49448857054455 F300
G1 X19.58695111111111 Y32.547316145564864 F300
G1 X19.581216290889774 Y32.60014718532355 F300
G1 X19.564313685852625 Y32.64919086067094 F300
G1 X19.535912986111107 Y32.6928369788982 F300
G1 X19.50826700495177 Y32.71907137887917 F300
G1 X19.474401379498005 Y32.73968812092805 F300
G1 X19.43305933645406 Y32.75366861052164 F300
G1 X19.382481111111108 Y32.75898281223153 F300
G1 X19.382481111111108 Y32.75898281223153 F300;svg#Layer_2 > g#Layer_2-2 > path
G0 X10.861768888888891 Y32.547316145564864
G1 X10.861768888888891 Y31.3602894788982 F300
G1 X10.86527527910596 Y31.323633498543963 F300
G1 X10.875266771140149 Y31.28843438331257 F300
G1 X10.891245432098767 Y31.255051948034005 F300
G1 X10.9124914586042 Y31.224661727216148 F300
G1 X10.938112827710452 Y31.19834735049092 F300
G1 X10.967759012345681 Y31.176625528280915 F300
G1 X11.000559100049083 Y31.160548345507266 F300
G1 X11.035774347823082 Y31.15094697087565 F300
G1 X11.073435555555557 Y31.14862281223153 F300
G1 X11.11609595631116 Y31.15448203224531 F300
G1 X11.155266921821182 Y31.167381913929248 F300
G1 X11.190735492373467 Y31.186601669601707 F300
G1 X11.22213138888889 Y31.211858228898194 F300
G1 X11.24812789172534 Y31.24230530409293 F300
G1 X11.267756072428263 Y31.277075351090925 F300
G1 X11.280472911768491 Y31.316282821665414 F300
G1 X11.285102222222223 Y31.3602894788982 F300
G1 X11.285102222222223 Y32.547316145564864 F300
G1 X11.281595832005152 Y32.58397212591909 F300
G1 X11.271604339970965 Y32.61917124115049 F300
G1 X11.255625679012347 Y32.652553676429065 F300
G1 X11.234379652506913 Y32.6829438972469 F300
G1 X11.208758283400662 Y32.70925827397214 F300
G1 X11.179112098765433 Y32.73098009618215 F300
G1 X11.146312011062031 Y32.74705727895579 F300
G1 X11.11109676328803 Y32.7566586535874 F300
G1 X11.073435555555557 Y32.75898281223153 F300
G1 X11.030775154799954 Y32.75312359221774 F300
G1 X10.99160418928993 Y32.7402237105338 F300
G1 X10.956135618737648 Y32.72100395486135 F300
G1 X10.924739722222224 Y32.69574739556486 F300
G1 X10.898743219385773 Y32.66530032037012 F300
G1 X10.879115038682851 Y32.63053027337212 F300
G1 X10.866398199342624 Y32.59132280279765 F300
G1 X10.861768888888891 Y32.547316145564864 F300
G1 X10.861768888888891 Y32.547316145564864 F300;svg#Layer_2 > g#Layer_2-2 > ellipse
G0 X52.03164111111111 Y39.42972836778709
G1 X52.02364166299586 Y39.24684751170197 F300
G1 X51.999644594120994 Y39.064125390903236 F300
G1 X51.95964239433905 Y38.88167784906238 F300
G1 X51.903614933552745 Y38.699621379646615 F300
G1 X51.83152931245453 Y38.51807347350252 F300
G1 X51.74333961546245 Y38.337152978061546 F300
G1 X51.63898656233747 Y38.156980472883774 F300
G1 X51.518397053443735 Y37.97767866667267 F300
G1 X51.38148360201278 Y37.7993728214586 F300
G1 X51.22814364507483 Y37.622191210385175 F300
G1 X51.05825872291203 Y37.44626561647289 F300
G1 X50.87169351496347 Y37.27173188092124 F300
G1 X50.66829471808502 Y37.09873051100003 F300
G1 X50.44788975097869 Y36.927407359446235 F300
G1 X50.21028526653817 Y36.757914389613184 F300
G1 X49.95526545197495 Y36.590410543540834 F300
G1 X49.68259009516558 Y36.42506273377972 F300
G1 X49.39199239516156 Y36.262046984404364 F300
G1 X49.08317649600585 Y36.10154975245514 F300
G1 X48.75581472715357 Y35.943769468364785 F300
G1 X48.409544542945895 Y35.78891834316819 F300
G1 X48.04396517101951 Y35.63722450194851 F300
G1 X47.658634010574204 Y35.48893451762203 F300
G1 X47.253062874634296 Y35.34431643742674 F300
G1 X46.826714259679456 Y35.20366341691167 F300
G1 X46.37899797363662 Y35.06729810303334 F300
G1 X45.909268695209974 Y34.93557793841146 F300
G1 X45.41682543154013 Y34.80890158992646 F300
G1 X44.90091447838904 Y34.68771672892055 F300
G1 X44.36073850818961 Y34.57252938972422 F300
G1 X43.795476023606554 Y34.46391507099164 F300
G1 X43.20431789480261 Y34.36253154618578 F300
G1 X42.586531338666155 Y34.26913287458594 F300
G1 X41.941566569448085 Y34.18458310316839 F300
G1 X41.269226626993415 Y34.109866232789685 F300
G1 X40.56992327614114 Y34.04608572751973 F300
G1 X39.84503285415596 Y33.99444206796827 F300
G1 X39.09732955916369 Y33.95617209532329 F300
G1 X38.33139294511603 Y33.93243448961129 F300
G1 X37.55377441061833 Y33.92414146047669 F300
G1 X37.53586111111111 Y33.92413725667596 F300
G1 X36.7547687957585 Y33.93213580360765 F300
G1 X35.97925624869716 Y33.955972265590084 F300
G1 X35.217597435960066 Y33.99500039822813 F300
G1 X34.476428481107135 Y34.04815728479227 F300
G1 X33.76031801078012 Y34.114161876521564 F300
G1 X33.071910489534424 Y34.19169193538204 F300
G1 X32.412366831827974 Y34.27949872415332 F300
G1 X31.781846401427902 Y34.376461338554705 F300
G1 X31.179901093065983 Y34.48160047950766 F300
G1 X30.605752842602904 Y34.594070905452426 F300
G1 X30.05847199690433 Y34.71314527115859 F300
G1 X29.537084740854645 Y34.8381961509827 F300
G1 X29.040634125767458 Y34.968679299766734 F300
G1 X28.56821234000124 Y35.10411921622692 F300
G1 X28.118975809331758 Y35.24409714606995 F300
G1 X27.692150375899956 Y35.388241289031015 F300
G1 X27.287030959521662 Y35.53621886365993 F300
G1 X26.9029783228263 Y35.68772968589991 F300
G1 X26.539414472850538 Y35.84250096079489 F300
G1 X26.195817576373457 Y36.000283039297216 F300
G1 X25.871716875914608 Y36.16084594139767 F300
G1 X25.56668786299379 Y36.323976488537916 F300
G1 X25.280347830967397 Y36.489475922007394 F300
G1 X25.0123518528521 Y36.65715791065165 F300
G1 X24.76238918678131 Y36.82684687197254 F300
G1 X24.530180089166322 Y36.99837654678572 F300
G1 X24.315473004876782 Y37.171588780052716 F300
G1 X24.11804209980592 Y37.346332470152085 F300
G1 X23.93768510104455 Y37.52246265634792 F300
G1 X23.774221411774427 Y37.699839720055486 F300
G1 X23.627490470860923 Y37.87832868007268 F300
G1 X23.497350330368896 Y38.05779856553486 F300
G1 X23.383676427510572 Y38.23812185317736 F300
G1 X23.28636053067699 Y38.419173957724254 F300
G1 X23.205309842126013 Y38.600832765986404 F300
G1 X23.140446242565666 Y38.782978206650185 F300
G1 X23.091705665288995 Y38.965491848836926 F300
G1 X23.059037589702147 Y39.14825652337348 F300
G1 X23.0424046460709 Y39.331155961375195 F300
G1 X23.04008111111111 Y39.429728367787085 F300
G1 X23.048080559226356 Y39.612609223872205 F300
G1 X23.072077628101223 Y39.79533134467095 F300
G1 X23.11207982788317 Y39.9777788865118 F300
G1 X23.168107288669475 Y40.15983535592756 F300
G1 X23.240192909767693 Y40.34138326207166 F300
G1 X23.328382606759774 Y40.52230375751263 F300
G1 X23.432735659884756 Y40.70247626269041 F300
G1 X23.55332516877849 Y40.88177806890151 F300
G1 X23.690238620209453 Y41.06008391411558 F300
G1 X23.843578577147397 Y41.237265525188995 F300
G1 X24.013463499310202 Y41.413191119101285 F300
G1 X24.200028707258763 Y41.58772485465294 F300
G1 X24.403427504137213 Y41.76072622457415 F300
G1 X24.623832471243553 Y41.932049376127935 F300
G1 X24.861436955684063 Y42.10154234596099 F300
G1 X25.116456770247286 Y42.269046192033336 F300
G1 X25.389132127056662 Y42.43439400179446 F300
G1 X25.67972982706069 Y42.59740975116981 F300
G1 X25.988545726216405 Y42.75790698311903 F300
G1 X26.31590749506868 Y42.915687267209385 F300
G1 X26.662177679276354 Y43.07053839240598 F300
G1 X27.027757051202748 Y43.22223223362566 F300
G1 X27.413088211648056 Y43.37052221795215 F300
G1 X27.81865934758796 Y43.51514029814743 F300
G1 X28.245007962542804 Y43.655793318662504 F300
G1 X28.69272424858564 Y43.79215863254083 F300
G1 X29.16245352701229 Y43.92387879716271 F300
G1 X29.654896790682127 Y44.05055514564771 F300
G1 X30.170807743833223 Y44.171740006653614 F300
G1 X30.710983714032658 Y44.286927345849946 F300
G1 X31.276246198615716 Y44.395541664582524 F300
G1 X31.867404327419663 Y44.49692518938839 F300
G1 X32.485190883556115 Y44.59032386098822 F300
G1 X33.130155652774185 Y44.67487363240577 F300
G1 X33.80249559522886 Y44.74959050278448 F300
G1 X34.50179894608114 Y44.81337100805443 F300
G1 X35.22668936806632 Y44.86501466760589 F300
G1 X35.97439266305859 Y44.903284640250874 F300
G1 X36.74032927710625 Y44.927022245962874 F300
G1 X37.517947811603946 Y44.935315275097466 F300
G1 X37.53586111111111 Y44.935319478898194 F300
G1 X38.31695342646372 Y44.927320931966506 F300
G1 X39.09246597352506 Y44.90348446998407 F300
G1 X39.854124786262155 Y44.86445633734603 F300
G1 X40.595293741115086 Y44.81129945078189 F300
G1 X41.3114042114421 Y44.74529485905259 F300
G1 X41.9998117326878 Y44.66776480019211 F300
G1 X42.659355390394246 Y44.579958011420835 F300
G1 X43.28987582079432 Y44.48299539701945 F300
G1 X43.89182112915624 Y44.377856256066494 F300
G1 X44.465969379619324 Y44.26538583012172 F300
G1 X45.0132502253179 Y44.14631146441557 F300
G1 X45.53463748136758 Y44.02126058459145 F300
G1 X46.031088096454766 Y43.89077743580742 F300
G1 X46.50350988222098 Y43.755337519347236 F300
G1 X46.95274641289047 Y43.61535958950421 F300
G1 X47.379571846322264 Y43.471215446543134 F300
G1 X47.78469126270056 Y43.32323787191422 F300
G1 X48.16874389939592 Y43.171727049674246 F300
G1 X48.53230774937168 Y43.01695577477926 F300
G1 X48.87590464584876 Y42.85917369627694 F300
G1 X49.20000534630761 Y42.69861079417649 F300
G1 X49.50503435922843 Y42.53548024703623 F300
G1 X49.79137439125482 Y42.36998081356676 F300
G1 X50.05937036937012 Y42.20229882492251 F300
G1 X50.309333035440915 Y42.03260986360161 F300
G1 X50.5415421330559 Y41.86108018878843 F300
G1 X50.756249217345434 Y41.68786795552143 F300
G1 X50.953680122416294 Y41.513124265422064 F300
G1 X51.13403712117767 Y41.33699407922624 F300
G1 X51.29750081044779 Y41.15961701551866 F300
G1 X51.44423175136129 Y40.98112805550147 F300
G1 X51.57437189185332 Y40.801658170039296 F300
G1 X51.68804579471164 Y40.62133488239679 F300
G1 X51.785361691545226 Y40.440282777849895 F300
G1 X51.8664123800962 Y40.258623969587745 F300
G1 X51.93127597965655 Y40.076478528923964 F300
G1 X51.98001655693322 Y39.89396488673722 F300
G1 X52.01268463252007 Y39.711200212200666 F300
G1 X52.029317576151314 Y39.528300774198954 F300
G1 X52.0316411111111 Y39.42972836778709 F300;svg#Layer_2 > g#Layer_2-2 > ellipse
G0 X49.48289222222222 Y47.79267836778709
G1 X49.47489289297757 Y47.626796340501286 F300
G1 X49.45089645591877 Y47.461089320959125 F300
G1 X49.41089378426844 Y47.295685102341864 F300
G1 X49.35486039891938 Y47.13071234966023 F300
G1 X49.282756247735186 Y46.966301068613646 F300
G1 X49.19452533950165 Y46.802583093501006 F300
G1 X49.090095226209556 Y46.63969260206012 F300
G1 X48.96937632458627 Y46.47776666595478 F300
G1 X48.832261064868725 Y46.31694584678025 F300
G1 X48.67862285168775 Y46.15737484898062 F300
G1 X48.50831481859474 Y45.999203243046395 F300
G1 X48.321168354225236 Y45.842586274901386 F300
G1 X48.11699137443569 Y45.68768578064067 F300
G1 X47.895566311147874 Y45.534671229942354 F300
G1 X47.656647785446424 Y45.383720926806525 F300
G1 X47.39995993033905 Y45.235023403113594 F300
G1 X47.125193328650084 Y45.08877904929432 F300
G1 X46.83200153573567 Y44.94520203775028 F300
G1 X46.519997168437776 Y44.804522609315 F300
G1 X46.188747566614296 Y44.6669898119574 F300
G1 X45.83777008131976 Y44.532874805258544 F300
G1 X45.466527130534 Y44.40247487522525 F300
G1 X45.07442131680321 Y44.27611834291477 F300
G1 X44.66079116788625 Y44.154170597529976 F300
G1 X44.22490852017828 Y44.037041538176666 F300
G1 X43.765979347091914 Y43.925194760607724 F300
G1 X43.28315115753474 Y43.81915885492309 F300
G1 X42.77553229709675 Y43.719541137215195 F300
G1 X42.2422320820252 Y43.627043912042495 F300
G1 X41.682436302354574 Y43.542482724417994 F300
G1 X41.09554061355107 Y43.466804569915496 F300
G1 X40.481373531026655 Y43.40110094585283 F300
G1 X39.84054508085074 Y43.3466050062019 F300
G1 X39.17493927484631 Y43.30465376054182 F300
G1 X38.488295060742324 Y43.276588929124124 F300
G1 X37.786662841875234 Y43.26357642713823 F300
G1 X37.55603999999999 Y43.262729478898194 F300
G1 X36.847605909953685 Y43.27072771287386 F300
G1 X36.14530917295813 Y43.29452946909174 F300
G1 X35.45810966138811 Y43.333360057593595 F300
G1 X34.79286599473176 Y43.38597655161406 F300
G1 X34.15392561757156 Y43.45093230863428 F300
G1 X33.5434668758091 Y43.52679011660358 F300
G1 X32.962136928692516 Y43.61224072538798 F300
G1 X32.4096483613788 Y43.70614468144919 F300
G1 X31.88521273445234 Y43.80753085501646 F300
G1 X31.387815570961617 Y43.91557676920563 F300
G1 X30.916376101107158 Y44.02958440090602 F300
G1 X30.469833554630622 Y44.14895741832096 F300
G1 X30.047189898686543 Y44.27318182355745 F300
G1 X29.647527945369895 Y44.40181021546164 F300
G1 X29.27001609057816 Y44.534449247324964 F300
G1 X28.913906153526042 Y44.67074969999403 F300
G1 X28.57852794348716 Y44.81039862378607 F300
G1 X28.263282540258288 Y44.95311309207615 F300
G1 X27.967635343884922 Y45.098635203845284 F300
G1 X27.691109427133007 Y45.24672805437725 F300
G1 X27.43327943529483 Y45.39717245898315 F300
G1 X27.1937661211215 Y45.54976426543322 F300
G1 X26.972231520338003 Y45.7043121293789 F300
G1 X26.768374732519753 Y45.86063565617113 F300
G1 X26.581928254470185 Y46.01856383440932 F300
G1 X26.412654808056896 Y46.17793370309744 F300
G1 X26.260344605774122 Y46.338589206800584 F300
G1 X26.12481300174671 Y46.50038020271141 F300
G1 X26.005898481628606 Y46.66316159080282 F300
G1 X25.903460950886867 Y46.826792543817156 F300
G1 X25.817380286794055 Y46.99113581813333 F300
G1 X25.747555124849058 Y47.156057129863655 F300
G1 X25.6939018552308 Y47.32142458308523 F300
G1 X25.656353809264346 Y47.48710813907201 F300
G1 X25.634860619790647 Y47.65297911688578 F300
G1 X25.629187777777773 Y47.79267836778708 F300
G1 X25.63718710702242 Y47.95856039507289 F300
G1 X25.661183544081222 Y48.12426741461505 F300
G1 X25.70118621573156 Y48.28967163323231 F300
G1 X25.757219601080614 Y48.454644385913944 F300
G1 X25.82932375226481 Y48.619055666960534 F300
G1 X25.917554660498347 Y48.78277364207317 F300
G1 X26.021984773790443 Y48.94566413351405 F300
G1 X26.142703675413728 Y49.1075900696194 F300
G1 X26.279818935131274 Y49.26841088879393 F300
G1 X26.43345714831225 Y49.42798188659356 F300
G1 X26.603765181405258 Y49.58615349252778 F300
G1 X26.79091164577477 Y49.742770460672794 F300
G1 X26.995088625564314 Y49.8976709549335 F300
G1 X27.216513688852128 Y50.05068550563182 F300
G1 X27.455432214553582 Y50.20163580876765 F300
G1 X27.712120069660948 Y50.35033333246058 F300
G1 X27.98688667134992 Y50.496577686279856 F300
G1 X28.280078464264328 Y50.640154697823895 F300
G1 X28.592082831562227 Y50.78083412625917 F300
G1 X28.923332433385703 Y50.918366923616766 F300
G1 X29.274309918680245 Y51.05248193031563 F300
G1 X29.64555286946601 Y51.18288186034892 F300
G1 X30.037658683196792 Y51.3092383926594 F300
G1 X30.451288832113747 Y51.4311861380442 F300
G1 X30.887171479821717 Y51.54831519739751 F300
G1 X31.34610065290809 Y51.66016197496645 F300
G1 X31.828928842465263 Y51.76619788065108 F300
G1 X32.336547702903246 Y51.86581559835898 F300
G1 X32.86984791797481 Y51.95831282353167 F300
G1 X33.429643697645425 Y52.04287401115617 F300
G1 X34.016539386448926 Y52.11855216565867 F300
G1 X34.630706468973344 Y52.184255789721334 F300
G1 X35.27153491914927 Y52.23875172937227 F300
G1 X35.9371407251537 Y52.28070297503235 F300
G1 X36.623784939257675 Y52.30876780645004 F300
G1 X37.32541715812477 Y52.32178030843593 F300
G1 X37.556039999999975 Y52.32262725667597 F300
G1 X38.26447409004629 Y52.31462902270031 F300
G1 X38.96677082704185 Y52.290827266482424 F300
G1 X39.65397033861187 Y52.25199667798057 F300
G1 X40.31921400526822 Y52.19938018396011 F300
G1 X40.958154382428425 Y52.13442442693989 F300
G1 X41.568613124190875 Y52.05856661897059 F300
G1 X42.14994307130746 Y51.97311601018619 F300
G1 X42.702431638621185 Y51.87921205412498 F300
G1 X43.22686726554764 Y51.77782588055771 F300
G1 X43.72426442903837 Y51.66977996636854 F300
G1 X44.19570389889282 Y51.55577233466815 F300
G1 X44.64224644536936 Y51.436399317253205 F300
G1 X45.06489010131344 Y51.312174912016715 F300
G1 X45.46455205463009 Y51.183546520112536 F300
G1 X45.842063909421825 Y51.0509074882492 F300
G1 X46.19817384647394 Y50.91460703558014 F300
G1 X46.533552056512825 Y50.7749581117881 F300
G1 X46.848797459741704 Y50.632243643498015 F300
G1 X47.14444465611506 Y50.48672153172888 F300
G1 X47.42097057286698 Y50.33862868119692 F300
G1 X47.67880056470516 Y50.188184276591016 F300
G1 X47.918313878878486 Y50.03559247014095 F300
G1 X48.139848479661985 Y49.88104460619527 F300
G1 X48.34370526748023 Y49.72472107940304 F300
G1 X48.53015174552981 Y49.56679290116485 F300
G1 X48.69942519194309 Y49.407423032476736 F300
G1 X48.85173539422587 Y49.24676752877359 F300
G1 X48.98726699825328 Y49.08497653286276 F300
G1 X49.106181518371386 Y48.92219514477135 F300
G1 X49.208619049113125 Y48.75856419175702 F300
G1 X49.29469971320594 Y48.59422091744084 F300
G1 X49.36452487515093 Y48.42929960571052 F300
G1 X49.41817814476919 Y48.26393215248894 F300
G1 X49.455726190735646 Y48.09824859650217 F300
G1 X49.47721938020935 Y47.93237761868839 F300
G1 X49.48289222222222 Y47.79267836778709 F300;svg#Layer_2 > g#Layer_2-2 > ellipse
G0 X47.153147777777775 Y42.217378367787084
G1 X47.14514861117843 Y42.068568374306125 F300
G1 X47.121153038816566 Y41.91995346839848 F300
G1 X47.08114972223161 Y41.771676218403485 F300
G1 X47.02510822365394 Y41.62388040229471 F300
G1 X46.952978664832145 Y41.47671166297808 F300
G1 X46.86469115962201 Y41.33031819666924 F300
G1 X46.76015500819423 Y41.18485148837694 F300
G1 X46.63925763535023 Y41.04046711036765 F300
G1 X46.5018632497066 Y40.89732560205186 F300
G1 X46.3478111943583 Y40.755593453185334 F300
G1 X46.17691395307577 Y40.61544421685822 F300
G1 X45.98895476928429 Y40.47705978477639 F300
G1 X45.78368482842521 Y40.34063186527365 F300
G1 X45.560819948667664 Y40.206363714938526 F300
G1 X45.32003672200017 Y40.074472188525256 F300
G1 X45.06096805059936 Y39.94519019006827 F300
G1 X44.78319803772173 Y39.8187696323288 F300
G1 X44.486256228428275 Y39.695485043837856 F300
G1 X44.169611271594675 Y39.57563800533023 F300
G1 X43.832664223805914 Y39.4595626531464 F300
G1 X43.47474199694353 Y39.34763255888009 F300
G1 X43.09509197043592 Y39.24026938291033 F300
G1 X42.692879735474236 Y39.13795379879441 F300
G1 X42.26719364630751 Y39.04123927273608 F300
G1 X41.81706289814048 Y38.950769291566644 F300
G1 X41.34150116409982 Y38.86729839861234 F300
G1 X40.839596714826264 Y38.79171653760325 F300
G1 X40.310683560784724 Y38.72507390958247 F300
G1 X39.754644951710155 Y38.668598313347744 F300
G1 X39.17240851114542 Y38.62368673364266 F300
G1 X38.56665271472313 Y38.59183763672739 F300
G1 X37.942582635848744 Y38.57448021861097 F300
G1 X37.55392333333333 Y38.5714905900093 F300
G1 X36.91845104264974 Y38.57948839575635 F300
G1 X36.289798899189364 Y38.60324294520131 F300
G1 X35.67771537644163 Y38.641809387083654 F300
G1 X35.08920237265588 Y38.6937206980934 F300
G1 X34.52820698282991 Y38.75734388857222 F300
G1 X33.99628126131151 Y38.83113057221428 F300
G1 X33.49347001636543 Y38.91372793439312 F300
G1 X33.019016168292644 Y39.0039977550674 F300
G1 X32.57180880287752 Y39.10099440853803 F300
G1 X32.150633742281734 Y39.203931492006994 F300
G1 X31.754301032909098 Y39.31214976761391 F300
G1 X31.381703175905294 Y39.42509035620221 F300
G1 X31.031836741235725 Y39.542273538845414 F300
G1 X30.703805623909684 Y39.66328235862464 F300
G1 X30.39681571946558 Y39.78775000992667 F300
G1 X30.110166097137935 Y39.91535011642216 F300
G1 X29.84323922566054 Y40.04578918411505 F300
G1 X29.595491476076525 Y40.17880068842583 F300
G1 X29.366444435408173 Y40.314140392845644 F300
G1 X29.155677214303342 Y40.45158260151042 F300
G1 X28.962819760140324 Y40.59091712527141 F300
G1 X28.78754710901066 Y40.73194679716043 F300
G1 X28.629574480096807 Y40.87448541413517 F300
G1 X28.488653110140106 Y41.01835601189217 F300
G1 X28.36456673127077 Y41.16338940145095 F300
G1 X28.257128605836364 Y41.3094229123701 F300
G1 X28.166179043666062 Y41.45629929943622 F300
G1 X28.091583338819987 Y41.60386577859507 F300
G1 X28.03323007359093 Y41.7519731645704 F300
G1 X27.991029747114347 Y41.900475087609045 F300
G1 X27.964913694408352 Y42.04922727050923 F300
G1 X27.954833269125228 Y42.19808684982035 F300
G1 X27.9546988888889 Y42.21737836778708 F300
G1 X27.962698055488243 Y42.366188361268044 F300
G1 X27.98669362785011 Y42.51480326717569 F300
G1 X28.026696944435066 Y42.663080517170684 F300
G1 X28.082738443012737 Y42.81087633327946 F300
G1 X28.154868001834526 Y42.958045072596086 F300
G1 X28.243155507044662 Y43.10443853890493 F300
G1 X28.347691658472442 Y43.249905247197226 F300
G1 X28.46858903131644 Y43.39428962520652 F300
G1 X28.605983416960072 Y43.53743113352231 F300
G1 X28.76003547230837 Y43.679163282388835 F300
G1 X28.93093271359091 Y43.819312518715954 F300
G1 X29.118891897382387 Y43.95769695079779 F300
G1 X29.324161838241466 Y44.09412487030052 F300
G1 X29.547026717999014 Y44.22839302063564 F300
G1 X29.787809944666506 Y44.36028454704891 F300
G1 X30.046878616067318 Y44.4895665455059 F300
G1 X30.32464862894495 Y44.61598710324537 F300
G1 X30.6215904382384 Y44.73927169173631 F300
G1 X30.938235395072 Y44.85911873024394 F300
G1 X31.275182442860764 Y44.97519408242777 F300
G1 X31.633104669723146 Y45.087124176694076 F300
G1 X32.01275469623076 Y45.19448735266384 F300
G1 X32.41496693119244 Y45.296802936779756 F300
G1 X32.84065302035917 Y45.39351746283809 F300
G1 X33.290783768526204 Y45.483987444007525 F300
G1 X33.766345502566864 Y45.56745833696183 F300
G1 X34.26824995184042 Y45.64304019797092 F300
G1 X34.79716310588195 Y45.7096828259917 F300
G1 X35.35320171495651 Y45.766158422226425 F300
G1 X35.935438155521254 Y45.81107000193151 F300
G1 X36.54119395194355 Y45.84291909884678 F300
G1 X37.16526403081793 Y45.8602765169632 F300
G1 X37.55392333333334 Y45.86326614556487 F300
G1 X38.189395624016925 Y45.85526833981782 F300
G1 X38.818047767477296 Y45.83151379037286 F300
G1 X39.43013129022503 Y45.792947348490515 F300
G1 X40.01864429401078 Y45.74103603748077 F300
G1 X40.57963968383676 Y45.67741284700195 F300
G1 X41.11156540535515 Y45.60362616335989 F300
G1 X41.61437665030124 Y45.521028801181046 F300
G1 X42.08883049837402 Y45.43075898050677 F300
G1 X42.53603786378915 Y45.33376232703614 F300
G1 X42.957212924384926 Y45.230825243567175 F300
G1 X43.35354563375756 Y45.122606967960266 F300
G1 X43.72614349076137 Y45.009666379371964 F300
G1 X44.07600992543094 Y44.89248319672876 F300
G1 X44.40404104275699 Y44.771474376949534 F300
G1 X44.71103094720109 Y44.64700672564751 F300
G1 X44.99768056952873 Y44.519406619152015 F300
G1 X45.26460744100613 Y44.388967551459125 F300
G1 X45.51235519059014 Y44.255956047148345 F300
G1 X45.7414022312585 Y44.120616342728525 F300
G1 X45.95216945236333 Y43.98317413406376 F300
G1 X46.14502690652635 Y43.843839610302766 F300
G1 X46.320299557656014 Y43.702809938413736 F300
G1 X46.47827218656986 Y43.560271321439004 F300
G1 X46.61919355652657 Y43.416400723682 F300
G1 X46.743279935395904 Y43.27136733412323 F300
G1 X46.8507180608303 Y43.125333823204066 F300
G1 X46.94166762300061 Y42.97845743613795 F300
G1 X47.01626332784669 Y42.830890956979104 F300
G1 X47.07461659307574 Y42.68278357100377 F300
G1 X47.11681691955233 Y42.53428164796513 F300
G1 X47.14293297225832 Y42.38552946506494 F300
G1 X47.15301339754144 Y42.23666988575382 F300
G1 X47.153147777777775 Y42.21737836778709 F300;svg#Layer_2 > g#Layer_2-2 > ellipse
G0 X49.47894111111111 Y49.04701503445375
G1 X49.470941781866465 Y48.881133007167946 F300
G1 X49.446945344807666 Y48.715425987625785 F300
G1 X49.40694267315733 Y48.550021769008524 F300
G1 X49.35090928780827 Y48.38504901632689 F300
G1 X49.27880513662408 Y48.220637735280306 F300
G1 X49.190574228390545 Y48.056919760167666 F300
G1 X49.08614411509845 Y47.89402926872678 F300
G1 X48.965425213475164 Y47.732103332621435 F300
G1 X48.82830995375762 Y47.5712825134469 F300
G1 X48.67467174057664 Y47.411711515647276 F300
G1 X48.504363707483634 Y47.253539909713055 F300
G1 X48.31721724311413 Y47.09692294156804 F300
G1 X48.113040263324585 Y46.94202244730733 F300
G1 X47.89161520003677 Y46.789007896609014 F300
G1 X47.65269667433532 Y46.638057593473185 F300
G1 X47.396008819227944 Y46.489360069780254 F300
G1 X47.12124221753898 Y46.34311571596098 F300
G1 X46.828050424624564 Y46.19953870441694 F300
G1 X46.51604605732667 Y46.05885927598165 F300
G1 X46.18479645550319 Y45.92132647862406 F300
G1 X45.833818970208654 Y45.787211471925204 F300
G1 X45.46257601942289 Y45.65681154189191 F300
G1 X45.070470205692104 Y45.53045500958143 F300
G1 X44.656840056775145 Y45.408507264196636 F300
G1 X44.220957409067175 Y45.291378204843326 F300
G1 X43.76202823598081 Y45.179531427274384 F300
G1 X43.27920004642363 Y45.07349552158975 F300
G1 X42.771581185985646 Y44.973877803881855 F300
G1 X42.23828097091409 Y44.881380578709155 F300
G1 X41.67848519124347 Y44.796819391084654 F300
G1 X41.091589502439966 Y44.721141236582156 F300
G1 X40.47742241991555 Y44.65543761251949 F300
G1 X39.83659396973963 Y44.60094167286856 F300
G1 X39.1709881637352 Y44.55899042720848 F300
G1 X38.48434394963122 Y44.530925595790784 F300
G1 X37.78271173076413 Y44.51791309380489 F300
G1 X37.55208888888889 Y44.517066145564854 F300
G1 X36.84365479884259 Y44.52506437954052 F300
G1 X36.141358061847036 Y44.548866135758395 F300
G1 X35.454158550277015 Y44.587696724260255 F300
G1 X34.78891488362066 Y44.64031321828072 F300
G1 X34.14997450646046 Y44.70526897530094 F300
G1 X33.53951576469801 Y44.78112678327024 F300
G1 X32.95818581758142 Y44.86657739205464 F300
G1 X32.4056972502677 Y44.96048134811585 F300
G1 X31.881261623341246 Y45.06186752168312 F300
G1 X31.38386445985052 Y45.16991343587229 F300
G1 X30.912424989996058 Y45.28392106757268 F300
G1 X30.465882443519522 Y45.40329408498762 F300
G1 X30.043238787575447 Y45.52751849022411 F300
G1 X29.6435768342588 Y45.65614688212829 F300
G1 X29.26606497946706 Y45.788785913991624 F300
G1 X28.909955042414943 Y45.92508636666069 F300
G1 X28.57457683237606 Y46.064735290452724 F300
G1 X28.25933142914719 Y46.20744975874281 F300
G1 X27.963684232773822 Y46.352971870511944 F300
G1 X27.687158316021907 Y46.5010647210439 F300
G1 X27.429328324183725 Y46.65150912564981 F300
G1 X27.1898150100104 Y46.80410093209988 F300
G1 X26.9682804092269 Y46.95864879604556 F300
G1 X26.764423621408653 Y47.11497232283779 F300
G1 X26.57797714335908 Y47.27290050107598 F300
G1 X26.408703696945793 Y47.43227036976409 F300
G1 X26.256393494663016 Y47.59292587346724 F300
G1 X26.120861890635602 Y47.754716869378065 F300
G1 X26.0019473705175 Y47.917498257469475 F300
G1 X25.89950983977576 Y48.081129210483816 F300
G1 X25.81342917568295 Y48.24547248479999 F300
G1 X25.743604013737954 Y48.41039379653031 F300
G1 X25.68995074411969 Y48.575761249751885 F300
G1 X25.65240269815324 Y48.74144480573866 F300
G1 X25.63090950867954 Y48.907315783552434 F300
G1 X25.625236666666666 Y49.04701503445374 F300
G1 X25.633235995911313 Y49.21289706173955 F300
G1 X25.657232432970112 Y49.37860408128171 F300
G1 X25.697235104620447 Y49.54400829989897 F300
G1 X25.7532684899695 Y49.708981052580604 F300
G1 X25.825372641153695 Y49.87339233362719 F300
G1 X25.91360354938723 Y50.03711030873983 F300
G1 X26.018033662679322 Y50.20000080018071 F300
G1 X26.138752564302607 Y50.36192673628605 F300
G1 X26.275867824020153 Y50.52274755546058 F300
G1 X26.429506037201126 Y50.68231855326021 F300
G1 X26.599814070294137 Y50.84049015919443 F300
G1 X26.786960534663642 Y50.99710712733945 F300
G1 X26.991137514453186 Y51.15200762160016 F300
G1 X27.212562577740997 Y51.30502217229848 F300
G1 X27.451481103442447 Y51.45597247543431 F300
G1 X27.70816895854982 Y51.60466999912724 F300
G1 X27.98293556023879 Y51.750914352946516 F300
G1 X28.276127353153193 Y51.894491364490555 F300
G1 X28.588131720451088 Y52.03517079292583 F300
G1 X28.919381322274567 Y52.17270359028343 F300
G1 X29.270358807569103 Y52.30681859698229 F300
G1 X29.641601758354867 Y52.43721852701558 F300
G1 X30.033707572085653 Y52.56357505932606 F300
G1 X30.44733772100261 Y52.68552280471086 F300
G1 X30.88322036871058 Y52.802651864064174 F300
G1 X31.342149541796957 Y52.91449864163312 F300
G1 X31.824977731354135 Y53.020534547317745 F300
G1 X32.33259659179212 Y53.120152265025645 F300
G1 X32.865896806863674 Y53.212649490198345 F300
G1 X33.42569258653429 Y53.29721067782285 F300
G1 X34.01258827533779 Y53.372888832325344 F300
G1 X34.626755357862216 Y53.43859245638801 F300
G1 X35.26758380803814 Y53.493088396038935 F300
G1 X35.93318961404256 Y53.53503964169902 F300
G1 X36.61983382814655 Y53.56310447311672 F300
G1 X37.32146604701364 Y53.57611697510261 F300
G1 X37.55208888888889 Y53.576963923342646 F300
G1 X38.26052297893519 Y53.56896568936698 F300
G1 X38.96281971593075 Y53.5451639331491 F300
G1 X39.65001922750077 Y53.506333344647246 F300
G1 X40.31526289415712 Y53.45371685062678 F300
G1 X40.954203271317326 Y53.38876109360656 F300
G1 X41.564662013079776 Y53.31290328563726 F300
G1 X42.14599196019636 Y53.22745267685286 F300
G1 X42.698480527510085 Y53.13354872079165 F300
G1 X43.22291615443653 Y53.03216254722438 F300
G1 X43.720313317927264 Y52.92411663303521 F300
G1 X44.191752787781724 Y52.81010900133482 F300
G1 X44.63829533425826 Y52.69073598391988 F300
G1 X45.06093899020234 Y52.56651157868339 F300
G1 X45.46060094351898 Y52.4378831867792 F300
G1 X45.838112798310725 Y52.305244154915876 F300
G1 X46.19422273536284 Y52.16894370224681 F300
G1 X46.52960094540172 Y52.029294778454776 F300
G1 X46.8448463486306 Y51.88658031016469 F300
G1 X47.14049354500396 Y51.74105819839556 F300
G1 X47.41701946175587 Y51.59296534786359 F300
G1 X47.67484945359406 Y51.44252094325769 F300
G1 X47.914362767767386 Y51.28992913680762 F300
G1 X48.13589736855088 Y51.13538127286194 F300
G1 X48.339754156369125 Y50.979057746069714 F300
G1 X48.5262006344187 Y50.82112956783152 F300
G1 X48.695474080831985 Y50.66175969914341 F300
G1 X48.84778428311476 Y50.50110419544026 F300
G1 X48.983315887142176 Y50.339313199529435 F300
G1 X49.10223040726028 Y50.176531811438025 F300
G1 X49.20466793800202 Y50.01290085842369 F300
G1 X49.29074860209483 Y49.84855758410751 F300
G1 X49.36057376403983 Y49.68363627237719 F300
G1 X49.414227033658086 Y49.518268819155615 F300
G1 X49.45177507962454 Y49.35258526316884 F300
G1 X49.47326826909824 Y49.18671428535506 F300
G1 X49.47894111111111 Y49.04701503445375 F300;svg#Layer_2 > g#Layer_2-2 > ellipse
G0 X49.48289222222222 Y32.32125614556487
G1 X49.47489289297757 Y32.15537411827907 F300
G1 X49.45089645591877 Y31.98966709873691 F300
G1 X49.41089378426844 Y31.82426288011965 F300
G1 X49.354860398919385 Y31.659290127438016 F300
G1 X49.28275624773519 Y31.494878846391426 F300
G1 X49.19452533950165 Y31.331160871278794 F300
G1 X49.09009522620956 Y31.168270379837907 F300
G1 X48.96937632458628 Y31.006344443732562 F300
G1 X48.83226106486873 Y30.84552362455803 F300
G1 X48.678622851687756 Y30.685952626758404 F300
G1 X48.50831481859475 Y30.527781020824182 F300
G1 X48.32116835422524 Y30.371164052679166 F300
G1 X48.1169913744357 Y30.216263558418454 F300
G1 X47.89556631114788 Y30.063249007720138 F300
G1 X47.65664778544643 Y29.91229870458431 F300
G1 X47.399959930339065 Y29.763601180891374 F300
G1 X47.12519332865009 Y29.6173568270721 F300
G1 X46.832001535735685 Y29.473779815528058 F300
G1 X46.51999716843779 Y29.333100387092777 F300
G1 X46.18874756661431 Y29.195567589735184 F300
G1 X45.837770081319775 Y29.061452583036324 F300
G1 X45.46652713053401 Y28.931052653003032 F300
G1 X45.074421316803225 Y28.80469612069255 F300
G1 X44.660791167886266 Y28.682748375307757 F300
G1 X44.224908520178296 Y28.565619315954443 F300
G1 X43.76597934709193 Y28.4537725383855 F300
G1 X43.28315115753475 Y28.34773663270087 F300
G1 X42.775532297096774 Y28.248118914992972 F300
G1 X42.24223208202521 Y28.155621689820276 F300
G1 X41.682436302354596 Y28.07106050219577 F300
G1 X41.095540613551094 Y27.995382347693276 F300
G1 X40.48137353102668 Y27.929678723630612 F300
G1 X39.84054508085075 Y27.875182783979678 F300
G1 X39.174939274846324 Y27.833231538319595 F300
G1 X38.488295060742345 Y27.8051667069019 F300
G1 X37.78666284187525 Y27.79215420491601 F300
G1 X37.55603999999999 Y27.79130725667597 F300
G1 X36.847605909953685 Y27.79930549065163 F300
G1 X36.14530917295813 Y27.823107246869515 F300
G1 X35.45810966138811 Y27.86193783537137 F300
G1 X34.792865994731756 Y27.914554329391834 F300
G1 X34.15392561757155 Y27.97951008641206 F300
G1 X33.5434668758091 Y28.05536789438136 F300
G1 X32.962136928692516 Y28.140818503165754 F300
G1 X32.40964836137879 Y28.23472245922697 F300
G1 X31.885212734452338 Y28.33610863279424 F300
G1 X31.387815570961614 Y28.44415454698341 F300
G1 X30.916376101107154 Y28.558162178683794 F300
G1 X30.46983355463062 Y28.67753519609874 F300
G1 X30.04718989868654 Y28.80175960133523 F300
G1 X29.64752794536989 Y28.930387993239414 F300
G1 X29.270016090578153 Y29.063027025102745 F300
G1 X28.91390615352604 Y29.19932747777181 F300
G1 X28.57852794348716 Y29.338976401563844 F300
G1 X28.26328254025828 Y29.481690869853928 F300
G1 X27.967635343884922 Y29.627212981623064 F300
G1 X27.691109427133007 Y29.775305832155027 F300
G1 X27.43327943529482 Y29.92575023676093 F300
G1 X27.193766121121495 Y30.078342043211 F300
G1 X26.972231520338 Y30.23288990715668 F300
G1 X26.768374732519753 Y30.389213433948907 F300
G1 X26.581928254470185 Y30.5471416121871 F300
G1 X26.412654808056892 Y30.706511480875214 F300
G1 X26.260344605774115 Y30.86716698457836 F300
G1 X26.124813001746706 Y31.02895798048919 F300
G1 X26.005898481628602 Y31.1917393685806 F300
G1 X25.903460950886867 Y31.355370321594936 F300
G1 X25.817380286794055 Y31.51971359591111 F300
G1 X25.747555124849058 Y31.68463490764143 F300
G1 X25.693901855230795 Y31.85000236086301 F300
G1 X25.656353809264346 Y32.01568591684978 F300
G1 X25.634860619790647 Y32.18155689466356 F300
G1 X25.629187777777773 Y32.32125614556487 F300
G1 X25.63718710702242 Y32.48713817285066 F300
G1 X25.661183544081222 Y32.652845192392824 F300
G1 X25.70118621573156 Y32.818249411010086 F300
G1 X25.757219601080614 Y32.98322216369172 F300
G1 X25.82932375226481 Y33.14763344473831 F300
G1 X25.917554660498347 Y33.31135141985094 F300
G1 X26.021984773790443 Y33.47424191129183 F300
G1 X26.142703675413728 Y33.636167847397175 F300
G1 X26.279818935131274 Y33.79698866657171 F300
G1 X26.43345714831225 Y33.956559664371326 F300
G1 X26.603765181405258 Y34.114731270305555 F300
G1 X26.79091164577477 Y34.27134823845057 F300
G1 X26.995088625564314 Y34.42624873271128 F300
G1 X27.216513688852128 Y34.579263283409595 F300
G1 X27.455432214553582 Y34.730213586545425 F300
G1 X27.712120069660948 Y34.878911110238356 F300
G1 X27.98688667134992 Y35.02515546405763 F300
G1 X28.280078464264328 Y35.16873247560167 F300
G1 X28.592082831562227 Y35.30941190403695 F300
G1 X28.923332433385703 Y35.44694470139454 F300
G1 X29.274309918680245 Y35.581059708093406 F300
G1 X29.64555286946601 Y35.7114596381267 F300
G1 X30.037658683196792 Y35.83781617043718 F300
G1 X30.451288832113747 Y35.95976391582197 F300
G1 X30.887171479821717 Y36.076892975175284 F300
G1 X31.34610065290809 Y36.188739752744226 F300
G1 X31.828928842465263 Y36.294775658428854 F300
G1 X32.336547702903246 Y36.394393376136755 F300
G1 X32.86984791797481 Y36.48689060130945 F300
G1 X33.429643697645425 Y36.57145178893395 F300
G1 X34.016539386448926 Y36.64712994343645 F300
G1 X34.630706468973344 Y36.71283356749911 F300
G1 X35.27153491914927 Y36.767329507150045 F300
G1 X35.9371407251537 Y36.809280752810125 F300
G1 X36.623784939257675 Y36.83734558422782 F300
G1 X37.32541715812477 Y36.85035808621371 F300
G1 X37.556039999999975 Y36.85120503445375 F300
G1 X38.26447409004629 Y36.843206800478086 F300
G1 X38.96677082704185 Y36.81940504426021 F300
G1 X39.65397033861187 Y36.78057445575835 F300
G1 X40.31921400526822 Y36.727957961737886 F300
G1 X40.958154382428425 Y36.663002204717664 F300
G1 X41.568613124190875 Y36.587144396748364 F300
G1 X42.14994307130746 Y36.501693787963966 F300
G1 X42.702431638621185 Y36.407789831902754 F300
G1 X43.22686726554764 Y36.30640365833548 F300
G1 X43.72426442903837 Y36.198357744146314 F300
G1 X44.19570389889282 Y36.084350112445925 F300
G1 X44.64224644536936 Y35.96497709503098 F300
G1 X45.06489010131344 Y35.84075268979449 F300
G1 X45.46455205463009 Y35.71212429789031 F300
G1 X45.842063909421825 Y35.57948526602698 F300
G1 X46.19817384647394 Y35.44318481335792 F300
G1 X46.533552056512825 Y35.30353588956588 F300
G1 X46.848797459741704 Y35.16082142127579 F300
G1 X47.14444465611506 Y35.01529930950666 F300
G1 X47.42097057286698 Y34.8672064589747 F300
G1 X47.67880056470516 Y34.71676205436879 F300
G1 X47.918313878878486 Y34.564170247918724 F300
G1 X48.139848479661985 Y34.409622383973044 F300
G1 X48.34370526748023 Y34.253298857180816 F300
G1 X48.53015174552981 Y34.09537067894263 F300
G1 X48.69942519194309 Y33.93600081025451 F300
G1 X48.85173539422587 Y33.775345306551365 F300
G1 X48.98726699825328 Y33.61355431064054 F300
G1 X49.106181518371386 Y33.45077292254913 F300
G1 X49.208619049113125 Y33.287141969534794 F300
G1 X49.29469971320594 Y33.12279869521862 F300
G1 X49.36452487515093 Y32.957877383488295 F300
G1 X49.41817814476919 Y32.79250993026672 F300
G1 X49.455726190735646 Y32.62682637427994 F300
G1 X49.47721938020935 Y32.46095539646617 F300
G1 X49.48289222222222 Y32.32125614556487 F300;svg#Layer_2 > g#Layer_2-2 > ellipse
G0 X49.47894111111111 Y33.575592812231534
G1 X49.470941781866465 Y33.40971078494574 F300
G1 X49.446945344807666 Y33.244003765403576 F300
G1 X49.40694267315733 Y33.078599546786315 F300
G1 X49.35090928780828 Y32.91362679410468 F300
G1 X49.27880513662408 Y32.74921551305809 F300
G1 X49.190574228390545 Y32.58549753794546 F300
G1 X49.08614411509845 Y32.42260704650457 F300
G1 X48.965425213475164 Y32.260681110399226 F300
G1 X48.828309953757625 Y32.099860291224694 F300
G1 X48.67467174057665 Y31.940289293425067 F300
G1 X48.504363707483634 Y31.782117687490846 F300
G1 X48.31721724311413 Y31.62550071934583 F300
G1 X48.11304026332459 Y31.47060022508512 F300
G1 X47.891615200036775 Y31.3175856743868 F300
G1 X47.652696674335324 Y31.166635371250972 F300
G1 X47.39600881922795 Y31.017937847558038 F300
G1 X47.12124221753898 Y30.871693493738764 F300
G1 X46.82805042462457 Y30.72811648219472 F300
G1 X46.516046057326676 Y30.587437053759444 F300
G1 X46.1847964555032 Y30.449904256401847 F300
G1 X45.83381897020866 Y30.315789249702988 F300
G1 X45.4625760194229 Y30.185389319669696 F300
G1 X45.07047020569211 Y30.059032787359214 F300
G1 X44.65684005677515 Y29.93708504197442 F300
G1 X44.22095740906718 Y29.81995598262111 F300
G1 X43.76202823598081 Y29.708109205052168 F300
G1 X43.27920004642364 Y29.602073299367536 F300
G1 X42.77158118598565 Y29.50245558165964 F300
G1 X42.2382809709141 Y29.40995835648694 F300
G1 X41.678485191243475 Y29.325397168862438 F300
G1 X41.09158950243997 Y29.24971901435994 F300
G1 X40.477422419915555 Y29.184015390297276 F300
G1 X39.83659396973963 Y29.129519450646345 F300
G1 X39.17098816373521 Y29.087568204986262 F300
G1 X38.484343949631224 Y29.059503373568567 F300
G1 X37.78271173076413 Y29.046490871582677 F300
G1 X37.55208888888888 Y29.045643923342638 F300
G1 X36.84365479884259 Y29.053642157318297 F300
G1 X36.141358061847036 Y29.077443913536182 F300
G1 X35.454158550277015 Y29.11627450203804 F300
G1 X34.78891488362066 Y29.168890996058497 F300
G1 X34.14997450646046 Y29.233846753078723 F300
G1 X33.53951576469801 Y29.309704561048022 F300
G1 X32.95818581758142 Y29.39515516983242 F300
G1 X32.4056972502677 Y29.489059125893633 F300
G1 X31.881261623341246 Y29.590445299460903 F300
G1 X31.38386445985052 Y29.698491213650072 F300
G1 X30.912424989996058 Y29.81249884535046 F300
G1 X30.465882443519522 Y29.931871862765405 F300
G1 X30.043238787575447 Y30.056096268001895 F300
G1 X29.6435768342588 Y30.184724659906077 F300
G1 X29.26606497946706 Y30.31736369176941 F300
G1 X28.909955042414943 Y30.453664144438473 F300
G1 X28.57457683237606 Y30.593313068230508 F300
G1 X28.25933142914719 Y30.73602753652059 F300
G1 X27.963684232773822 Y30.881549648289727 F300
G1 X27.687158316021907 Y31.02964249882169 F300
G1 X27.429328324183725 Y31.18008690342759 F300
G1 X27.1898150100104 Y31.332678709877662 F300
G1 X26.9682804092269 Y31.487226573823342 F300
G1 X26.764423621408653 Y31.643550100615567 F300
G1 X26.57797714335908 Y31.80147827885376 F300
G1 X26.408703696945793 Y31.960848147541874 F300
G1 X26.256393494663016 Y32.12150365124502 F300
G1 X26.120861890635602 Y32.28329464715585 F300
G1 X26.0019473705175 Y32.44607603524726 F300
G1 X25.89950983977576 Y32.6097069882616 F300
G1 X25.81342917568295 Y32.774050262577774 F300
G1 X25.743604013737954 Y32.93897157430809 F300
G1 X25.68995074411969 Y33.10433902752967 F300
G1 X25.65240269815324 Y33.27002258351644 F300
G1 X25.63090950867954 Y33.43589356133022 F300
G1 X25.625236666666666 Y33.575592812231534 F300
G1 X25.633235995911313 Y33.74147483951733 F300
G1 X25.657232432970115 Y33.90718185905949 F300
G1 X25.697235104620454 Y34.07258607767675 F300
G1 X25.753268489969507 Y34.23755883035839 F300
G1 X25.825372641153702 Y34.40197011140498 F300
G1 X25.91360354938724 Y34.56568808651761 F300
G1 X26.018033662679336 Y34.728578577958494 F300
G1 X26.13875256430262 Y34.89050451406384 F300
G1 X26.275867824020168 Y35.051325333238374 F300
G1 X26.429506037201143 Y35.210896331038 F300
G1 X26.59981407029415 Y35.36906793697222 F300
G1 X26.786960534663663 Y35.52568490511724 F300
G1 X26.991137514453207 Y35.68058539937795 F300
G1 X27.21256257774102 Y35.83359995007626 F300
G1 X27.451481103442475 Y35.98455025321209 F300
G1 X27.70816895854984 Y36.13324777690502 F300
G1 X27.982935560238815 Y36.2794921307243 F300
G1 X28.27612735315322 Y36.42306914226834 F300
G1 X28.58813172045112 Y36.563748570703616 F300
G1 X28.919381322274596 Y36.70128136806121 F300
G1 X29.27035880756914 Y36.83539637476007 F300
G1 X29.641601758354902 Y36.965796304793365 F300
G1 X30.033707572085685 Y37.092152837103846 F300
G1 X30.44733772100264 Y37.21410058248864 F300
G1 X30.88322036871061 Y37.33122964184195 F300
G1 X31.34214954179698 Y37.44307641941089 F300
G1 X31.824977731354156 Y37.54911232509552 F300
G1 X32.33259659179214 Y37.64873004280342 F300
G1 X32.8658968068637 Y37.741227267976114 F300
G1 X33.42569258653432 Y37.825788455600616 F300
G1 X34.01258827533782 Y37.901466610103114 F300
G1 X34.62675535786224 Y37.96717023416578 F300
G1 X35.26758380803816 Y38.02166617381671 F300
G1 X35.93318961404259 Y38.06361741947679 F300
G1 X36.61983382814657 Y38.091682250894486 F300
G1 X37.321466047013665 Y38.10469475288038 F300
G1 X37.55208888888888 Y38.105541701120416 F300
G1 X38.26052297893519 Y38.09754346714475 F300
G1 X38.96281971593075 Y38.07374171092687 F300
G1 X39.65001922750077 Y38.034911122425015 F300
G1 X40.31526289415712 Y37.98229462840455 F300
G1 X40.954203271317326 Y37.91733887138433 F300
G1 X41.564662013079776 Y37.84148106341503 F300
G1 X42.14599196019636 Y37.75603045463063 F300
G1 X42.698480527510085 Y37.66212649856942 F300
G1 X43.22291615443653 Y37.56074032500215 F300
G1 X43.720313317927264 Y37.45269441081298 F300
G1 X44.191752787781724 Y37.33868677911259 F300
G1 X44.63829533425826 Y37.21931376169765 F300
G1 X45.06093899020234 Y37.09508935646116 F300
G1 X45.46060094351898 Y36.96646096455697 F300
G1 X45.838112798310725 Y36.833821932693645 F300
G1 X46.19422273536284 Y36.69752148002458 F300
G1 X46.52960094540172 Y36.557872556232546 F300
G1 X46.8448463486306 Y36.41515808794246 F300
G1 X47.14049354500396 Y36.269635976173326 F300
G1 X47.41701946175587 Y36.12154312564136 F300
G1 X47.67484945359406 Y35.97109872103546 F300
G1 X47.914362767767386 Y35.81850691458539 F300
G1 X48.13589736855088 Y35.66395905063971 F300
G1 X48.339754156369125 Y35.50763552384748 F300
G1 X48.5262006344187 Y35.34970734560929 F300
G1 X48.695474080831985 Y35.19033747692118 F300
G1 X48.84778428311476 Y35.02968197321803 F300
G1 X48.983315887142176 Y34.867890977307205 F300
G1 X49.10223040726028 Y34.705109589215795 F300
G1 X49.20466793800202 Y34.54147863620146 F300
G1 X49.29074860209483 Y34.37713536188528 F300
G1 X49.36057376403983 Y34.21221405015496 F300
G1 X49.414227033658086 Y34.046846596933385 F300
G1 X49.45177507962454 Y33.88116304094661 F300
G1 X49.47326826909824 Y33.71529206313283 F300
G1 X49.47894111111111 Y33.575592812231534 F300
G0 X0 Y0
