G21
G90;svg#Layer_2 > g#Layer_2-2 > path
G0 X18.454690893675064 Y24.40194444444445
G1 X18.296570188614204 Y23.80947487839686 F300
G1 X18.128697342734704 Y23.220393528967183 F300
G1 X17.951381498382062 Y22.634586470212124 F300
G1 X17.76492655047283 Y22.051941297399047 F300
G1 X17.569631552111282 Y21.472347119341567 F300
G1 X17.365753311706058 Y20.895589994014326 F300
G1 X17.153683750521186 Y20.321843635142777 F300
G1 X16.933725266430827 Y19.751019570731927 F300
G1 X16.706177504048966 Y19.18303035371038 F300
G1 X16.47133764264626 Y18.617789547325106 F300
G1 X16.16815496804002 Y17.915364956896674 F300
G1 X15.854777958291589 Y17.21727203316587 F300
G1 X15.531802673428576 Y16.523374267112086 F300
G1 X15.199822004786176 Y15.833536666666669 F300
G1 X14.756843124593622 Y14.943331539976594 F300
G1 X14.3027354869404 Y14.059055303859108 F300
G1 X13.8392129924405 Y13.179748847736633 F300
G1 X13.368000690895425 Y12.304479954321645 F300
G1 X12.890838198443495 Y11.432345096019194 F300
G1 X12.409459535650376 Y10.562430411522637 F300
G1 X10.957598671452844 Y7.957278888888889 F300
G1 X10.35001492110016 Y6.855833539676817 F300
G1 X9.750393115897289 Y5.7500188888888895 F300
G1 X9.356731968529346 Y5.00956615816104 F300
G1 X8.969101850519891 Y4.265943364506036 F300
G1 X8.588484227008399 Y3.5186288888888884 F300
G1 X8.570423776238858 Y3.4699285052316147 F300
G1 X8.563678510290671 Y3.4213155969402727 F300
G1 X8.567092827831445 Y3.373530082304526 F300
G1 X8.58036569509325 Y3.3274835383355286 F300
G1 X8.602512149872489 Y3.286428890937999 F300
G1 X8.633347107666836 Y3.251165843621398 F300
G1 X8.671197192762964 Y3.22433791768303 F300
G1 X8.716695877905781 Y3.2066206859900266 F300
G1 X8.771223115897286 Y3.2001411111111095 F300
G1 X16.9869942270084 Y3.238523333333331 F300
G1 X25.20276533811951 Y3.276905555555552 F300
G1 X29.8571742270084 Y3.2986366666666624 F300
G1 X29.901341412835386 Y3.3036990012200977 F300
G1 X29.941934022901577 Y3.3174385252793956 F300
G1 X29.978812004786196 Y3.3388533333333292 F300
G1 X30.011012697286915 Y3.367028139536309 F300
G1 X30.036973774634035 Y3.400341280428934 F300
G1 X30.056140893675078 Y3.438242592592588 F300
G1 X30.067184322778445 Y3.478944994528149 F300
G1 X30.06932496219633 Y3.5217465630818285 F300
G1 X30.061220893675074 Y3.566606666666663 F300
G1 X29.86609565453381 Y4.188230141239912 F300
G1 X29.659905867095173 Y4.805435503343185 F300
G1 X29.443088544759572 Y5.418411440213473 F300
G1 X29.216073782618704 Y6.027344270026706 F300
G1 X28.97928542042405 Y6.632418024691354 F300
G1 X28.733115417919198 Y7.233877419937317 F300
G1 X28.478091935031657 Y7.831630874147193 F300
G1 X28.214646661216925 Y8.425828994033996 F300
G1 X27.94320830880594 Y9.01662110318194 F300
G1 X27.664203033592774 Y9.604155308641973 F300
G1 X27.30565029997684 Y10.33381753337822 F300
G1 X26.9369871360268 Y11.058492296667925 F300
G1 X26.559072652502593 Y11.77842510965026 F300
G1 X26.1727631158973 Y12.493859999999998 F300
G1 X25.661226936886546 Y13.415816902636301 F300
G1 X25.140459745030387 Y14.332445922617246 F300
G1 X24.61278500890142 Y15.245124238683125 F300
G1 X23.011727889559854 Y17.972901316872424 F300
G1 X22.47984121332156 Y18.883213695002553 F300
G1 X21.95276833065203 Y19.79627319170029 F300
G1 X21.43284089367508 Y20.71344111111111 F300
G1 X20.994158750322125 Y21.504943401906985 F300
G1 X20.564076473131387 Y22.301109854461338 F300
G1 X20.143879088119526 Y23.10250513888888 F300
G1 X19.83601563262377 Y23.707277495923556 F300
G1 X19.535022108712802 Y24.31546231068795 F300
G1 X19.241430861211512 Y24.9273194860925 F300
G1 X18.95577644923064 Y25.543109999999995 F300
G1 X18.935786608410595 Y25.576218556648527 F300
G1 X18.910516608820785 Y25.602244886687323 F300
G1 X18.880842124575835 Y25.622129644794324 F300
G1 X18.847194062399367 Y25.636306049382714 F300
G1 X18.79888816713919 Y25.64592280046498 F300
G1 X18.749505852234467 Y25.64520789954903 F300
G1 X18.70076253976562 Y25.634299135802465 F300
G1 X18.656022061684542 Y25.613342864495774 F300
G1 X18.618697055138707 Y25.583180743719357 F300
G1 X18.590298671452864 Y25.543109999999995 F300
G1 X18.290155338119533 Y24.95227777777777 F300
G1 X18.27199040981219 Y24.904973185897855 F300
G1 X18.265312516723395 Y24.861188796061068 F300
G1 X18.2677510988365 Y24.8204919955742 F300
G1 X18.277927178397306 Y24.782410868055546 F300
G1 X18.302878571530126 Y24.734850974462105 F300
G1 X18.337611632075525 Y24.694986831414738 F300
G1 X18.380395893675086 Y24.66331749999999 F300
G1 X18.428873915155105 Y24.641655539694682 F300
G1 X18.478834895573804 Y24.632014421185993 F300
G1 X18.529113775619532 Y24.635293715277772 F300
G1 X18.56409690314286 Y24.646602397223223 F300
G1 X18.59712470558248 Y24.66624749799534 F300
G1 X18.627959258851764 Y24.695989520730905 F300
G1 X18.65563311589731 Y24.738635555555547 F300
G1 X18.95577644923064 Y25.329467777777772 F300
G1 X18.590298671452864 Y25.329467777777772 F300
G1 X18.926718485982384 Y24.606769763692903 F300
G1 X19.273990208542997 Y23.889850993241254 F300
G1 X19.631178888805874 Y23.178170361373734 F300
G1 X19.997354144703895 Y22.47118905349794 F300
G1 X20.497968841125267 Y21.53492350773498 F300
G1 X21.010612724528066 Y20.604986307884804 F300
G1 X21.533040235238868 Y19.68020465020576 F300
G1 X22.32990224407823 Y18.300501395462778 F300
G1 X23.135769782563976 Y16.926442222222217 F300
G1 X23.936436861589485 Y15.563574882908224 F300
G1 X24.730043115897317 Y14.195957901234566 F300
G1 X25.25125192603949 Y13.279724478536323 F300
G1 X25.763377065350276 Y12.358673687822574 F300
G1 X26.264109041823236 Y11.431606913580243 F300
G1 X26.630771063410435 Y10.731675502635099 F300
G1 X26.988736773806693 Y10.027203291399326 F300
G1 X27.33704984540625 Y9.31764141160696 F300
G1 X27.674749782563975 Y8.602438888888882 F300
G1 X27.959641924485357 Y7.97376405749906 F300
G1 X28.234571343003157 Y7.340916456986288 F300
G1 X28.49916638009315 Y6.703826208696403 F300
G1 X28.753050338119536 Y6.062421249999993 F300
G1 X28.995793840085 Y5.416756120569802 F300
G1 X29.226970806253732 Y4.766886494772739 F300
G1 X29.446208842350707 Y4.11271489304473 F300
G1 X29.65312756034176 Y3.454141111111104 F300
G1 X29.857174227008425 Y3.7221111111111034 F300
G1 X21.64140311589732 Y3.6837288888888824 F300
G1 X13.425632004786209 Y3.645346666666662 F300
G1 X8.771223115897321 Y3.623615555555551 F300
G1 X8.95396200478621 Y3.3051277777777726 F300
G1 X9.40750563628469 Y4.193517999264613 F300
G1 X9.870754249084413 Y5.07663614166288 F300
G1 X10.341998836061931 Y5.95545053497942 F300
G1 X11.060103764605651 Y7.267682205244588 F300
G1 X11.786511469806785 Y8.575512798353904 F300
G1 X12.51535505657208 Y9.882014366253221 F300
G1 X13.240776449230651 Y11.19027555555555 F300
G1 X13.723460209618494 Y12.07256118070179 F300
G1 X14.199934707617665 Y12.958393485409262 F300
G1 X14.668502087090737 Y13.848479629629624 F300
G1 X15.013714319784825 Y14.519257527380754 F300
G1 X15.35274769663081 Y15.193009116660834 F300
G1 X15.68489805033583 Y15.870053502699756 F300
G1 X16.00946007062983 Y16.550710370370364 F300
G1 X16.325683720130975 Y17.235204950833005 F300
G1 X16.63288323616309 Y17.92390010117202 F300
G1 X16.93036440468867 Y18.617150370379992 F300
G1 X17.217428671452875 Y19.315312222222218 F300
G1 X17.457395086979187 Y19.92535970505093 F300
G1 X17.688151698291627 Y20.53878419745013 F300
G1 X17.909418236815448 Y21.155606508353422 F300
G1 X18.12091019923065 Y21.77584902777777 F300
G1 X18.32230221596824 Y22.39942008801834 F300
G1 X18.51326736634401 Y23.026212116446935 F300
G1 X18.693523967346913 Y23.656264898201 F300
G1 X18.86278422700843 Y24.289619999999996 F300
G1 X18.87026304111245 Y24.339870155060545 F300
G1 X18.86711246138208 Y24.38359527484493 F300
G1 X18.8556824292897 Y24.421913216698385 F300
G1 X18.837256345063988 Y24.455725416666663 F300
G1 X18.802204331932437 Y24.49490082019559 F300
G1 X18.75911528524869 Y24.524334715305443 F300
G1 X18.709678671452874 Y24.543937499999995 F300
G1 X18.657213286264327 Y24.55240724835957 F300
G1 X18.605705444644943 Y24.549039989363013 F300
G1 X18.55659516450843 Y24.533142499999997 F300
G1 X18.524433675566772 Y24.513373178354158 F300
G1 X18.49612213081303 Y24.48610509481179 F300
G1 X18.472316700292648 Y24.449819592518985 F300
G1 X18.454549782563987 Y24.40222666666666 F300
G1 X18.454549782563987 Y24.40222666666666 F300
G1 X18.454690893675064 Y24.40194444444445 F300;svg#Layer_2 > g#Layer_2-2 > path
G0 X18.891288671452845 Y18.08835111111111
G1 X16.84963871664638 Y17.137312713158344 F300
G1 X14.813153786688122 Y16.17545899896127 F300
G1 X12.781856779616355 Y15.202801084669025 F300
G1 X10.755770868257013 Y14.219349494293336 F300
G1 X8.734919508778376 Y13.225114163668788 F300
G1 X6.719326449230621 Y12.220104444444443 F300
G1 X5.011046328817018 Y11.357850578854134 F300
G1 X3.3065542270084 Y10.487965555555553 F300
G1 X3.264086431391209 Y10.4601285445977 F300
G1 X3.234450870892259 Y10.429147860219887 F300
G1 X3.2148718691455125 Y10.395982128401789 F300
G1 X3.2036092617306218 Y10.360870746527775 F300
G1 X3.2003734507615156 Y10.310456895318614 F300
G1 X3.210027655560538 Y10.260420408266269 F300
G1 X3.2316595047861774 Y10.211934583333331 F300
G1 X3.2632962706154145 Y10.169149076964473 F300
G1 X3.303097624619687 Y10.13447966741473 F300
G1 X3.3505676645083993 Y10.109644461805553 F300
G1 X3.388567560264545 Y10.099579610165327 F300
G1 X3.4291904921836247 Y10.097270358287826 F300
G1 X3.4729195442947876 Y10.10410834771703 F300
G1 X3.5201964492306215 Y10.122487777777776 F300
G1 X5.530364060319023 Y11.147243148556106 F300
G1 X7.545816715807887 Y12.161434821883713 F300
G1 X9.566557799244682 Y13.164983054901706 F300
G1 X11.592590984732988 Y14.157807538655524 F300
G1 X13.623920232185835 Y15.139827384596018 F300
G1 X15.660549782563955 Y16.11096111111111 F300
G1 X17.38087404199379 Y16.920781742344982 F300
G1 X19.104789782563955 Y17.722873333333332 F300
G1 X19.148272908612732 Y17.74895359684738 F300
G1 X19.178532220378397 Y17.77842594385464 F300
G1 X19.198539841610156 Y17.810251268271827 F300
G1 X19.210155685341732 Y17.84419361111111 F300
G1 X19.213803679466302 Y17.89332848595418 F300
G1 X19.204415801093806 Y17.94268026350474 F300
G1 X19.182753671452843 Y17.991125555555556 F300
G1 X19.151095141909035 Y18.03397652236307 F300
G1 X19.111002490721603 Y18.069309027687293 F300
G1 X19.062959157563952 Y18.095300833333333 F300
G1 X19.024388291779648 Y18.10645076042632 F300
G1 X18.983167561875256 Y18.110029143389774 F300
G1 X18.93888496056845 Y18.10473439674876 F300
G1 X18.891147560341732 Y18.08835111111111 F300
G1 X18.891147560341732 Y18.08835111111111 F300
G1 X18.891288671452845 Y18.08835111111111 F300;svg#Layer_2 > g#Layer_2-2 > path
G0 X23.559808671452846 Y18.97932666666667
G1 X25.794544371355727 Y18.822052443223047 F300
G1 X28.028491682041697 Y18.65474277216535 F300
G1 X30.26163331862561 Y18.47737685707225 F300
G1 X32.4939519687083 Y18.28993350855634 F300
G1 X34.7254302876217 Y18.0923911424119 F300
G1 X36.95605089367508 Y17.88472777777778 F300
G1 X39.17669274607647 Y17.66785060382682 F300
G1 X41.39630564725646 Y17.44099383726293 F300
G1 X43.61486411748952 Y17.2041674482143 F300
G1 X45.832342640236384 Y16.957381019449414 F300
G1 X48.048715656693105 Y16.700643747607636 F300
G1 X50.26395756034174 Y16.433964444444445 F300
G1 X52.147336577243834 Y16.199310189399974 F300
G1 X54.029795513385345 Y15.95743377545555 F300
G1 X55.911334368508534 Y15.708359968666002 F300
G1 X57.7919531158973 Y15.452113333333335 F300
G1 X57.84961356614026 Y15.449288290965834 F300
G1 X57.903249982715195 Y15.456920722188137 F300
G1 X57.952026032563964 Y15.475096805555559 F300
G1 X57.98427975893965 Y15.49577873578711 F300
G1 X58.01209225069903 Y15.522734948992357 F300
G1 X58.03509626505719 Y15.556961617552798 F300
G1 X58.052303115897296 Y15.59999777777778 F300
G1 X58.058383464420096 Y15.633846284580876 F300
G1 X58.05818631670498 Y15.670086467505811 F300
G1 X58.05171776610307 Y15.707853703703709 F300
G1 X58.03947951867817 Y15.744200062803829 F300
G1 X58.02196679157076 Y15.77785640434013 F300
G1 X57.9993603175434 Y15.80780740740741 F300
G1 X57.97189193745224 Y15.83261236321032 F300
G1 X57.940410923522734 Y15.850465781881496 F300
G1 X57.90441867145286 Y15.86034777777778 F300
G1 X55.670769242681175 Y16.16402304010359 F300
G1 X53.43583243047698 Y16.45776785700893 F300
G1 X51.19962180620539 Y16.74151494170788 F300
G1 X48.96215088817196 Y17.015196621969345 F300
G1 X46.72343314596267 Y17.278744833128158 F300
G1 X44.48348200478619 Y17.532091111111114 F300
G1 X42.25489232518962 Y17.773935069807518 F300
G1 X40.02528593276959 Y18.005700259996527 F300
G1 X37.794684075112706 Y18.22738158981341 F300
G1 X35.56310795599204 Y18.43897357155133 F300
G1 X33.330578740526484 Y18.640470320792648 F300
G1 X31.09711756034175 Y18.831865555555556 F300
G1 X28.585643241764988 Y19.034882198689072 F300
G1 X26.073138921392808 Y19.225135830317488 F300
G1 X23.559667560341754 Y19.40266 F300
G1 X23.508917740904643 Y19.40071623792269 F300
G1 X23.467752630466144 Y19.389450693248463 F300
G1 X23.434210633621575 Y19.371148019859366 F300
G1 X23.406870685341755 Y19.346912291666666 F300
G1 X23.378748706559037 Y19.305454100168184 F300
G1 X23.36189692927487 Y19.257624640512308 F300
G1 X23.356150060341758 Y19.204857500000003 F300
G1 X23.361895653664746 Y19.151936817900634 F300
G1 X23.37875672443638 Y19.101686550211312 F300
G1 X23.40718818534176 Y19.055870625 F300
G1 X23.434902687495565 Y19.027599360772413 F300
G1 X23.46875912362826 Y19.004648463479512 F300
G1 X23.50983481926557 Y18.987958915259934 F300
G1 X23.559667560341754 Y18.97932666666667 F300
G1 X23.559667560341754 Y18.97932666666667 F300
G1 X23.559808671452846 Y18.97932666666667 F300;svg#Layer_2 > g#Layer_2-2 > path
G0 X23.832576449230626 Y18.087645555555557
G1 X26.067312149133503 Y17.930371332111932 F300
G1 X28.301259459819477 Y17.763061661054234 F300
G1 X30.53440109640339 Y17.58569574596114 F300
G1 X32.76671974648608 Y17.39825239744523 F300
G1 X34.99819806539948 Y17.200710031300787 F300
G1 X37.22881867145285 Y16.993046666666668 F300
G1 X39.44946052385425 Y16.776169492715713 F300
G1 X41.669073425034235 Y16.54931272615182 F300
G1 X43.8876318952673 Y16.31248633710319 F300
G1 X46.105110418014156 Y16.0656999083383 F300
G1 X48.32148343447086 Y15.808962636496517 F300
G1 X50.53672533811951 Y15.542283333333332 F300
G1 X52.42010435502163 Y15.307629078288864 F300
G1 X54.30256329116311 Y15.065752664344435 F300
G1 X56.18410214628632 Y14.81667885755489 F300
G1 X58.06472089367507 Y14.560432222222222 F300
G1 X58.12238134391805 Y14.557607179854724 F300
G1 X58.17601776049297 Y14.565239611077024 F300
G1 X58.22479381034174 Y14.583415694444442 F300
G1 X58.25704753671743 Y14.604097624675997 F300
G1 X58.284860028476785 Y14.63105383788124 F300
G1 X58.30786404283497 Y14.665280506441684 F300
G1 X58.32507089367507 Y14.708316666666665 F300
G1 X58.33115124219787 Y14.742165173469763 F300
G1 X58.33095409448275 Y14.778405356394696 F300
G1 X58.32448554388085 Y14.816172592592594 F300
G1 X58.312247296455965 Y14.85251895169272 F300
G1 X58.294734569348535 Y14.886175293229014 F300
G1 X58.27212809532117 Y14.916126296296296 F300
G1 X58.244659715230014 Y14.940931252099206 F300
G1 X58.213178701300514 Y14.958784670770381 F300
G1 X58.17718644923063 Y14.968666666666666 F300
G1 X55.943537020458955 Y15.272341928992475 F300
G1 X53.708600208254744 Y15.566086745897815 F300
G1 X51.47238958398317 Y15.849833830596765 F300
G1 X49.23491866594973 Y16.12351551085823 F300
G1 X46.996200923740446 Y16.387063722017047 F300
G1 X44.75624978256396 Y16.64041 F300
G1 X42.527660102967396 Y16.882253958696406 F300
G1 X40.29805371054736 Y17.114019148885408 F300
G1 X38.067451852890485 Y17.335700478702297 F300
G1 X35.83587573376982 Y17.547292460440215 F300
G1 X33.603346518304264 Y17.748789209681533 F300
G1 X31.369885338119527 Y17.94018444444444 F300
G1 X28.858411019542757 Y18.14320108757796 F300
G1 X26.345906699170587 Y18.333454719206372 F300
G1 X23.83243533811953 Y18.510978888888886 F300
G1 X23.781685518682423 Y18.509035126811575 F300
G1 X23.74052040824391 Y18.497769582137348 F300
G1 X23.706978411399348 Y18.479466908748257 F300
G1 X23.67963846311953 Y18.455231180555554 F300
G1 X23.65151648433682 Y18.413772989057076 F300
G1 X23.63466470705264 Y18.36594352940119 F300
G1 X23.62891783811953 Y18.313176388888888 F300
G1 X23.634663431442526 Y18.26025570678952 F300
G1 X23.651524502214155 Y18.210005439100197 F300
G1 X23.679955963119532 Y18.16418951388889 F300
G1 X23.707670465273345 Y18.1359182496613 F300
G1 X23.74152690140604 Y18.1129673523684 F300
G1 X23.78260259704335 Y18.096277804148823 F300
G1 X23.83243533811953 Y18.087645555555557 F300
G1 X23.83243533811953 Y18.087645555555557 F300
G1 X23.832576449230626 Y18.087645555555557 F300;svg#Layer_2 > g#Layer_2-2 > path
G0 X24.24645533811951 Y17.24097888888889
G1 X26.481191038022388 Y17.08370466544526 F300
G1 X28.715138348708372 Y16.916394994387574 F300
G1 X30.948279985292288 Y16.739029079294475 F300
G1 X33.18059863537497 Y16.55158573077856 F300
G1 X35.412076954288366 Y16.354043364634116 F300
G1 X37.64269756034174 Y16.14638 F300
G1 X39.86333941274313 Y15.929502826049038 F300
G1 X42.08295231392313 Y15.702646059485156 F300
G1 X44.301510784156186 Y15.465819670436522 F300
G1 X46.51898930690305 Y15.219033241671635 F300
G1 X48.735362323359766 Y14.962295969829853 F300
G1 X50.950604227008405 Y14.695616666666666 F300
G1 X52.833983243910495 Y14.460962411622194 F300
G1 X54.716442180052006 Y14.21908599767777 F300
G1 X56.5979810351752 Y13.970012190888223 F300
G1 X58.47859978256396 Y13.713765555555556 F300
G1 X58.536260232806924 Y13.710940513188051 F300
G1 X58.589896649381856 Y13.718572944410358 F300
G1 X58.63867269923063 Y13.736749027777776 F300
G1 X58.67092642560633 Y13.757430958009332 F300
G1 X58.69873891736568 Y13.784387171214574 F300
G1 X58.72174293172387 Y13.818613839775018 F300
G1 X58.738949782563964 Y13.861649999999997 F300
G1 X58.74503013108674 Y13.895498506803094 F300
G1 X58.74483298337163 Y13.931738689728029 F300
G1 X58.738364432769735 Y13.969505925925926 F300
G1 X58.726126185344846 Y14.005852285026052 F300
G1 X58.70861345823743 Y14.03950862656235 F300
G1 X58.68600698421006 Y14.069459629629629 F300
G1 X58.6585386041189 Y14.094264585432537 F300
G1 X58.627057590189395 Y14.112118004103712 F300
G1 X58.59106533811952 Y14.121999999999998 F300
G1 X56.35741590934782 Y14.425675262325804 F300
G1 X54.12247909714363 Y14.71942007923115 F300
G1 X51.886268472872075 Y15.0031671639301 F300
G1 X49.64879755483862 Y15.27684884419156 F300
G1 X47.41007981262935 Y15.540397055350375 F300
G1 X45.17012867145286 Y15.793743333333328 F300
G1 X42.94153899185629 Y16.03558729202973 F300
G1 X40.71193259943625 Y16.26735248221874 F300
G1 X38.481330741779374 Y16.48903381203563 F300
G1 X36.2497546226587 Y16.700625793773547 F300
G1 X34.01722540719315 Y16.90212254301487 F300
G1 X31.78376422700841 Y17.093517777777777 F300
G1 X29.272289908431645 Y17.296534420911293 F300
G1 X26.759785588059472 Y17.486788052539705 F300
G1 X24.24631422700842 Y17.66431222222222 F300
G1 X24.195564407571315 Y17.66236846014491 F300
G1 X24.154399297132805 Y17.651102915470684 F300
G1 X24.12085730028824 Y17.632800242081586 F300
G1 X24.093517352008423 Y17.608564513888886 F300
G1 X24.065395373225712 Y17.567106322390405 F300
G1 X24.04854359594154 Y17.519276862734525 F300
G1 X24.042796727008426 Y17.46650972222222 F300
G1 X24.04854232033142 Y17.413589040122844 F300
G1 X24.065403391103047 Y17.363338772433526 F300
G1 X24.09383485200842 Y17.31752284722222 F300
G1 X24.121549354162234 Y17.28925158299463 F300
G1 X24.155405790294928 Y17.266300685701733 F300
G1 X24.196481485932235 Y17.24961113748215 F300
G1 X24.24631422700842 Y17.240978888888886 F300
G1 X24.24631422700842 Y17.240978888888886 F300
G1 X24.24645533811951 Y17.24097888888889 F300;svg#Layer_2 > g#Layer_2-2 > path
G0 X24.763909782563953 Y16.25320111111111
G1 X26.99864548246683 Y16.09592688766749 F300
G1 X29.23259279315282 Y15.928617216609796 F300
G1 X31.465734429736727 Y15.7512513015167 F300
G1 X33.69805307981942 Y15.563807953000785 F300
G1 X35.929531398732806 Y15.36626558685634 F300
G1 X38.16015200478618 Y15.158602222222223 F300
G1 X40.38079385718756 Y14.941725048271264 F300
G1 X42.60040675836757 Y14.714868281707375 F300
G1 X44.81896522860062 Y14.478041892658744 F300
G1 X47.03644375134749 Y14.231255463893856 F300
G1 X49.252816767804205 Y13.974518192052075 F300
G1 X51.468058671452845 Y13.70783888888889 F300
G1 X53.351437688354935 Y13.473184633844415 F300
G1 X55.23389662449646 Y13.231308219899995 F300
G1 X57.11543547961964 Y12.982234413110444 F300
G1 X58.99605422700841 Y12.725987777777778 F300
G1 X59.05371467725138 Y12.723162735410279 F300
G1 X59.10735109382629 Y12.730795166632582 F300
G1 X59.156127143675064 Y12.748971250000004 F300
G1 X59.18838087005076 Y12.769653180231558 F300
G1 X59.21619336181013 Y12.796609393436803 F300
G1 X59.239197376168306 Y12.830836061997244 F300
G1 X59.2564042270084 Y12.873872222222225 F300
G1 X59.26248457553119 Y12.907720729025316 F300
G1 X59.262287427816084 Y12.943960911950253 F300
G1 X59.255818877214175 Y12.98172814814815 F300
G1 X59.2435806297893 Y13.01807450724828 F300
G1 X59.22606790268186 Y13.051730848784574 F300
G1 X59.20346142865449 Y13.081681851851855 F300
G1 X59.17599304856334 Y13.106486807654765 F300
G1 X59.14451203463384 Y13.124340226325941 F300
G1 X59.10851978256397 Y13.134222222222224 F300
G1 X56.87487035379227 Y13.43789748454803 F300
G1 X54.63993354158808 Y13.731642301453375 F300
G1 X52.4037229173165 Y14.015389386152322 F300
G1 X50.16625199928306 Y14.289071066413786 F300
G1 X47.92753425707378 Y14.5526192775726 F300
G1 X45.6875831158973 Y14.805965555555556 F300
G1 X43.45899343630073 Y15.04780951425196 F300
G1 X41.22938704388069 Y15.279574704440968 F300
G1 X38.99878518622381 Y15.501256034257853 F300
G1 X36.767209067103146 Y15.712848015995771 F300
G1 X34.53467985163759 Y15.914344765237093 F300
G1 X32.30121867145286 Y16.10574 F300
G1 X29.78974435287609 Y16.308756643133517 F300
G1 X27.27724003250392 Y16.49901027476193 F300
G1 X24.763768671452862 Y16.676534444444442 F300
G1 X24.71301885201575 Y16.67459068236713 F300
G1 X24.671853741577245 Y16.6633251376929 F300
G1 X24.638311744732682 Y16.64502246430381 F300
G1 X24.610971796452862 Y16.62078673611111 F300
G1 X24.58284981767015 Y16.57932854461263 F300
G1 X24.565998040385974 Y16.531499084956746 F300
G1 X24.56025117145286 Y16.478731944444444 F300
G1 X24.565996764775857 Y16.42581126234507 F300
G1 X24.582857835547486 Y16.375560994655753 F300
G1 X24.61128929645286 Y16.329745069444442 F300
G1 X24.63900379860668 Y16.301473805216858 F300
G1 X24.672860234739368 Y16.278522907923957 F300
G1 X24.713935930376678 Y16.261833359704376 F300
G1 X24.763768671452862 Y16.25320111111111 F300
G1 X24.763768671452862 Y16.25320111111111 F300
G1 X24.763909782563953 Y16.25320111111111 F300;svg#Layer_2 > g#Layer_2-2 > path
G0 X25.281223115897284 Y15.124312222222224
G1 X27.51595881580017 Y14.967037998778599 F300
G1 X29.749906126486145 Y14.799728327720905 F300
G1 X31.983047763070054 Y14.622362412627808 F300
G1 X34.21536641315274 Y14.434919064111895 F300
G1 X36.44684473206614 Y14.237376697967452 F300
G1 X38.67746533811951 Y14.029713333333335 F300
G1 X40.8981071905209 Y13.812836159382373 F300
G1 X43.11772009170089 Y13.585979392818485 F300
G1 X45.33627856193396 Y13.349153003769857 F300
G1 X47.55375708468082 Y13.102366575004968 F300
G1 X49.77013010113754 Y12.84562930316319 F300
G1 X51.98537200478617 Y12.57895 F300
G1 X53.86875102168829 Y12.34429574495553 F300
G1 X55.751209957829786 Y12.1024193310111 F300
G1 X57.63274881295298 Y11.853345524221556 F300
G1 X59.51336756034173 Y11.59709888888889 F300
G1 X59.57102801058468 Y11.594273846521387 F300
G1 X59.624664427159615 Y11.601906277743694 F300
G1 X59.6734404770084 Y11.620082361111113 F300
G1 X59.705694203384084 Y11.640764291342666 F300
G1 X59.73350669514346 Y11.667720504547916 F300
G1 X59.75651070950165 Y11.701947173108355 F300
G1 X59.773717560341744 Y11.744983333333334 F300
G1 X59.77979790886454 Y11.778831840136428 F300
G1 X59.77960076114942 Y11.815072023061365 F300
G1 X59.773132210547516 Y11.85283925925926 F300
G1 X59.76089396312263 Y11.889185618359388 F300
G1 X59.743381236015196 Y11.922841959895685 F300
G1 X59.720774761987826 Y11.952792962962963 F300
G1 X59.69330638189667 Y11.977597918765873 F300
G1 X59.66182536796717 Y11.99545133743705 F300
G1 X59.62583311589729 Y12.005333333333335 F300
G1 X57.39218368712561 Y12.30900859565914 F300
G1 X55.15724687492141 Y12.602753412564486 F300
G1 X52.921036250649834 Y12.886500497263434 F300
G1 X50.683565332616396 Y13.160182177524897 F300
G1 X48.44484759040711 Y13.423730388683712 F300
G1 X46.204896449230624 Y13.677076666666666 F300
G1 X43.97630676963406 Y13.91892062536307 F300
G1 X41.74670037721403 Y14.150685815552077 F300
G1 X39.51609851955715 Y14.372367145368965 F300
G1 X37.28452240043649 Y14.58395912710688 F300
G1 X35.051993184970925 Y14.785455876348205 F300
G1 X32.81853200478619 Y14.976851111111111 F300
G1 X30.307057686209433 Y15.179867754244631 F300
G1 X27.794553365837253 Y15.370121385873041 F300
G1 X25.281082004786196 Y15.547645555555555 F300
G1 X25.23033218534908 Y15.54570179347824 F300
G1 X25.189167074910575 Y15.534436248804015 F300
G1 X25.15562507806601 Y15.516133575414923 F300
G1 X25.1282851297862 Y15.491897847222221 F300
G1 X25.100163151003485 Y15.45043965572374 F300
G1 X25.083311373719308 Y15.402610196067856 F300
G1 X25.077564504786196 Y15.349843055555555 F300
G1 X25.083310098109187 Y15.296922373456184 F300
G1 X25.10017116888082 Y15.246672105766862 F300
G1 X25.128602629786194 Y15.200856180555554 F300
G1 X25.156317131940014 Y15.17258491632797 F300
G1 X25.1901735680727 Y15.149634019035066 F300
G1 X25.231249263710012 Y15.132944470815486 F300
G1 X25.281082004786196 Y15.12431222222222 F300
G1 X25.281082004786196 Y15.12431222222222 F300
G1 X25.281223115897284 Y15.124312222222224 F300;svg#Layer_2 > g#Layer_2-2 > path
G0 X25.695243115897288 Y14.136534444444447
G1 X27.929978815800165 Y13.979260221000821 F300
G1 X30.163926126486146 Y13.811950549943127 F300
G1 X32.39706776307006 Y13.63458463485003 F300
G1 X34.629386413152744 Y13.447141286334118 F300
G1 X36.86086473206614 Y13.249598920189673 F300
G1 X39.09148533811951 Y13.041935555555556 F300
G1 X41.312127190520904 Y12.825058381604599 F300
G1 X43.5317400917009 Y12.598201615040706 F300
G1 X45.75029856193396 Y12.361375225992077 F300
G1 X47.96777708468082 Y12.114588797227189 F300
G1 X50.18415010113753 Y11.857851525385408 F300
G1 X52.39939200478617 Y11.591172222222223 F300
G1 X54.28277102168828 Y11.356517967177751 F300
G1 X56.165229957829816 Y11.114641553233328 F300
G1 X58.04676881295298 Y10.865567746443778 F300
G1 X59.92738756034173 Y10.609321111111111 F300
G1 X59.98504801058471 Y10.606496068743613 F300
G1 X60.03868442715964 Y10.614128499965918 F300
G1 X60.0874604770084 Y10.632304583333335 F300
G1 X60.11971420338409 Y10.65298651356489 F300
G1 X60.147526695143455 Y10.679942726770136 F300
G1 X60.170530709501634 Y10.714169395330577 F300
G1 X60.18773756034174 Y10.757205555555556 F300
G1 X60.19381790886452 Y10.791054062358649 F300
G1 X60.19362076114941 Y10.827294245283584 F300
G1 X60.18715221054752 Y10.865061481481483 F300
G1 X60.17491396312262 Y10.901407840581609 F300
G1 X60.1574012360152 Y10.935064182117907 F300
G1 X60.134794761987834 Y10.965015185185186 F300
G1 X60.10732638189667 Y10.989820140988096 F300
G1 X60.075845367967176 Y11.007673559659274 F300
G1 X60.039853115897294 Y11.017555555555557 F300
G1 X57.806203687125624 Y11.321230817881363 F300
G1 X55.571266874921406 Y11.614975634786706 F300
G1 X53.33505625064984 Y11.898722719485654 F300
G1 X51.0975853326164 Y12.172404399747117 F300
G1 X48.858867590407115 Y12.435952610905932 F300
G1 X46.618916449230625 Y12.689298888888887 F300
G1 X44.39032676963408 Y12.931142847585292 F300
G1 X42.160720377214034 Y13.162908037774299 F300
G1 X39.930118519557155 Y13.384589367591186 F300
G1 X37.69854240043649 Y13.5961813493291 F300
G1 X35.46601318497093 Y13.797678098570424 F300
G1 X33.23255200478619 Y13.98907333333333 F300
G1 X30.721077686209433 Y14.192089976466852 F300
G1 X28.20857336583725 Y14.382343608095262 F300
G1 X25.695102004786193 Y14.559867777777777 F300
G1 X25.644352185349078 Y14.557924015700465 F300
G1 X25.603187074910583 Y14.546658471026243 F300
G1 X25.569645078066014 Y14.528355797637145 F300
G1 X25.542305129786193 Y14.504120069444445 F300
G1 X25.514183151003483 Y14.462661877945964 F300
G1 X25.49733137371931 Y14.41483241829008 F300
G1 X25.491584504786196 Y14.362065277777777 F300
G1 X25.497330098109188 Y14.309144595678404 F300
G1 X25.51419116888082 Y14.258894327989085 F300
G1 X25.542622629786194 Y14.213078402777777 F300
G1 X25.570337131940008 Y14.184807138550191 F300
G1 X25.604193568072702 Y14.161856241257286 F300
G1 X25.645269263710013 Y14.145166693037709 F300
G1 X25.695102004786193 Y14.136534444444443 F300
G1 X25.695102004786193 Y14.136534444444443 F300
G1 X25.695243115897288 Y14.136534444444447 F300
G0 X0 Y0